{
"type": "FeatureCollection",
"name": "map",
"crs": { "type": "name", "properties": { "name": "urn:ogc:def:crs:EPSG::32619" } },
"features": [
{ "type": "Feature", "properties": { "drag_region": "North", "NAME": "Coos", "NAMELSAD": "Coos" }, "geometry": { "type": "Polygon", "coordinates": [ [ [ 305923.479377257346641, 5048472.244706911966205 ], [ 310515.29898074985249, 5048891.771034098230302 ], [ 314637.17263494891813, 5052482.027849713340402 ], [ 316774.830836551904213, 5056711.389556626789272 ], [ 321407.839601631741971, 5058665.130272522568703 ], [ 319874.966822734975722, 5064349.392284777015448 ], [ 323049.795641902892385, 5065490.855878780595958 ], [ 323837.76612163806567, 5072439.05605685338378 ], [ 321105.657157034322154, 5076154.986990462988615 ], [ 318289.541761471016798, 5085988.692700913175941 ], [ 322708.572257541993167, 5090814.709002266637981 ], [ 324036.57598952454282, 5096886.272763640619814 ], [ 329362.110227949742693, 5103884.617859060876071 ], [ 325945.068285028508399, 5112492.20427364949137 ], [ 329145.943276485428214, 5115258.264953404664993 ], [ 330194.111262003949378, 5121721.442561531439424 ], [ 335462.998320176440757, 5127674.551479545421898 ], [ 334659.372467446431983, 5129131.515506840310991 ], [ 337973.21131151902955, 5136100.710345433093607 ], [ 334412.753616358269937, 5139646.227262686006725 ], [ 339514.910402458161116, 5140544.396665912121534 ], [ 340714.42303027282469, 5142992.550798094831407 ], [ 347022.763552030955907, 5146822.144213899970055 ], [ 351082.534393382316921, 5140882.295434658415616 ], [ 358956.311427331296727, 5140191.785385795868933 ], [ 362790.882693458814174, 5146776.511661603115499 ], [ 365201.042760754644405, 5074427.874229773879051 ], [ 365897.851270086073782, 5033258.267892370931804 ], [ 363029.187216435093433, 5033138.202367974445224 ], [ 363187.404101769498084, 5027978.394609281793237 ], [ 346297.474288845085539, 5029184.100644744001329 ], [ 341953.433558202232234, 5017463.47612477466464 ], [ 341237.171812310582027, 5012422.416120670735836 ], [ 338651.191419775423128, 5012495.527259694412351 ], [ 337737.068991560488939, 5020734.346497352235019 ], [ 333296.954178983171005, 5026020.300589660182595 ], [ 331125.10075179481646, 5030191.225430518388748 ], [ 326013.536102999118157, 5031873.576467111706734 ], [ 320540.03514504811028, 5031088.048388284631073 ], [ 319857.992763502814341, 5036744.942565851844847 ], [ 311080.163210041180719, 5039989.142071511596441 ], [ 305923.479377257346641, 5048472.244706911966205 ] ] ] } },
{ "type": "Feature", "properties": { "drag_region": "Central", "NAME": "Belknap", "NAMELSAD": "Belknap" }, "geometry": { "type": "Polygon", "coordinates": [ [ [ 321594.00858022167813, 4807436.854016980156302 ], [ 343267.952352644409984, 4785707.261117140762508 ], [ 350709.490782512177248, 4781881.225818463601172 ], [ 348319.07037524797488, 4779270.529323385097086 ], [ 350469.956215376150794, 4761456.293368002399802 ], [ 344154.523235210566781, 4753889.259457948617637 ], [ 319093.850417528708931, 4773132.895444703288376 ], [ 314968.35545024392195, 4771350.510724823921919 ], [ 312262.847689324466046, 4777738.968955686315894 ], [ 309101.004373408737592, 4778795.045553809963167 ], [ 305269.958334853989072, 4785987.48373387940228 ], [ 305077.313526663114317, 4788954.786764102987945 ], [ 308569.843703878752422, 4789318.409802593290806 ], [ 311561.685452354839072, 4792183.041097761131823 ], [ 312076.704130184138194, 4799234.354595136828721 ], [ 322245.801480369176716, 4800349.783953262493014 ], [ 321594.00858022167813, 4807436.854016980156302 ] ] ] } },
{ "type": "Feature", "properties": { "drag_region": "North", "NAME": "Carroll", "NAMELSAD": "Carroll" }, "geometry": { "type": "Polygon", "coordinates": [ [ [ 337172.569032295432407, 4957080.766102759167552 ], [ 341612.683844872750342, 4951794.812010451219976 ], [ 342526.806273087684531, 4943555.992772793397307 ], [ 345112.786665622843429, 4943482.881633769720793 ], [ 345829.048411514493637, 4948523.941637873649597 ], [ 350173.089142157346942, 4960244.566157842986286 ], [ 367063.018955081759486, 4959038.860122380778193 ], [ 366904.802069747354835, 4964198.667881073430181 ], [ 369773.466123398335185, 4964318.733405469916761 ], [ 370170.570707110629883, 4909507.782448683865368 ], [ 370739.956318429263774, 4884864.046863520517945 ], [ 371532.900528348167427, 4881599.537707313895226 ], [ 366445.33533255738439, 4875229.906316615641117 ], [ 365412.813276542874519, 4880505.720703907310963 ], [ 359256.531838421069551, 4878081.69738891068846 ], [ 358283.932447321072686, 4885457.820121266879141 ], [ 355286.249356815125793, 4881716.265013802796602 ], [ 347844.71092694735853, 4885542.300312479957938 ], [ 326170.767154524626676, 4907271.893212319351733 ], [ 324026.285369057732169, 4922045.883326908573508 ], [ 340529.911590809992049, 4924036.592539147473872 ], [ 339142.560116485750768, 4935917.900962284766138 ], [ 342166.034698799194302, 4940987.895816267468035 ], [ 339385.497729042603169, 4944314.658179476857185 ], [ 339283.66233027150156, 4950716.030486546456814 ], [ 337026.723286712600384, 4952118.948881696909666 ], [ 337172.569032295432407, 4957080.766102759167552 ] ] ] } },
{ "type": "Feature", "properties": { "drag_region": "Central", "NAME": "Strafford", "NAMELSAD": "Strafford" }, "geometry": { "type": "Polygon", "coordinates": [ [ [ 374096.819730577757582, 4723632.253607852384448 ], [ 381316.676793607417494, 4732320.727036797441542 ], [ 379165.79095347924158, 4750134.962992180138826 ], [ 381556.211360743502155, 4752745.659487258642912 ], [ 384553.894451249390841, 4756487.214594722725451 ], [ 385526.493842349387705, 4749111.09186236653477 ], [ 391682.775280471192673, 4751535.115177363157272 ], [ 392715.297336485702544, 4746259.300790071487427 ], [ 397802.862532276543789, 4752628.932180769741535 ], [ 397897.414620533236302, 4744321.549513556063175 ], [ 395344.802564900717698, 4734740.448306761682034 ], [ 397843.117311754031107, 4729622.044958435930312 ], [ 409508.837227338575758, 4717141.270456445403397 ], [ 407672.206226598704234, 4713172.352856359444559 ], [ 408389.736171418917365, 4705902.659270063042641 ], [ 404890.176549100317061, 4706170.423274624161422 ], [ 403611.227224792353809, 4701235.55722345970571 ], [ 398962.614795299363323, 4702486.590525261126459 ], [ 387545.535279887262732, 4701804.871846056543291 ], [ 391493.894223299692385, 4707913.182229843921959 ], [ 374096.819730577757582, 4723632.253607852384448 ] ] ] } },
{ "type": "Feature", "properties": { "drag_region": "South", "NAME": "Sullivan", "NAMELSAD": "Sullivan" }, "geometry": { "type": "Polygon", "coordinates": [ [ [ 156622.038897029939108, 4743446.788095985539258 ], [ 160189.128244334948249, 4752189.069398461841047 ], [ 158677.063173805247061, 4757985.13113928027451 ], [ 162108.538920983031858, 4770747.367892257869244 ], [ 160793.547866908484139, 4774146.020418664440513 ], [ 162531.594779718609061, 4781147.564076460897923 ], [ 166704.248280505184084, 4783846.04165433626622 ], [ 176492.018942445458379, 4781836.00317716691643 ], [ 187624.573764776287135, 4776828.988950749859214 ], [ 198293.335528355964925, 4774723.983425659127533 ], [ 191832.643872352491599, 4764732.726629801094532 ], [ 188364.137541480944492, 4765336.742581184953451 ], [ 188399.582285408803727, 4758361.044546397402883 ], [ 184971.211580103961751, 4752277.133746947161853 ], [ 186735.378125565650407, 4744759.994725178927183 ], [ 190837.87929488660302, 4737159.161277027800679 ], [ 188265.283135921752546, 4730660.363916305825114 ], [ 176889.19853980053449, 4731369.448320552706718 ], [ 178853.384570052963682, 4736932.295571010559797 ], [ 160946.665212433843408, 4734860.53420867677778 ], [ 161126.987814838881604, 4732081.860346821136773 ], [ 156471.232240550743882, 4732653.346638123504817 ], [ 154837.634282715269364, 4735587.69603037647903 ], [ 156622.038897029939108, 4743446.788095985539258 ] ] ] } },
{ "type": "Feature", "properties": { "drag_region": "Central", "NAME": "Rockingham", "NAMELSAD": "Rockingham" }, "geometry": { "type": "Polygon", "coordinates": [ [ [ 354413.431182586355135, 4661640.7406588755548 ], [ 354806.469868600834161, 4665162.332737594842911 ], [ 367197.741967497742735, 4690789.300439794547856 ], [ 384594.81646021961933, 4675070.229061786085367 ], [ 380646.457516807247885, 4668961.918677998706698 ], [ 392063.537032219290268, 4669643.637357203289866 ], [ 396712.149461712338962, 4668392.604055401869118 ], [ 397991.098786020302214, 4673327.47010656632483 ], [ 401490.658408338902518, 4673059.706102005206048 ], [ 410690.618849624297582, 4665803.581239884719253 ], [ 401564.090229244378861, 4649387.663168059661984 ], [ 400887.377194437547587, 4645202.755639489740133 ], [ 398514.764822929049842, 4644013.646857843734324 ], [ 394180.988704803632572, 4646973.534991315566003 ], [ 383555.488378010166343, 4644167.255388882942498 ], [ 380771.496132812288124, 4638316.667156300507486 ], [ 375238.585820112959482, 4640172.599782317876816 ], [ 370748.258789140847512, 4636850.95858353190124 ], [ 370888.85360380023485, 4630928.638448668643832 ], [ 365615.357479163678363, 4631639.769651838578284 ], [ 364478.518165498157032, 4633102.134503724053502 ], [ 357188.319970965501852, 4635210.805619147606194 ], [ 354411.118716316763312, 4640921.884306568652391 ], [ 351189.04817438084865, 4641204.856740209273994 ], [ 349476.908747963258065, 4652998.704262686893344 ], [ 355066.451893248595297, 4653697.360315239988267 ], [ 354413.431182586355135, 4661640.7406588755548 ] ] ] } },
{ "type": "Feature", "properties": { "drag_region": "South", "NAME": "Hillsborough", "NAMELSAD": "Hillsborough" }, "geometry": { "type": "Polygon", "coordinates": [ [ [ 230640.494746442273026, 4675741.986493031494319 ], [ 233213.090905407094397, 4682240.783853753469884 ], [ 241161.784461300907424, 4684060.866650189273059 ], [ 245478.921504512458341, 4673691.289104125462472 ], [ 260795.403880913829198, 4677292.88640424143523 ], [ 262787.456722572853323, 4666342.582346333190799 ], [ 272775.061541322385892, 4667658.74253105185926 ], [ 279040.844162922119722, 4661839.807795025408268 ], [ 282816.007790596340783, 4660776.30324468947947 ], [ 283469.028501258580945, 4652832.922901053912938 ], [ 277879.485355973243713, 4652134.266848500818014 ], [ 279591.624782390834298, 4640340.419326023198664 ], [ 282813.69532432674896, 4640057.446892382577062 ], [ 285590.8965789754875, 4634346.368204961530864 ], [ 292881.09477350814268, 4632237.697089537978172 ], [ 294017.934087173664011, 4630775.332237652502954 ], [ 293118.690038454951718, 4630131.058929765596986 ], [ 290061.271844458417036, 4625821.928437131457031 ], [ 238079.94207186406129, 4629148.058524216525257 ], [ 236906.799232869001571, 4637690.074003898538649 ], [ 234561.462438208807725, 4637867.983397645875812 ], [ 232529.46693333418807, 4655039.225492556579411 ], [ 228143.58531993519864, 4655388.653241561725736 ], [ 228735.195247619412839, 4663582.95396966021508 ], [ 230640.494746442273026, 4675741.986493031494319 ] ] ] } },
{ "type": "Feature", "properties": { "drag_region": "South", "NAME": "Cheshire", "NAMELSAD": "Cheshire" }, "geometry": { "type": "Polygon", "coordinates": [ [ [ 150630.266984496061923, 4681413.847095785662532 ], [ 152263.86494233153644, 4678479.49770353268832 ], [ 156919.620516619674163, 4677908.011412230320275 ], [ 156739.297914214635966, 4680686.685274085961282 ], [ 174646.01727183375624, 4682758.446636419743299 ], [ 172681.831241581297945, 4677195.599385961890221 ], [ 184057.915837702545105, 4676486.514981715008616 ], [ 182152.616338879684918, 4664327.482458343729377 ], [ 181561.006411195470719, 4656133.181730245240033 ], [ 185946.888024594460148, 4655783.753981240093708 ], [ 187978.883529469079804, 4638612.511886329390109 ], [ 190324.220324129273649, 4638434.602492582052946 ], [ 191497.363163124333369, 4629892.587012900039554 ], [ 162436.819912493083393, 4632013.074605816975236 ], [ 148058.473419276095228, 4633161.084659750573337 ], [ 145622.859986343042692, 4638326.64836572483182 ], [ 143821.022117996908491, 4637445.809106996282935 ], [ 140707.362323635519715, 4647325.259805552661419 ], [ 143638.95368833313114, 4654179.03172835893929 ], [ 144159.857641040318413, 4659605.078064224682748 ], [ 148005.355456435558153, 4660400.661101951263845 ], [ 150523.422590928006684, 4664597.584812616929412 ], [ 148973.233515894709853, 4669631.196249673143029 ], [ 151733.244443428498926, 4672671.433423610404134 ], [ 150630.266984496061923, 4681413.847095785662532 ] ] ] } },
{ "type": "Feature", "properties": { "drag_region": "South", "NAME": "Merrimack", "NAMELSAD": "Merrimack" }, "geometry": { "type": "Polygon", "coordinates": [ [ [ 245309.754097947094124, 4763435.169522859156132 ], [ 252585.300269289466087, 4772352.579101712442935 ], [ 254939.833546600362752, 4764821.414257305674255 ], [ 259668.257510730123613, 4767337.299275655299425 ], [ 262261.384717085806187, 4766774.090340904891491 ], [ 266092.430755640554707, 4759581.652160835452378 ], [ 269254.274071556283161, 4758525.575562711805105 ], [ 271959.781832475739066, 4752137.11733184941113 ], [ 276085.276799760526046, 4753919.502051728777587 ], [ 301145.949617442383897, 4734675.866064974106848 ], [ 300241.525534578307997, 4733554.426546082831919 ], [ 287850.253435681399424, 4707927.458843883126974 ], [ 287457.214749666920397, 4704405.866765163838863 ], [ 283682.051121992699336, 4705469.371315499767661 ], [ 277416.268500392965507, 4711288.306051526218653 ], [ 267428.663681643432938, 4709972.145866807550192 ], [ 265436.610839984437916, 4720922.449924715794623 ], [ 250120.12846358306706, 4717320.852624599821866 ], [ 245802.991420371516142, 4727690.430170663632452 ], [ 237854.297864477703115, 4725870.347374227829278 ], [ 233751.796695156779606, 4733471.180822378955781 ], [ 231987.630149695061846, 4740988.319844147190452 ], [ 235416.000854999903822, 4747072.230643597431481 ], [ 235380.556111072044587, 4754047.928678384982049 ], [ 238849.062441943591693, 4753443.91272700112313 ], [ 245309.754097947094124, 4763435.169522859156132 ] ] ] } },
{ "type": "Feature", "properties": { "drag_region": "North", "NAME": "Grafton", "NAMELSAD": "Grafton" }, "geometry": { "type": "Polygon", "coordinates": [ [ [ 235800.297583689301973, 4917249.409974726848304 ], [ 237695.218576644023415, 4921380.840454247780144 ], [ 237641.964890364935854, 4927498.665710678324103 ], [ 243363.87816728814505, 4933682.500341969542205 ], [ 243670.568138486967655, 4941793.068509221076965 ], [ 247281.032837141712662, 4945861.722515896894038 ], [ 250975.10208828857867, 4952317.684955294243991 ], [ 249328.990399854781572, 4954480.69108840636909 ], [ 250675.546630984521471, 4959781.66642882488668 ], [ 248511.286139565374469, 4963397.569280079565942 ], [ 250434.307623758446425, 4968772.508465529419482 ], [ 248835.917393177282065, 4972080.928916198201478 ], [ 251916.031273711880203, 4977795.136612291447818 ], [ 255992.63955735633499, 4979556.523301389068365 ], [ 267477.922888629895169, 4980294.969567429274321 ], [ 269506.770363487245049, 4980989.256115939468145 ], [ 271106.481407578161452, 4985902.265454704873264 ], [ 273418.992942470533308, 4986587.938862261362374 ], [ 278575.676775254367385, 4978104.83622686099261 ], [ 287353.506328716001008, 4974860.636721201241016 ], [ 288035.548710261296947, 4969203.742543634027243 ], [ 293509.049668212304823, 4969989.270622461102903 ], [ 298620.614317008003127, 4968306.919585867784917 ], [ 300792.467744196357671, 4964135.994745009578764 ], [ 300646.621998613525648, 4959174.177523947320879 ], [ 302903.561042172426824, 4957771.259128796868026 ], [ 303005.396440943528432, 4951369.886821727268398 ], [ 305785.933410700119566, 4948043.124458517879248 ], [ 302762.458828386676032, 4942973.12960453517735 ], [ 304149.810302710917313, 4931091.821181397885084 ], [ 287646.184080958657432, 4929101.111969158984721 ], [ 289790.66586642555194, 4914327.121854569762945 ], [ 290442.458766573050525, 4907240.051790852099657 ], [ 280273.361416388012003, 4906124.622432726435363 ], [ 279758.342738558712881, 4899073.308935350738466 ], [ 276766.500990082626231, 4896208.677640182897449 ], [ 273273.970812866988126, 4895845.054601692594588 ], [ 273466.615621057862882, 4892877.751571469008923 ], [ 270873.488414702180307, 4893440.960506219416857 ], [ 266145.064450572419446, 4890925.075487869791687 ], [ 263790.531173261522781, 4898456.240332276560366 ], [ 256514.985001919179922, 4889538.830753423273563 ], [ 245846.223238339502132, 4891643.836278514005244 ], [ 234713.668416008644272, 4896650.85050493106246 ], [ 224925.897754068399081, 4898660.88898210041225 ], [ 227379.867969638580689, 4909266.370747379027307 ], [ 230149.065761711186497, 4913361.343216546811163 ], [ 235800.297583689301973, 4917249.409974726848304 ] ] ] } }
]
}
