{
"type": "FeatureCollection",
"name": "map",
"crs": { "type": "name", "properties": { "name": "urn:ogc:def:crs:EPSG::32615" } },
"features": [
{ "type": "Feature", "properties": { "drag_region": "Northeast", "NAME": "Black Hawk", "NAMELSAD": "Black Hawk" }, "geometry": { "type": "Polygon", "coordinates": [ [ [ 605970.351691343355924, 4779850.356761837378144 ], [ 644811.660921809496358, 4780163.23031641356647 ], [ 645020.509669086197391, 4760894.299312319606543 ], [ 646495.861465160618536, 4760910.419759443961084 ], [ 646704.936905074748211, 4741928.209919502958655 ], [ 607946.403383767465129, 4741513.668694652616978 ], [ 607841.306327083264478, 4760686.475184734910727 ], [ 606070.924245039466769, 4760676.979360190220177 ], [ 605970.351691343355924, 4779850.356761837378144 ] ] ] } },
{ "type": "Feature", "properties": { "drag_region": "Northeast", "NAME": "Hancock", "NAMELSAD": "Hancock" }, "geometry": { "type": "Polygon", "coordinates": [ [ [ 466019.922622821410187, 4861781.815814279951155 ], [ 504477.441507579118479, 4861444.695061193779111 ], [ 503956.542361033963971, 4822905.340608436614275 ], [ 465573.190902818809263, 4823145.05133446585387 ], [ 466019.922622821410187, 4861781.815814279951155 ] ] ] } },
{ "type": "Feature", "properties": { "drag_region": "Southeast", "NAME": "Wapello", "NAMELSAD": "Wapello" }, "geometry": { "type": "Polygon", "coordinates": [ [ [ 602504.618263619719073, 4505801.562807652167976 ], [ 641348.857125803828239, 4506255.475290147587657 ], [ 641623.464598182821646, 4477073.581274503841996 ], [ 602926.327470588381402, 4476716.624028389342129 ], [ 602504.618263619719073, 4505801.562807652167976 ] ] ] } },
{ "type": "Feature", "properties": { "drag_region": "Southeast", "NAME": "Cedar", "NAMELSAD": "Cedar" }, "geometry": { "type": "Polygon", "coordinates": [ [ [ 731380.116571091813967, 4573765.508476581424475 ], [ 730643.09649108024314, 4612585.597803649492562 ], [ 769622.473781153326854, 4613244.312226137146354 ], [ 770096.861794562544674, 4593881.116174196824431 ], [ 770270.475877190940082, 4574511.145415460690856 ], [ 731380.116571091813967, 4573765.508476581424475 ] ] ] } },
{ "type": "Feature", "properties": { "drag_region": "Northeast", "NAME": "Howard", "NAMELSAD": "Howard" }, "geometry": { "type": "Polygon", "coordinates": [ [ [ 606026.813747006934136, 4893950.830704358406365 ], [ 644328.80637245811522, 4894361.410112996585667 ], [ 644390.287107362411916, 4862397.92325783893466 ], [ 605906.312505505979061, 4862084.587263566441834 ], [ 606026.813747006934136, 4893950.830704358406365 ] ] ] } },
{ "type": "Feature", "properties": { "drag_region": "Southwest", "NAME": "Warren", "NAMELSAD": "Warren" }, "geometry": { "type": "Polygon", "coordinates": [ [ [ 389249.414681539288722, 4532546.495531227439642 ], [ 418300.230765603948385, 4531862.511919389478862 ], [ 420688.31571465882007, 4530133.950541714206338 ], [ 427878.179471567331348, 4529912.409154887311161 ], [ 427740.025590306031518, 4493290.563114330172539 ], [ 408467.638454418280162, 4493388.458313959650695 ], [ 388894.881579166685697, 4493635.311096198856831 ], [ 389249.414681539288722, 4532546.495531227439642 ] ] ] } },
{ "type": "Feature", "properties": { "drag_region": "Southwest", "NAME": "Wayne", "NAMELSAD": "Wayne" }, "geometry": { "type": "Polygon", "coordinates": [ [ [ 415734.08760200656252, 4445740.571386899799109 ], [ 454432.413168499886524, 4445595.826716903597116 ], [ 454393.609690683602821, 4410694.250728792510927 ], [ 431002.684452147397678, 4410375.44246434327215 ], [ 415510.215736072219443, 4410457.324879350140691 ], [ 415734.08760200656252, 4445740.571386899799109 ] ] ] } },
{ "type": "Feature", "properties": { "drag_region": "Northeast", "NAME": "Marshall", "NAMELSAD": "Marshall" }, "geometry": { "type": "Polygon", "coordinates": [ [ [ 539268.138773100450635, 4720097.028000422753394 ], [ 558230.210147394565865, 4720071.335494304075837 ], [ 577488.303789276746102, 4720192.90486497245729 ], [ 577593.056668710312806, 4681658.939868497662246 ], [ 539164.634150092606433, 4681658.447616117075086 ], [ 539268.138773100450635, 4720097.028000422753394 ] ] ] } },
{ "type": "Feature", "properties": { "drag_region": "Northeast", "NAME": "Franklin", "NAMELSAD": "Franklin" }, "geometry": { "type": "Polygon", "coordinates": [ [ [ 514123.773503893811721, 4814362.63299523666501 ], [ 552798.783139059087262, 4814146.502689163200557 ], [ 552786.881614503683522, 4775226.306144542060792 ], [ 513893.472803648328409, 4775442.311068917624652 ], [ 514123.773503893811721, 4814362.63299523666501 ] ] ] } },
{ "type": "Feature", "properties": { "drag_region": "Northeast", "NAME": "Delaware", "NAMELSAD": "Delaware" }, "geometry": { "type": "Polygon", "coordinates": [ [ [ 701675.817312655504793, 4779601.588072013109922 ], [ 740510.828577423933893, 4780636.012882032431662 ], [ 741662.773447789251804, 4741722.234598651528358 ], [ 703195.74165624845773, 4741078.278447046875954 ], [ 702879.262903522700071, 4760251.560736776329577 ], [ 701994.050668899668381, 4760236.981295405887067 ], [ 701675.817312655504793, 4779601.588072013109922 ] ] ] } },
{ "type": "Feature", "properties": { "drag_region": "Northeast", "NAME": "Buchanan", "NAMELSAD": "Buchanan" }, "geometry": { "type": "Polygon", "coordinates": [ [ [ 653004.441943358164281, 4779433.768003890290856 ], [ 691843.043309553992003, 4780155.068125537596643 ], [ 692161.276665798155591, 4760790.461348930373788 ], [ 693046.488900421187282, 4760805.040790300816298 ], [ 693362.967653146828525, 4741631.758500571362674 ], [ 674126.859288828447461, 4741627.358816122636199 ], [ 654897.717926623416133, 4741198.747606979683042 ], [ 654688.642486709286459, 4760180.95744692068547 ], [ 653213.290690634865314, 4760164.836999796330929 ], [ 653004.441943358164281, 4779433.768003890290856 ] ] ] } },
{ "type": "Feature", "properties": { "drag_region": "Northwest", "NAME": "Webster", "NAMELSAD": "Webster" }, "geometry": { "type": "Polygon", "coordinates": [ [ [ 327621.852839557977859, 4754164.366712844930589 ], [ 366166.180871379910968, 4753518.11050851456821 ], [ 366350.026873596885707, 4743880.176658051088452 ], [ 365945.850247283524368, 4734344.533874614164233 ], [ 369486.503092305792961, 4734304.812594566494226 ], [ 369168.301728098769672, 4705211.689073471352458 ], [ 330649.76543942221906, 4705641.927893944084644 ], [ 331132.32719768647803, 4735021.674552362412214 ], [ 327296.666560937708709, 4735085.890010359697044 ], [ 327621.852839557977859, 4754164.366712844930589 ] ] ] } },
{ "type": "Feature", "properties": { "drag_region": "Southwest", "NAME": "Boone", "NAMELSAD": "Boone" }, "geometry": { "type": "Polygon", "coordinates": [ [ [ 352012.802115311496891, 4631326.057614128105342 ], [ 390528.711985963745974, 4630810.458141717128456 ], [ 390216.356014483957551, 4592466.989906650036573 ], [ 351489.988920825067908, 4592886.670186063274741 ], [ 352012.802115311496891, 4631326.057614128105342 ] ] ] } },
{ "type": "Feature", "properties": { "drag_region": "Southwest", "NAME": "Ringgold", "NAMELSAD": "Ringgold" }, "geometry": { "type": "Polygon", "coordinates": [ [ [ 315941.394455168396235, 4449244.956114237196743 ], [ 354334.292058042949066, 4448412.779456440359354 ], [ 353919.14301336905919, 4412556.799503779970109 ], [ 335686.622102388180792, 4412503.372390773147345 ], [ 315328.79269492754247, 4412720.498567469418049 ], [ 315941.394455168396235, 4449244.956114237196743 ] ] ] } },
{ "type": "Feature", "properties": { "drag_region": "Southwest", "NAME": "Shelby", "NAMELSAD": "Shelby" }, "geometry": { "type": "Polygon", "coordinates": [ [ [ 206021.040943044965388, 4584855.101466847583652 ], [ 244452.458675191941438, 4583813.875463271513581 ], [ 243746.966342776227975, 4554817.345873494632542 ], [ 248233.812974795262562, 4554709.8604790372774 ], [ 247976.978390141535783, 4543836.502144763246179 ], [ 209636.173753996990854, 4545034.188537117093801 ], [ 209945.429021795658628, 4555717.199346572160721 ], [ 204860.138926686282502, 4555866.350769427604973 ], [ 206021.040943044965388, 4584855.101466847583652 ] ] ] } },
{ "type": "Feature", "properties": { "drag_region": "Southwest", "NAME": "Union", "NAMELSAD": "Union" }, "geometry": { "type": "Polygon", "coordinates": [ [ [ 315802.563439696736168, 4486663.716014076024294 ], [ 354349.326767645776272, 4486018.060596940107644 ], [ 353712.746486771618947, 4457220.939846002496779 ], [ 315319.848883897066116, 4458053.116503799334168 ], [ 315802.563439696736168, 4486663.716014076024294 ] ] ] } },
{ "type": "Feature", "properties": { "drag_region": "Southwest", "NAME": "Adams", "NAMELSAD": "Adams" }, "geometry": { "type": "Polygon", "coordinates": [ [ [ 269552.177716982841957, 4487960.321874897927046 ], [ 307797.845764924073592, 4487117.754242733120918 ], [ 307315.13120912440354, 4458507.154732456430793 ], [ 268919.877882383938413, 4459348.773164809681475 ], [ 269552.177716982841957, 4487960.321874897927046 ] ] ] } },
{ "type": "Feature", "properties": { "drag_region": "Southeast", "NAME": "Mahaska", "NAMELSAD": "Mahaska" }, "geometry": { "type": "Polygon", "coordinates": [ [ [ 578862.954296411830001, 4551663.750116240233183 ], [ 617202.473285157699138, 4551917.994962055236101 ], [ 617765.390613530413248, 4513295.183552112430334 ], [ 598192.508301821653731, 4513093.036601432599127 ], [ 578920.175475349533372, 4513039.155471234582365 ], [ 578862.954296411830001, 4551663.750116240233183 ] ] ] } },
{ "type": "Feature", "properties": { "drag_region": "Southwest", "NAME": "Adair", "NAMELSAD": "Adair" }, "geometry": { "type": "Polygon", "coordinates": [ [ [ 292899.688101056381129, 4532417.146343351341784 ], [ 331242.491805349010974, 4531668.675582861527801 ], [ 330691.926635353884194, 4493233.688044583424926 ], [ 311417.876449926174246, 4493534.273686449974775 ], [ 292145.422145218413789, 4493981.127403991296887 ], [ 292821.333439932961483, 4513145.296922515146434 ], [ 292899.688101056381129, 4532417.146343351341784 ] ] ] } },
{ "type": "Feature", "properties": { "drag_region": "Northeast", "NAME": "Hamilton", "NAMELSAD": "Hamilton" }, "geometry": { "type": "Polygon", "coordinates": [ [ [ 465449.383665793749969, 4767159.090257116593421 ], [ 504048.4151554852142, 4766824.314380181021988 ], [ 503991.642411075066775, 4757189.993099891580641 ], [ 506942.199522388516925, 4757173.24461024813354 ], [ 506783.608493759587873, 4728080.398167719133198 ], [ 487525.160521902376786, 4728211.461036810651422 ], [ 468267.658520295633934, 4728490.602672536857426 ], [ 468585.859884502657223, 4757583.726193631999195 ], [ 465045.20703948038863, 4757623.447473679669201 ], [ 465449.383665793749969, 4767159.090257116593421 ] ] ] } },
{ "type": "Feature", "properties": { "drag_region": "Northeast", "NAME": "Hardin", "NAMELSAD": "Hardin" }, "geometry": { "type": "Polygon", "coordinates": [ [ [ 513704.804250820539892, 4767630.559599852189422 ], [ 552598.213061676011421, 4767414.554675476625562 ], [ 552595.308174580102786, 4757875.655486916191876 ], [ 554365.636806304100901, 4757875.341457671485841 ], [ 554660.45393440569751, 4728782.576605020090938 ], [ 516439.997589094913565, 4728886.643387390300632 ], [ 516598.588617723842617, 4757979.489829919300973 ], [ 513648.031506410392467, 4757996.238319562748075 ], [ 513704.804250820539892, 4767630.559599852189422 ] ] ] } },
{ "type": "Feature", "properties": { "drag_region": "Northwest", "NAME": "Ida", "NAMELSAD": "Ida" }, "geometry": { "type": "Polygon", "coordinates": [ [ [ 187773.858197793655563, 4748880.512277034111321 ], [ 216947.526410938880872, 4748091.934811287559569 ], [ 216673.335274183831643, 4738361.506143132224679 ], [ 221984.432890049065463, 4738213.996475083753467 ], [ 221184.240809234906919, 4708928.186349213123322 ], [ 192445.92731223575538, 4709865.687024687416852 ], [ 193658.314069977670442, 4739047.540575704537332 ], [ 187464.970874656341039, 4739340.644402370788157 ], [ 187773.858197793655563, 4748880.512277034111321 ] ] ] } },
{ "type": "Feature", "properties": { "drag_region": "Southeast", "NAME": "Marion", "NAMELSAD": "Marion" }, "geometry": { "type": "Polygon", "coordinates": [ [ [ 529804.232855792390183, 4551224.133664553053677 ], [ 567845.14394291001372, 4551275.768399043940008 ], [ 567902.365121847717091, 4512651.173754038289189 ], [ 529658.858481716131791, 4512694.842280054464936 ], [ 529804.232855792390183, 4551224.133664553053677 ] ] ] } },
{ "type": "Feature", "properties": { "drag_region": "Southeast", "NAME": "Poweshiek", "NAMELSAD": "Poweshiek" }, "geometry": { "type": "Polygon", "coordinates": [ [ [ 589649.195207521785051, 4599386.208918431773782 ], [ 628673.552357393200509, 4599598.803957442753017 ], [ 628454.046419544494711, 4589963.172910862602293 ], [ 628993.346433082828298, 4560399.256559838540852 ], [ 590653.885225273668766, 4560094.071374063380063 ], [ 590624.861940475180745, 4570394.367090553976595 ], [ 589727.549884702195413, 4570391.89239708147943 ], [ 589649.195207521785051, 4599386.208918431773782 ] ] ] } },
{ "type": "Feature", "properties": { "drag_region": "Southwest", "NAME": "Polk", "NAMELSAD": "Polk" }, "geometry": { "type": "Polygon", "coordinates": [ [ [ 387907.400869158795103, 4581885.624788033775985 ], [ 426633.034888237481937, 4581527.642810268327594 ], [ 426515.135717990866397, 4552437.917711805552244 ], [ 428309.785530913097318, 4552430.886684785597026 ], [ 428263.531735190656036, 4540223.137990006245673 ], [ 421073.667978282144759, 4540444.67937683314085 ], [ 418685.583029227273073, 4542173.240754508413374 ], [ 389634.766945162613411, 4542857.224366346374154 ], [ 389724.661789408186451, 4552680.759932430461049 ], [ 387630.883305387862492, 4552700.241571473889053 ], [ 387907.400869158795103, 4581885.624788033775985 ] ] ] } },
{ "type": "Feature", "properties": { "drag_region": "Southwest", "NAME": "Madison", "NAMELSAD": "Madison" }, "geometry": { "type": "Polygon", "coordinates": [ [ [ 340099.118600827117916, 4531907.351794922724366 ], [ 368856.081667903694324, 4531455.944550055079162 ], [ 377852.577263833431061, 4532417.302145076915622 ], [ 377498.044161460828036, 4493506.11771004833281 ], [ 358821.266573353321292, 4493127.294481375254691 ], [ 339548.553430831991136, 4493472.364256644621491 ], [ 340099.118600827117916, 4531907.351794922724366 ] ] ] } },
{ "type": "Feature", "properties": { "drag_region": "Southeast", "NAME": "Van Buren", "NAMELSAD": "Van Buren" }, "geometry": { "type": "Polygon", "coordinates": [ [ [ 650011.468550442019477, 4469802.223569188266993 ], [ 688706.851869513164274, 4470457.765750387683511 ], [ 688849.110678309225477, 4460730.546383801847696 ], [ 689501.800230150576681, 4436798.98156217020005 ], [ 688262.22499574336689, 4438497.853585024364293 ], [ 670358.347799358773045, 4437402.668125105090439 ], [ 650321.989104179781862, 4436616.560017049312592 ], [ 650011.468550442019477, 4469802.223569188266993 ] ] ] } },
{ "type": "Feature", "properties": { "drag_region": "Southeast", "NAME": "Henry", "NAMELSAD": "Henry" }, "geometry": { "type": "Polygon", "coordinates": [ [ [ 695898.149904819088988, 4477317.908825579099357 ], [ 695773.793067099526525, 4506314.110364518128335 ], [ 715046.378009508713149, 4506623.937751717865467 ], [ 724686.341584012960084, 4506607.194572977721691 ], [ 725406.728093625511974, 4467982.742783829569817 ], [ 696040.408713615150191, 4467590.689458993263543 ], [ 695898.149904819088988, 4477317.908825579099357 ] ] ] } },
{ "type": "Feature", "properties": { "drag_region": "Northeast", "NAME": "Cerro Gordo", "NAMELSAD": "Cerro Gordo" }, "geometry": { "type": "Polygon", "coordinates": [ [ [ 514240.326066780195106, 4860609.485516567714512 ], [ 552406.329019830445759, 4860490.384875289164484 ], [ 552394.43655540025793, 4821854.000757737085223 ], [ 513719.426920235040598, 4822070.131063810549676 ], [ 514240.326066780195106, 4860609.485516567714512 ] ] ] } },
{ "type": "Feature", "properties": { "drag_region": "Northeast", "NAME": "Wright", "NAMELSAD": "Wright" }, "geometry": { "type": "Polygon", "coordinates": [ [ [ 465159.181678532098886, 4785391.797342767007649 ], [ 465789.00841247086646, 4814579.120267716236413 ], [ 504172.359870686021168, 4814339.409541686996818 ], [ 503942.059170440537855, 4775419.08761536795646 ], [ 465343.027680749073625, 4775753.863492303527892 ], [ 465159.181678532098886, 4785391.797342767007649 ] ] ] } },
{ "type": "Feature", "properties": { "drag_region": "Southeast", "NAME": "Jones", "NAMELSAD": "Jones" }, "geometry": { "type": "Polygon", "coordinates": [ [ [ 731079.85152738483157, 4661062.824675469659269 ], [ 769549.960872507188469, 4661716.90277511626482 ], [ 770503.598281084327027, 4622988.97739534266293 ], [ 731524.220991011243314, 4622330.262972855009139 ], [ 731079.85152738483157, 4661062.824675469659269 ] ] ] } },
{ "type": "Feature", "properties": { "drag_region": "Northwest", "NAME": "Carroll", "NAMELSAD": "Carroll" }, "geometry": { "type": "Polygon", "coordinates": [ [ [ 255470.901097180263605, 4694462.212299157865345 ], [ 274431.488228387897834, 4693927.5316899176687 ], [ 293394.170027196232695, 4693539.379613848403096 ], [ 292659.786878913815599, 4655003.808215307071805 ], [ 254231.436814336571842, 4655932.844999709166586 ], [ 255470.901097180263605, 4694462.212299157865345 ] ] ] } },
{ "type": "Feature", "properties": { "drag_region": "Southwest", "NAME": "Greene", "NAMELSAD": "Greene" }, "geometry": { "type": "Polygon", "coordinates": [ [ [ 303034.037035501736682, 4631264.363084518350661 ], [ 322291.229184090101626, 4630827.087727784179151 ], [ 341551.357603721146006, 4630633.306743996217847 ], [ 341028.544409234717023, 4592193.919315931387246 ], [ 331196.478491627145559, 4592238.580688150599599 ], [ 302299.653887219319586, 4592728.79168597701937 ], [ 303034.037035501736682, 4631264.363084518350661 ] ] ] } },
{ "type": "Feature", "properties": { "drag_region": "Northwest", "NAME": "Emmet", "NAMELSAD": "Emmet" }, "geometry": { "type": "Polygon", "coordinates": [ [ [ 278725.78184573847102, 4882379.839701951481402 ], [ 283660.998685462458525, 4882363.591906601563096 ], [ 316741.045096137560904, 4881708.366298135370016 ], [ 316268.777037093997933, 4854422.475416573695838 ], [ 278101.774361680087168, 4855188.976416505873203 ], [ 278725.78184573847102, 4882379.839701951481402 ] ] ] } },
{ "type": "Feature", "properties": { "drag_region": "Northeast", "NAME": "Mitchell", "NAMELSAD": "Mitchell" }, "geometry": { "type": "Polygon", "coordinates": [ [ [ 560055.293128421879373, 4893726.474557060748339 ], [ 598358.237881093402393, 4893919.011668667197227 ], [ 598237.736639592563733, 4862052.768227875232697 ], [ 560045.464346556575038, 4861957.248610146343708 ], [ 560055.293128421879373, 4893726.474557060748339 ] ] ] } },
{ "type": "Feature", "properties": { "drag_region": "Southwest", "NAME": "Montgomery", "NAMELSAD": "Montgomery" }, "geometry": { "type": "Polygon", "coordinates": [ [ [ 221822.885961058142129, 4488357.456987170502543 ], [ 260066.326338237849995, 4487218.9723135298118 ], [ 259434.026503638946451, 4458607.423603441566229 ], [ 221038.284814166079741, 4459649.330540086142719 ], [ 221822.885961058142129, 4488357.456987170502543 ] ] ] } },
{ "type": "Feature", "properties": { "drag_region": "Northeast", "NAME": "Bremer", "NAMELSAD": "Bremer" }, "geometry": { "type": "Polygon", "coordinates": [ [ [ 605121.969445181777701, 4815084.308592524379492 ], [ 643797.719689101562835, 4815397.412505596876144 ], [ 644118.538776354631409, 4785920.566902891732752 ], [ 605277.229545888490975, 4785607.693348315544426 ], [ 605121.969445181777701, 4815084.308592524379492 ] ] ] } },
{ "type": "Feature", "properties": { "drag_region": "Southeast", "NAME": "Washington", "NAMELSAD": "Washington" }, "geometry": { "type": "Polygon", "coordinates": [ [ [ 672344.528655894100666, 4553448.274322361685336 ], [ 681928.223675059271045, 4553666.953334060497582 ], [ 707987.316276504541747, 4554066.597970865666866 ], [ 708367.126833730842918, 4549398.319882429204881 ], [ 711153.310607053223066, 4544390.245722878724337 ], [ 711359.066294824238867, 4515391.600153394974768 ], [ 692086.481352415052243, 4515081.772766195237637 ], [ 672812.9755788348848, 4514918.201543936505914 ], [ 672344.528655894100666, 4553448.274322361685336 ] ] ] } },
{ "type": "Feature", "properties": { "drag_region": "Northwest", "NAME": "O'Brien", "NAMELSAD": "O'Brien" }, "geometry": { "type": "Polygon", "coordinates": [ [ [ 178789.708069287997205, 4846770.97401022631675 ], [ 217239.737381234765053, 4845276.701029907912016 ], [ 216147.457087536226027, 4806924.227102244272828 ], [ 177760.276225265639368, 4808025.919723317958415 ], [ 177798.685538990714122, 4817767.19283501803875 ], [ 178789.708069287997205, 4846770.97401022631675 ] ] ] } },
{ "type": "Feature", "properties": { "drag_region": "Northwest", "NAME": "Pocahontas", "NAMELSAD": "Pocahontas" }, "geometry": { "type": "Polygon", "coordinates": [ [ [ 274837.896180154755712, 4795227.875208356417716 ], [ 313216.801629488356411, 4794271.208983023650944 ], [ 312552.844333531567827, 4755445.400338461622596 ], [ 273957.490977809764445, 4756401.303934114985168 ], [ 274837.896180154755712, 4795227.875208356417716 ] ] ] } },
{ "type": "Feature", "properties": { "drag_region": "Southeast", "NAME": "Davis", "NAMELSAD": "Davis" }, "geometry": { "type": "Polygon", "coordinates": [ [ [ 602124.489937735837884, 4468490.487010180018842 ], [ 640821.627065330278128, 4468847.444256294518709 ], [ 641132.147619068040513, 4435661.780704155564308 ], [ 602265.596237757708877, 4434256.309440777637064 ], [ 602124.489937735837884, 4468490.487010180018842 ] ] ] } },
{ "type": "Feature", "properties": { "drag_region": "Northwest", "NAME": "Crawford", "NAMELSAD": "Crawford" }, "geometry": { "type": "Polygon", "coordinates": [ [ [ 194487.67356262152316, 4696703.401156032457948 ], [ 223225.9870596206747, 4695765.900480558164418 ], [ 242485.227069555432536, 4695267.384760078974068 ], [ 241245.762786711740773, 4656738.017460630275309 ], [ 202814.345054564764723, 4657779.243464206345379 ], [ 193277.773953062715009, 4657974.292032052762806 ], [ 194487.67356262152316, 4696703.401156032457948 ] ] ] } },
{ "type": "Feature", "properties": { "drag_region": "Northeast", "NAME": "Grundy", "NAMELSAD": "Grundy" }, "geometry": { "type": "Polygon", "coordinates": [ [ [ 560464.624610231840052, 4768683.204222924076021 ], [ 599064.431996314320713, 4768683.168543640524149 ], [ 599114.926811260054819, 4759048.856924177147448 ], [ 600885.308893303852528, 4759058.352748721837997 ], [ 600990.40594998805318, 4739885.546258639544249 ], [ 581758.660089171025902, 4739806.651655592955649 ], [ 581784.959124843822792, 4730172.795523135922849 ], [ 562526.865482961526141, 4730051.226152467541397 ], [ 562232.048354859929532, 4759143.9910051189363 ], [ 560461.719723135931417, 4759144.305034363642335 ], [ 560464.624610231840052, 4768683.204222924076021 ] ] ] } },
{ "type": "Feature", "properties": { "drag_region": "Southwest", "NAME": "Audubon", "NAMELSAD": "Audubon" }, "geometry": { "type": "Polygon", "coordinates": [ [ [ 253602.284451343555702, 4582599.997184268198907 ], [ 282497.545578893390484, 4581858.406369180418551 ], [ 281911.428165700635873, 4552957.940657766535878 ], [ 285500.820298161474057, 4552886.227902452461421 ], [ 285286.508219034411013, 4542013.123851313255727 ], [ 257126.804166293150047, 4542622.623865759931505 ], [ 257383.638750946876826, 4553495.982200033962727 ], [ 252896.792118927842239, 4553603.467594491317868 ], [ 253602.284451343555702, 4582599.997184268198907 ] ] ] } },
{ "type": "Feature", "properties": { "drag_region": "Southeast", "NAME": "Linn", "NAMELSAD": "Linn" }, "geometry": { "type": "Polygon", "coordinates": [ [ [ 683257.377031791373156, 4658382.18923479411751 ], [ 702493.48539610975422, 4658386.588919242843986 ], [ 721725.846547533292323, 4658729.887201054021716 ], [ 722170.216011159704067, 4619997.325498439371586 ], [ 722355.400221935822628, 4610268.253271417692304 ], [ 683921.557378527591936, 4609831.826609465293586 ], [ 683491.416007522726431, 4619556.637555100023746 ], [ 683257.377031791373156, 4658382.18923479411751 ] ] ] } },
{ "type": "Feature", "properties": { "drag_region": "Southeast", "NAME": "Keokuk", "NAMELSAD": "Keokuk" }, "geometry": { "type": "Polygon", "coordinates": [ [ [ 626734.454806443303823, 4552554.957631797529757 ], [ 665672.409942500991747, 4553020.263014331459999 ], [ 666140.856865441775881, 4514490.190235906280577 ], [ 627297.372134816017933, 4513932.14622185472399 ], [ 626734.454806443303823, 4552554.957631797529757 ] ] ] } },
{ "type": "Feature", "properties": { "drag_region": "Northwest", "NAME": "Sac", "NAMELSAD": "Sac" }, "geometry": { "type": "Polygon", "coordinates": [ [ [ 225537.155223191919504, 4748023.760531446896493 ], [ 264425.951806916273199, 4746845.032764316536486 ], [ 264210.534475756809115, 4737305.658170315437019 ], [ 268931.381988161243498, 4737200.73894112650305 ], [ 267993.69676263036672, 4707826.815739653073251 ], [ 229773.869621487945551, 4708860.012069372460246 ], [ 230574.061702302104095, 4738145.822195243090391 ], [ 225262.964086436870275, 4738293.331863291561604 ], [ 225537.155223191919504, 4748023.760531446896493 ] ] ] } },
{ "type": "Feature", "properties": { "drag_region": "Northwest", "NAME": "Woodbury", "NAMELSAD": "Woodbury" }, "geometry": { "type": "Polygon", "coordinates": [ [ [ 111941.859474197728559, 4750283.766626719385386 ], [ 164389.903018369222991, 4748216.788749912753701 ], [ 174116.948145612550434, 4747990.273623599670827 ], [ 173808.060822475235909, 4738450.405748936347663 ], [ 180001.404017796565313, 4738157.301922270096838 ], [ 178789.017260054650251, 4708975.448371252976358 ], [ 122208.690257833455689, 4711359.132258400321007 ], [ 124938.730175162490923, 4712876.341914786957204 ], [ 122479.54913182038581, 4718227.963093834929168 ], [ 121181.20041859371122, 4722865.773604166693985 ], [ 118038.317704579501878, 4725762.368545007891953 ], [ 118329.857485174841713, 4733012.94879587367177 ], [ 121155.778209118114319, 4737104.206594676710665 ], [ 120143.089912835217547, 4741349.141589790582657 ], [ 116043.562250299321022, 4742279.15379567630589 ], [ 112330.409882015024778, 4745393.762858645990491 ], [ 113686.390843903529458, 4749638.413764091208577 ], [ 111941.859474197728559, 4750283.766626719385386 ] ] ] } },
{ "type": "Feature", "properties": { "drag_region": "Southwest", "NAME": "Pottawattamie", "NAMELSAD": "Pottawattamie" }, "geometry": { "type": "Polygon", "coordinates": [ [ [ 162410.027248485857854, 4536865.910151802003384 ], [ 204049.198821878118906, 4535445.769762700423598 ], [ 232805.938900104374625, 4534576.05833940487355 ], [ 231851.0342664012569, 4496138.714056564494967 ], [ 171016.38223500593449, 4497994.097791258245707 ], [ 174382.358422356803203, 4499506.679789290763438 ], [ 167517.559417106647743, 4501548.438672544434667 ], [ 168554.928999363735784, 4505524.246405252255499 ], [ 167253.316325100138783, 4511584.04920803848654 ], [ 171291.475934501271695, 4515363.913050893694162 ], [ 165369.907130507315742, 4518141.61431853286922 ], [ 167065.745508846302982, 4523813.72269528452307 ], [ 167640.74945987763931, 4531911.411162952892482 ], [ 161678.154372685501585, 4533071.204162195324898 ], [ 162410.027248485857854, 4536865.910151802003384 ] ] ] } },
{ "type": "Feature", "properties": { "drag_region": "Southeast", "NAME": "Muscatine", "NAMELSAD": "Muscatine" }, "geometry": { "type": "Polygon", "coordinates": [ [ [ 732073.624153750250116, 4537716.804952858015895 ], [ 731524.646562587236986, 4566806.599362174980342 ], [ 780289.37730086420197, 4567703.848717039451003 ], [ 780398.456207319046371, 4551767.497840293683112 ], [ 775294.458904593950137, 4551924.994153796695173 ], [ 768490.274842609418556, 4547941.518728038296103 ], [ 764557.352776565589011, 4549279.985178851522505 ], [ 758904.523283093702048, 4547146.059793937020004 ], [ 756708.274827109067701, 4537936.071425272151828 ], [ 732073.624153750250116, 4537716.804952858015895 ] ] ] } },
{ "type": "Feature", "properties": { "drag_region": "Southwest", "NAME": "Mills", "NAMELSAD": "Mills" }, "geometry": { "type": "Polygon", "coordinates": [ [ [ 168342.852467213699128, 4489174.608211965300143 ], [ 209905.257666720543057, 4487917.273425511084497 ], [ 209120.656519828480668, 4459209.146978426724672 ], [ 172837.553367932734545, 4460287.671995292417705 ], [ 170860.440983921987936, 4464648.180090328678489 ], [ 171902.960432085965294, 4468815.471824281848967 ], [ 169247.329554814612493, 4470811.667445680126548 ], [ 167951.746531775512267, 4477347.233198282308877 ], [ 169255.649989408673719, 4480264.295733948238194 ], [ 168342.852467213699128, 4489174.608211965300143 ] ] ] } },
{ "type": "Feature", "properties": { "drag_region": "Northwest", "NAME": "Osceola", "NAMELSAD": "Osceola" }, "geometry": { "type": "Polygon", "coordinates": [ [ [ 179110.038386771077057, 4884629.024693120270967 ], [ 211904.352848772279685, 4883676.305313353426754 ], [ 217415.096414306754014, 4883420.386411199346185 ], [ 216636.430508673802251, 4856229.035417274571955 ], [ 178186.401196727034403, 4857723.308397592976689 ], [ 179110.038386771077057, 4884629.024693120270967 ] ] ] } },
{ "type": "Feature", "properties": { "drag_region": "Northeast", "NAME": "Fayette", "NAMELSAD": "Fayette" }, "geometry": { "type": "Polygon", "coordinates": [ [ [ 652431.097132143680938, 4787969.838744238950312 ], [ 651897.588191705173813, 4836907.858667624182999 ], [ 690757.68912472424563, 4837348.449292974546552 ], [ 691269.69849833950866, 4788691.138865886256099 ], [ 652431.097132143680938, 4787969.838744238950312 ] ] ] } },
{ "type": "Feature", "properties": { "drag_region": "Southeast", "NAME": "Jasper", "NAMELSAD": "Jasper" }, "geometry": { "type": "Polygon", "coordinates": [ [ [ 529208.301469284808263, 4600080.003514009527862 ], [ 577467.261881435173564, 4600047.332337316125631 ], [ 577545.616558615583926, 4571053.01581596583128 ], [ 578442.928614388569258, 4571055.490509438328445 ], [ 578471.951899187057279, 4560755.194792947731912 ], [ 530846.018809052882716, 4560682.94403768889606 ], [ 530885.052111960365437, 4570983.247388526797295 ], [ 529090.402299038134515, 4570990.278415546752512 ], [ 529208.301469284808263, 4600080.003514009527862 ] ] ] } },
{ "type": "Feature", "properties": { "drag_region": "Southeast", "NAME": "Des Moines", "NAMELSAD": "Des Moines" }, "geometry": { "type": "Polygon", "coordinates": [ [ [ 732286.033320781774819, 4494535.33114983420819 ], [ 767873.218122358433902, 4495095.895500988699496 ], [ 768332.147857216186821, 4488426.888472313992679 ], [ 766756.573133180150762, 4478275.040764920413494 ], [ 763473.148233767831698, 4476386.388730442151427 ], [ 759380.475006628083065, 4469996.666063512675464 ], [ 756410.774773713899776, 4467355.130128061398864 ], [ 754902.413325829897076, 4453010.654140453785658 ], [ 740525.520011162618175, 4459012.234295888803899 ], [ 739573.789014346664771, 4461187.907276262529194 ], [ 729496.215341718867421, 4465482.209641360677779 ], [ 732826.29312891070731, 4465543.351348301395774 ], [ 732286.033320781774819, 4494535.33114983420819 ] ] ] } },
{ "type": "Feature", "properties": { "drag_region": "Northeast", "NAME": "Story", "NAMELSAD": "Story" }, "geometry": { "type": "Polygon", "coordinates": [ [ [ 491661.918559372366872, 4719366.387208642438054 ], [ 530178.751502246246673, 4719156.950063299387693 ], [ 530075.246879238402471, 4680718.369678993709385 ], [ 491349.562587892578449, 4681022.918973575346172 ], [ 491661.918559372366872, 4719366.387208642438054 ] ] ] } },
{ "type": "Feature", "properties": { "drag_region": "Northwest", "NAME": "Plymouth", "NAMELSAD": "Plymouth" }, "geometry": { "type": "Polygon", "coordinates": [ [ [ 106740.615488552561146, 4800553.049818781204522 ], [ 162121.826807716919575, 4798446.946982172317803 ], [ 160515.056292699824553, 4759723.602356470189989 ], [ 108067.012748528344673, 4761790.580233276821673 ], [ 107209.545859781166655, 4769567.300229308195412 ], [ 102447.974389405062539, 4775501.667969115078449 ], [ 98147.156473587398068, 4778265.971757096238434 ], [ 98165.607260065924493, 4785529.638508958742023 ], [ 101501.994721612441936, 4787871.717236997559667 ], [ 102593.865444689421565, 4792795.434851253405213 ], [ 105885.205609264798113, 4794185.343508761376143 ], [ 106740.615488552561146, 4800553.049818781204522 ] ] ] } },
{ "type": "Feature", "properties": { "drag_region": "Southeast", "NAME": "Appanoose", "NAMELSAD": "Appanoose" }, "geometry": { "type": "Polygon", "coordinates": [ [ [ 553082.480987721937709, 4467010.924027814529836 ], [ 591780.335679745185189, 4467164.705750796943903 ], [ 591921.441979767056182, 4432930.528181394562125 ], [ 553043.677509905654006, 4432109.348039703443646 ], [ 553082.480987721937709, 4467010.924027814529836 ] ] ] } },
{ "type": "Feature", "properties": { "drag_region": "Northeast", "NAME": "Dubuque", "NAMELSAD": "Dubuque" }, "geometry": { "type": "Polygon", "coordinates": [ [ [ 751820.673292843741365, 4780203.940264923498034 ], [ 771243.221046096645296, 4780564.347312587313354 ], [ 771160.150915910722688, 4783903.23477394413203 ], [ 786872.237712550209835, 4779729.640410297550261 ], [ 792459.462074249051511, 4769477.044462993741035 ], [ 792682.356992371380329, 4761463.781589766964316 ], [ 799270.232350024627522, 4758308.410588231869042 ], [ 799932.106622636783868, 4755845.107279540039599 ], [ 806838.403632153640501, 4752228.118044876493514 ], [ 791174.347302893409505, 4751875.316169758327305 ], [ 791441.67542093875818, 4742145.174402966164052 ], [ 772208.056868214160204, 4741643.582211395725608 ], [ 752972.618163209059276, 4741290.161981542594731 ], [ 751820.673292843741365, 4780203.940264923498034 ] ] ] } },
{ "type": "Feature", "properties": { "drag_region": "Southwest", "NAME": "Fremont", "NAMELSAD": "Fremont" }, "geometry": { "type": "Polygon", "coordinates": [ [ [ 170226.48276222369168, 4438274.298233854584396 ], [ 169114.03749992052326, 4441365.647894487716258 ], [ 169939.278451707883505, 4448117.848952260799706 ], [ 172161.145653208572185, 4451292.289320153184235 ], [ 208444.248805104318308, 4450213.764303287491202 ], [ 207922.597908003575867, 4431043.816432890482247 ], [ 209132.575819010060513, 4430915.605906084179878 ], [ 208386.523532495571999, 4414520.061997129581869 ], [ 175288.13304068610887, 4416058.816463209688663 ], [ 176586.822416713199345, 4418691.215661260299385 ], [ 173719.132004435145063, 4424127.79032286722213 ], [ 169823.120131525269244, 4425779.941553843207657 ], [ 165453.730132424330804, 4431459.970979529432952 ], [ 166175.943536199483788, 4434969.01569452509284 ], [ 170226.48276222369168, 4438274.298233854584396 ] ] ] } },
{ "type": "Feature", "properties": { "drag_region": "Southwest", "NAME": "Decatur", "NAMELSAD": "Decatur" }, "geometry": { "type": "Polygon", "coordinates": [ [ [ 364852.453805404133163, 4447250.985038766637444 ], [ 403552.324100580939557, 4446998.417808441445231 ], [ 403328.45223464659648, 4411715.171300891786814 ], [ 364437.304760730243288, 4411395.0050861062482 ], [ 364852.453805404133163, 4447250.985038766637444 ] ] ] } },
{ "type": "Feature", "properties": { "drag_region": "Northeast", "NAME": "Winneshiek", "NAMELSAD": "Winneshiek" }, "geometry": { "type": "Polygon", "coordinates": [ [ [ 652563.396875731064938, 4861542.316754255443811 ], [ 652501.916140826768242, 4893505.803609413094819 ], [ 680648.622262894059531, 4893876.420023749582469 ], [ 690225.941307936795056, 4893933.951923618093133 ], [ 690518.382733974838629, 4876379.292472100816667 ], [ 691582.429845539969392, 4847482.045567924156785 ], [ 652722.328912520897575, 4847041.454942573793232 ], [ 652563.396875731064938, 4861542.316754255443811 ] ] ] } },
{ "type": "Feature", "properties": { "drag_region": "Northwest", "NAME": "Clay", "NAMELSAD": "Clay" }, "geometry": { "type": "Polygon", "coordinates": [ [ [ 227248.731322656472912, 4844462.506877620704472 ], [ 265707.743817334761843, 4843472.79500432126224 ], [ 264832.414778128149919, 4805121.131860380060971 ], [ 226156.451028957933886, 4806110.032949957065284 ], [ 227248.731322656472912, 4844462.506877620704472 ] ] ] } },
{ "type": "Feature", "properties": { "drag_region": "Southeast", "NAME": "Johnson", "NAMELSAD": "Johnson" }, "geometry": { "type": "Polygon", "coordinates": [ [ [ 683481.286137841409072, 4598908.415395364165306 ], [ 721915.128981249639764, 4599344.842057316564023 ], [ 722834.467092744540423, 4550796.909117272123694 ], [ 713234.66105258022435, 4550717.677918450906873 ], [ 710448.477279257844202, 4555725.752078001387417 ], [ 710068.666722031543031, 4560394.030166437849402 ], [ 684009.574120586272329, 4559994.385529632680118 ], [ 684174.375379292760044, 4569917.491417309269309 ], [ 683481.286137841409072, 4598908.415395364165306 ] ] ] } },
{ "type": "Feature", "properties": { "drag_region": "Southwest", "NAME": "Lucas", "NAMELSAD": "Lucas" }, "geometry": { "type": "Polygon", "coordinates": [ [ [ 415150.199913884338457, 4484207.03216209076345 ], [ 453694.914260423218366, 4484062.099924483336508 ], [ 453662.281031321210321, 4454880.629064397886395 ], [ 414963.955464827886317, 4455025.373734394088387 ], [ 415150.199913884338457, 4484207.03216209076345 ] ] ] } },
{ "type": "Feature", "properties": { "drag_region": "Southeast", "NAME": "Monroe", "NAMELSAD": "Monroe" }, "geometry": { "type": "Polygon", "coordinates": [ [ [ 554014.337847829912789, 4504635.956758121028543 ], [ 592257.850103782489896, 4504693.206400280818343 ], [ 592679.559310751152225, 4475608.267621017992496 ], [ 553981.704618727904744, 4475454.48589803557843 ], [ 554014.337847829912789, 4504635.956758121028543 ] ] ] } },
{ "type": "Feature", "properties": { "drag_region": "Southeast", "NAME": "Iowa", "NAMELSAD": "Iowa" }, "geometry": { "type": "Polygon", "coordinates": [ [ [ 637649.744835813296959, 4598812.351836766116321 ], [ 676377.936861901078373, 4599139.26233839802444 ], [ 677071.026103352429345, 4570148.338360343128443 ], [ 676906.22484464594163, 4560225.232472666539252 ], [ 667322.529825480887666, 4560006.553460967727005 ], [ 637969.538911502808332, 4559612.804439161904156 ], [ 637430.23889796459116, 4589176.720790185965598 ], [ 637649.744835813296959, 4598812.351836766116321 ] ] ] } },
{ "type": "Feature", "properties": { "drag_region": "Southeast", "NAME": "Benton", "NAMELSAD": "Benton" }, "geometry": { "type": "Polygon", "coordinates": [ [ [ 636344.623923975857906, 4657682.272782824002206 ], [ 655576.263165048090741, 4657867.392679039388895 ], [ 674805.404527253122069, 4658296.003888182342052 ], [ 675039.443502984475344, 4619470.452208488248289 ], [ 675469.584873989340849, 4609745.641262853518128 ], [ 636741.39284790144302, 4609418.73076122161001 ], [ 636344.623923975857906, 4657682.272782824002206 ] ] ] } },
{ "type": "Feature", "properties": { "drag_region": "Northwest", "NAME": "Kossuth", "NAMELSAD": "Kossuth" }, "geometry": { "type": "Polygon", "coordinates": [ [ [ 329337.554213708732277, 4876249.198820079676807 ], [ 367638.147940586262848, 4875503.001749400980771 ], [ 366876.410306706849951, 4809771.435602320358157 ], [ 328201.859889378247317, 4810421.479569176211953 ], [ 329337.554213708732277, 4876249.198820079676807 ] ] ] } },
{ "type": "Feature", "properties": { "drag_region": "Southeast", "NAME": "Scott", "NAMELSAD": "Scott" }, "geometry": { "type": "Polygon", "coordinates": [ [ [ 781745.186045499052852, 4591376.274603131227195 ], [ 790993.760767774656415, 4591608.465523122809827 ], [ 797069.643004813464358, 4587663.070703836157918 ], [ 800273.372489110915922, 4590708.015270078554749 ], [ 808338.072544512338936, 4590644.283491120673716 ], [ 811565.928588211536407, 4592645.239917502738535 ], [ 817242.607897433452308, 4592523.669271059334278 ], [ 822461.01849179295823, 4587809.991159758530557 ], [ 830226.254225275828503, 4587952.604951448738575 ], [ 830632.072758023859933, 4584527.965968118049204 ], [ 828117.339841685490683, 4578816.69208396691829 ], [ 828610.456051165703684, 4572530.414332428015769 ], [ 823883.769316074205562, 4570381.343128269538283 ], [ 818656.591555172810331, 4564784.040224678814411 ], [ 810866.915514634922147, 4564654.914067766629159 ], [ 807906.54200067545753, 4563330.83179332036525 ], [ 803259.076581254717894, 4557857.476159881800413 ], [ 796107.186799976392649, 4556044.067487846128643 ], [ 791902.25046676013153, 4556221.565383634530008 ], [ 791793.17156030528713, 4572157.916260380297899 ], [ 781918.800128127448261, 4572006.30384439509362 ], [ 781745.186045499052852, 4591376.274603131227195 ] ] ] } },
{ "type": "Feature", "properties": { "drag_region": "Southwest", "NAME": "Harrison", "NAMELSAD": "Harrison" }, "geometry": { "type": "Polygon", "coordinates": [ [ [ 144363.389076168299653, 4588250.712059916928411 ], [ 183081.258207950042561, 4586557.731112857349217 ], [ 192617.829309452092275, 4586362.68254501093179 ], [ 191456.927293093409389, 4557373.931847590953112 ], [ 196542.217388202785514, 4557224.780424735508859 ], [ 196232.962120404117741, 4546541.76961528044194 ], [ 154593.790547011827584, 4547961.910004382021725 ], [ 154716.317539195471909, 4551491.283308385871351 ], [ 152024.673083183413837, 4551680.76715943031013 ], [ 151301.645976882427931, 4548172.425164169631898 ], [ 146903.430301698972471, 4551002.75373924896121 ], [ 147992.553640869096853, 4556312.466869871132076 ], [ 144835.358136949420441, 4560151.022416532039642 ], [ 147062.681239875615574, 4563795.783032093197107 ], [ 144816.453127453976776, 4567888.550371771678329 ], [ 148161.118754238646943, 4569391.696086592972279 ], [ 146554.848134384781588, 4574607.319141891784966 ], [ 149011.089986706210766, 4576429.301139168441296 ], [ 150062.93129477254115, 4580785.352451308630407 ], [ 146563.614994848729111, 4583108.06002883054316 ], [ 144363.389076168299653, 4588250.712059916928411 ] ] ] } },
{ "type": "Feature", "properties": { "drag_region": "Southeast", "NAME": "Louisa", "NAMELSAD": "Louisa" }, "geometry": { "type": "Polygon", "coordinates": [ [ [ 719592.120338566950522, 4541124.202128882519901 ], [ 729191.926378731266595, 4541203.433327703736722 ], [ 729373.401727634831332, 4531570.554758384823799 ], [ 754008.052400993648916, 4531789.821230798959732 ], [ 750932.196909907623194, 4521225.881915550678968 ], [ 757130.743830175371841, 4513252.200773863121867 ], [ 761058.632532796240412, 4512769.146363440901041 ], [ 765142.260323129710741, 4505707.367360243573785 ], [ 765205.151103902608156, 4503036.905744197778404 ], [ 729617.966302325832658, 4502476.341393043287098 ], [ 729437.839600842213258, 4512108.813380658626556 ], [ 719797.876026337966323, 4512125.556559398770332 ], [ 719592.120338566950522, 4541124.202128882519901 ] ] ] } },
{ "type": "Feature", "properties": { "drag_region": "Southwest", "NAME": "Page", "NAMELSAD": "Page" }, "geometry": { "type": "Polygon", "coordinates": [ [ [ 220028.858515621977858, 4450931.325365822762251 ], [ 258424.600205094844569, 4449889.418429178185761 ], [ 258000.70981531473808, 4430624.950101602822542 ], [ 259213.239703195227776, 4430598.415943624451756 ], [ 258845.802812890149653, 4413718.609377786517143 ], [ 219971.133243013231549, 4415237.623059664852917 ], [ 220717.185529527720064, 4431633.166968619450927 ], [ 219507.207618521235418, 4431761.377495425753295 ], [ 220028.858515621977858, 4450931.325365822762251 ] ] ] } },
{ "type": "Feature", "properties": { "drag_region": "Northeast", "NAME": "Clayton", "NAMELSAD": "Clayton" }, "geometry": { "type": "Polygon", "coordinates": [ [ [ 701301.819873228669167, 4837387.237575141713023 ], [ 736075.049320080783218, 4837863.576488459482789 ], [ 738052.477816696511582, 4827693.982389967888594 ], [ 739134.541844341903925, 4818459.522968308068812 ], [ 742704.583054779912345, 4816152.968989697284997 ], [ 745972.972801567986608, 4801528.361886029131711 ], [ 753162.230730196926743, 4795874.321121923625469 ], [ 759988.318134679226205, 4793463.646467093378305 ], [ 760071.388264865148813, 4790124.759005736559629 ], [ 740648.840511612244882, 4789764.35195807274431 ], [ 701813.829246843932196, 4788729.92714805342257 ], [ 701301.819873228669167, 4837387.237575141713023 ] ] ] } },
{ "type": "Feature", "properties": { "drag_region": "Northwest", "NAME": "Humboldt", "NAMELSAD": "Humboldt" }, "geometry": { "type": "Polygon", "coordinates": [ [ [ 326967.935849120898638, 4795425.292514690198004 ], [ 365642.486266449501272, 4794775.248547834344208 ], [ 365012.659532510733698, 4765587.925622885115445 ], [ 326468.331500688800588, 4766234.181827215477824 ], [ 326967.935849120898638, 4795425.292514690198004 ] ] ] } },
{ "type": "Feature", "properties": { "drag_region": "Southeast", "NAME": "Jefferson", "NAMELSAD": "Jefferson" }, "geometry": { "type": "Polygon", "coordinates": [ [ [ 649916.031182770500891, 4507198.632980091497302 ], [ 669488.159362920909189, 4507504.911462327465415 ], [ 688761.665136501076631, 4507668.482684586197138 ], [ 688886.021974220639095, 4478672.281145647168159 ], [ 650190.638655149494298, 4478016.738964447751641 ], [ 649916.031182770500891, 4507198.632980091497302 ] ] ] } },
{ "type": "Feature", "properties": { "drag_region": "Northwest", "NAME": "Sioux", "NAMELSAD": "Sioux" }, "geometry": { "type": "Polygon", "coordinates": [ [ [ 107851.853455292250146, 4851096.381419631652534 ], [ 144843.092085224168841, 4849336.402586545795202 ], [ 164076.091009427444078, 4848745.854592969641089 ], [ 163085.068479130160995, 4819742.073417761363089 ], [ 163046.659165405086242, 4810000.800306061282754 ], [ 107665.447846240727813, 4812106.903142670169473 ], [ 110830.277513970868313, 4817613.376243907026947 ], [ 109157.599281882008654, 4819690.431337484158576 ], [ 111610.407550048446865, 4822264.055638587102294 ], [ 110371.155417262591072, 4827668.08101805485785 ], [ 115202.217532423339435, 4831194.759882156737149 ], [ 116831.502222500523203, 4835237.336050515063107 ], [ 114341.682494897992001, 4838685.078429979272187 ], [ 114087.047930764572811, 4846628.453805359080434 ], [ 107102.345654554621433, 4847209.291180464439094 ], [ 107851.853455292250146, 4851096.381419631652534 ] ] ] } },
{ "type": "Feature", "properties": { "drag_region": "Southwest", "NAME": "Dallas", "NAMELSAD": "Dallas" }, "geometry": { "type": "Polygon", "coordinates": [ [ [ 337836.084243639896158, 4581237.065426044166088 ], [ 347668.150161247467622, 4581192.404053824953735 ], [ 376564.02963364077732, 4580859.319886669516563 ], [ 376287.512069869844709, 4551673.936670109629631 ], [ 378381.290553890168667, 4551654.455031066201627 ], [ 378291.395709644595627, 4541830.919464982114732 ], [ 369294.90011371485889, 4540869.561869960278273 ], [ 340537.937046638282482, 4541320.969114827923477 ], [ 340692.997667693649419, 4552098.422226268798113 ], [ 337703.24702204723144, 4552237.497694133780897 ], [ 337836.084243639896158, 4581237.065426044166088 ] ] ] } },
{ "type": "Feature", "properties": { "drag_region": "Southwest", "NAME": "Cass", "NAMELSAD": "Cass" }, "geometry": { "type": "Polygon", "coordinates": [ [ [ 247802.195763419033028, 4533796.794449677690864 ], [ 257386.260321337322239, 4533468.819480619393289 ], [ 285545.964374078554101, 4532859.319466172717512 ], [ 285467.609712955134455, 4513587.470045336522162 ], [ 284791.698418240586761, 4494423.300526812672615 ], [ 265818.484675007115584, 4494819.014441436156631 ], [ 246847.291129715915304, 4495359.450166837312281 ], [ 247802.195763419033028, 4533796.794449677690864 ] ] ] } },
{ "type": "Feature", "properties": { "drag_region": "Southwest", "NAME": "Clarke", "NAMELSAD": "Clarke" }, "geometry": { "type": "Polygon", "coordinates": [ [ [ 364672.823736919963267, 4484924.453226073645055 ], [ 383349.601325027470011, 4485303.276454746723175 ], [ 402922.358200279064476, 4485056.42367250751704 ], [ 402736.113751222612336, 4455874.765244810841978 ], [ 364036.243456045805942, 4456127.332475136034191 ], [ 364672.823736919963267, 4484924.453226073645055 ] ] ] } },
{ "type": "Feature", "properties": { "drag_region": "Northwest", "NAME": "Monona", "NAMELSAD": "Monona" }, "geometry": { "type": "Polygon", "coordinates": [ [ [ 122837.107196832352201, 4698917.902725632302463 ], [ 179417.434199053561315, 4696534.218838484957814 ], [ 178207.534589494753163, 4657805.109714505262673 ], [ 139489.665457713010255, 4659498.090661564841866 ], [ 137566.060481878579594, 4663962.842448620125651 ], [ 139390.994902929582167, 4664946.472914350219071 ], [ 140514.258765592705458, 4671209.844387507997453 ], [ 135776.603939452266786, 4671957.887945793569088 ], [ 136180.536896611272823, 4674808.691428012214601 ], [ 131760.87191225058632, 4676025.482731791213155 ], [ 133304.605307810183149, 4677495.703912371769547 ], [ 128938.174275845158263, 4680049.955387756228447 ], [ 129538.508542516487068, 4687956.595957249403 ], [ 123219.72252655866032, 4693552.18697696365416 ], [ 122837.107196832352201, 4698917.902725632302463 ] ] ] } },
{ "type": "Feature", "properties": { "drag_region": "Northwest", "NAME": "Calhoun", "NAMELSAD": "Calhoun" }, "geometry": { "type": "Polygon", "coordinates": [ [ [ 275612.415333425858989, 4745376.458314592018723 ], [ 314207.768689147662371, 4744420.554718938656151 ], [ 314046.935358052083757, 4734976.775973540730774 ], [ 317882.595994800853077, 4734912.560515543445945 ], [ 317400.034236536594108, 4705532.813857125118375 ], [ 279180.160289139894303, 4706358.241289928555489 ], [ 280117.845514670829289, 4735732.164491401985288 ], [ 275396.998002266394906, 4735837.083720590919256 ], [ 275612.415333425858989, 4745376.458314592018723 ] ] ] } },
{ "type": "Feature", "properties": { "drag_region": "Southeast", "NAME": "Jackson", "NAMELSAD": "Jackson" }, "geometry": { "type": "Polygon", "coordinates": [ [ [ 782495.025525118340738, 4664990.118788905441761 ], [ 801728.644077842938714, 4665491.710980475880206 ], [ 801461.31595979759004, 4675221.852747268043458 ], [ 817125.372289057821035, 4675574.654622386209667 ], [ 821731.655455614789389, 4669984.154709309339523 ], [ 821017.289863143931143, 4664233.610179140232503 ], [ 825674.516593733453192, 4657309.863832430914044 ], [ 839828.03175172500778, 4650788.516600089147687 ], [ 843813.708426805329509, 4647004.575320133939385 ], [ 843372.020000515156426, 4642405.954922464676201 ], [ 844718.592642040341161, 4637675.739822411909699 ], [ 783209.688001774367876, 4635991.676889554597437 ], [ 782495.025525118340738, 4664990.118788905441761 ] ] ] } },
{ "type": "Feature", "properties": { "drag_region": "Northeast", "NAME": "Chickasaw", "NAMELSAD": "Chickasaw" }, "geometry": { "type": "Polygon", "coordinates": [ [ [ 605425.585844635032117, 4854578.111533921211958 ], [ 643909.560446491348557, 4854891.447528193704784 ], [ 644281.182336466619745, 4820929.41139583196491 ], [ 605605.43209254683461, 4820616.307482759468257 ], [ 605425.585844635032117, 4854578.111533921211958 ] ] ] } },
{ "type": "Feature", "properties": { "drag_region": "Southwest", "NAME": "Guthrie", "NAMELSAD": "Guthrie" }, "geometry": { "type": "Polygon", "coordinates": [ [ [ 290190.066982740769163, 4581203.915808913297951 ], [ 328619.980524175975006, 4580526.258841772563756 ], [ 328487.143302583310287, 4551526.691109862178564 ], [ 331476.893948229728267, 4551387.61564199719578 ], [ 331321.83332717436133, 4540610.162530556321144 ], [ 292979.029622881731484, 4541358.633291046135128 ], [ 293193.341702008794528, 4552231.737342185340822 ], [ 289603.949569548014551, 4552303.450097499415278 ], [ 290190.066982740769163, 4581203.915808913297951 ] ] ] } },
{ "type": "Feature", "properties": { "drag_region": "Northeast", "NAME": "Winnebago", "NAMELSAD": "Winnebago" }, "geometry": { "type": "Polygon", "coordinates": [ [ [ 465670.914527684741188, 4896668.551186857745051 ], [ 503974.528444600349758, 4896331.263042408041656 ], [ 503813.427498565637507, 4869236.628766505047679 ], [ 465355.908613807929214, 4869573.749519591219723 ], [ 465670.914527684741188, 4896668.551186857745051 ] ] ] } },
{ "type": "Feature", "properties": { "drag_region": "Northwest", "NAME": "Dickinson", "NAMELSAD": "Dickinson" }, "geometry": { "type": "Polygon", "coordinates": [ [ [ 228680.75433095509652, 4882692.086356224492192 ], [ 266985.108404058846645, 4881701.88677444588393 ], [ 266361.100920000462793, 4854511.023489000275731 ], [ 227902.088425322144758, 4855500.735362299717963 ], [ 228680.75433095509652, 4882692.086356224492192 ] ] ] } },
{ "type": "Feature", "properties": { "drag_region": "Southeast", "NAME": "Lee", "NAMELSAD": "Lee" }, "geometry": { "type": "Polygon", "coordinates": [ [ [ 698191.930189465871081, 4457082.186582457274199 ], [ 724228.17178228427656, 4457413.098200352862477 ], [ 734305.745454912306741, 4453118.795835254713893 ], [ 735257.476451728027314, 4450943.122854880988598 ], [ 749634.369766395539045, 4444941.542699445970356 ], [ 749082.925688877236098, 4442353.644020077772439 ], [ 743702.896618117811158, 4438328.844861646182835 ], [ 738237.378865041770041, 4438313.430047882720828 ], [ 728904.4185804144945, 4434031.427362319082022 ], [ 725075.413260070141405, 4427378.92023245524615 ], [ 728480.807211834006011, 4424102.438414372503757 ], [ 727421.781741252634674, 4415497.517786026932299 ], [ 728118.383079047780484, 4410740.68579816352576 ], [ 724489.996205654460937, 4409148.609346682205796 ], [ 718689.233641876606271, 4409714.761269308626652 ], [ 715288.511887802742422, 4412614.245134345255792 ], [ 714895.022641707677394, 4417949.299288028851151 ], [ 711848.570308613823727, 4418089.927409878000617 ], [ 706894.480655280640349, 4423447.854785082861781 ], [ 707144.801539769396186, 4426885.581281563267112 ], [ 701653.499433693941683, 4428136.884522087872028 ], [ 698844.619741307105869, 4433150.621760825626552 ], [ 698191.930189465871081, 4457082.186582457274199 ] ] ] } },
{ "type": "Feature", "properties": { "drag_region": "Southwest", "NAME": "Taylor", "NAMELSAD": "Taylor" }, "geometry": { "type": "Polygon", "coordinates": [ [ [ 268338.428430741536431, 4450532.557599816471338 ], [ 306733.681757482001558, 4449690.939167462289333 ], [ 306121.079997241147794, 4413166.481620695441961 ], [ 292450.387043485650793, 4413502.941676383838058 ], [ 268759.631038536783308, 4414361.748548423871398 ], [ 269127.067928841919638, 4431241.555114261806011 ], [ 267914.538040961371735, 4431268.089272240176797 ], [ 268338.428430741536431, 4450532.557599816471338 ] ] ] } },
{ "type": "Feature", "properties": { "drag_region": "Northeast", "NAME": "Butler", "NAMELSAD": "Butler" }, "geometry": { "type": "Polygon", "coordinates": [ [ [ 561115.079468759009615, 4814265.200563102029264 ], [ 599497.64749082911294, 4814360.649365589953959 ], [ 599702.985330286202952, 4775344.968339197337627 ], [ 561103.177944203722291, 4775345.004018480889499 ], [ 561115.079468759009615, 4814265.200563102029264 ] ] ] } },
{ "type": "Feature", "properties": { "drag_region": "Northeast", "NAME": "Floyd", "NAMELSAD": "Floyd" }, "geometry": { "type": "Polygon", "coordinates": [ [ [ 560582.611935290158726, 4854470.828820665366948 ], [ 598774.884228326147422, 4854566.348438394255936 ], [ 598954.730476237949915, 4820604.544387232512236 ], [ 560572.16245416784659, 4820509.095584744587541 ], [ 560582.611935290158726, 4854470.828820665366948 ] ] ] } },
{ "type": "Feature", "properties": { "drag_region": "Northeast", "NAME": "Worth", "NAMELSAD": "Worth" }, "geometry": { "type": "Polygon", "coordinates": [ [ [ 513612.523519968264736, 4895235.371597868390381 ], [ 551625.811325541231781, 4895116.211745969951153 ], [ 551617.425526983803138, 4868021.636680686846375 ], [ 513451.422573933610693, 4868140.737321965396404 ], [ 513612.523519968264736, 4895235.371597868390381 ] ] ] } },
{ "type": "Feature", "properties": { "drag_region": "Northwest", "NAME": "Cherokee", "NAMELSAD": "Cherokee" }, "geometry": { "type": "Polygon", "coordinates": [ [ [ 178358.16440060120658, 4797854.340684209950268 ], [ 216745.345262871793238, 4796752.648063136264682 ], [ 215652.10722597266431, 4758115.903466448187828 ], [ 176751.393885584111558, 4759130.996058507822454 ], [ 178358.16440060120658, 4797854.340684209950268 ] ] ] } },
{ "type": "Feature", "properties": { "drag_region": "Northwest", "NAME": "Palo Alto", "NAMELSAD": "Palo Alto" }, "geometry": { "type": "Polygon", "coordinates": [ [ [ 276717.478356231702492, 4844320.177882485091686 ], [ 314884.481031645555049, 4843553.676882552914321 ], [ 314221.054766358691268, 4805011.848513211123645 ], [ 275842.149317025090568, 4805968.514738543890417 ], [ 276717.478356231702492, 4844320.177882485091686 ] ] ] } },
{ "type": "Feature", "properties": { "drag_region": "Northeast", "NAME": "Tama", "NAMELSAD": "Tama" }, "geometry": { "type": "Polygon", "coordinates": [ [ [ 604890.273726467741653, 4731588.171886525116861 ], [ 624417.168006702791899, 4731817.59321516007185 ], [ 624813.936930628260598, 4683554.051193557679653 ], [ 585789.579780756961554, 4683341.456154546700418 ], [ 585658.527865650714375, 4731509.277283478528261 ], [ 604890.273726467741653, 4731588.171886525116861 ] ] ] } },
{ "type": "Feature", "properties": { "drag_region": "Northwest", "NAME": "Buena Vista", "NAMELSAD": "Buena Vista" }, "geometry": { "type": "Polygon", "coordinates": [ [ [ 225222.179505281848833, 4796553.425225792452693 ], [ 263898.14325445209397, 4795564.52413621544838 ], [ 263017.738052107102703, 4756737.952861974015832 ], [ 224128.941468382719904, 4757916.680629104375839 ], [ 225222.179505281848833, 4796553.425225792452693 ] ] ] } },
{ "type": "Feature", "properties": { "drag_region": "Northwest", "NAME": "Lyon", "NAMELSAD": "Lyon" }, "geometry": { "type": "Polygon", "coordinates": [ [ [ 103844.7755962794472, 4889261.112391615286469 ], [ 147955.110804833791917, 4887497.3677510721609 ], [ 163335.40029975460493, 4886950.580853261984885 ], [ 162411.763109710562276, 4860044.864557734690607 ], [ 143178.764185507287038, 4860635.412551310844719 ], [ 106187.525555575353792, 4862395.391384396702051 ], [ 104319.860896330239484, 4866489.861461534164846 ], [ 108416.621627730812179, 4866793.29131542891264 ], [ 109151.624947575066471, 4877276.46976831741631 ], [ 103020.383805616613245, 4883656.75233799405396 ], [ 105205.426677044219105, 4887099.341538498178124 ], [ 103844.7755962794472, 4889261.112391615286469 ] ] ] } },
{ "type": "Feature", "properties": { "drag_region": "Northeast", "NAME": "Allamakee", "NAMELSAD": "Allamakee" }, "geometry": { "type": "Polygon", "coordinates": [ [ [ 699665.662887652404606, 4894886.546110318042338 ], [ 731585.405838199192658, 4895494.827277834527194 ], [ 730239.706893263733946, 4890502.695608401671052 ], [ 732640.944020140101202, 4886926.870993714779615 ], [ 733108.373569545918144, 4878728.190972597338259 ], [ 741051.605876284767874, 4874990.324964770115912 ], [ 745004.050430336850695, 4867826.447706428356469 ], [ 739887.535186415188946, 4861982.434757189825177 ], [ 738247.679416241357103, 4856982.446577521972358 ], [ 735670.905547493486665, 4854635.108156254515052 ], [ 735795.380872107692994, 4848910.978667941875756 ], [ 701022.151425255578943, 4848434.63975462410599 ], [ 699958.10431369044818, 4877331.886658800765872 ], [ 699665.662887652404606, 4894886.546110318042338 ] ] ] } },
{ "type": "Feature", "properties": { "drag_region": "Southeast", "NAME": "Clinton", "NAMELSAD": "Clinton" }, "geometry": { "type": "Polygon", "coordinates": [ [ [ 783638.971601751749404, 4627914.916200247593224 ], [ 845147.876242017722689, 4629598.979133104905486 ], [ 846425.769273594603874, 4626967.624661243520677 ], [ 844537.727191393612884, 4621079.41518852673471 ], [ 845829.266573047847487, 4618066.360937214456499 ], [ 843457.73290566529613, 4608629.447322496213019 ], [ 843884.249082175199874, 4604728.22625201381743 ], [ 838611.851118308841251, 4601596.891042998060584 ], [ 832833.402726858854294, 4595398.567016202025115 ], [ 825068.166993375984021, 4595255.953224511817098 ], [ 819849.756399016478099, 4599969.631335812620819 ], [ 814173.077089794562198, 4600091.201982256025076 ], [ 810945.221046095364727, 4598090.245555873960257 ], [ 802880.520990693941712, 4598153.97733483184129 ], [ 799676.791506396490149, 4595109.032768589444458 ], [ 793600.909269357682206, 4599054.427587876096368 ], [ 784352.334547082078643, 4598822.236667884513736 ], [ 783638.971601751749404, 4627914.916200247593224 ] ] ] } }
]
}
