{
"type": "FeatureCollection",
"name": "map",
"crs": { "type": "name", "properties": { "name": "urn:ogc:def:crs:EPSG::32614" } },
"features": [
{ "type": "Feature", "properties": { "drag_region": "Central", "NAME": "Norton", "NAMELSAD": "Norton" }, "geometry": { "type": "Polygon", "coordinates": [ [ [ 406366.466921521467157, 4514715.218667759560049 ], [ 453550.071834664675407, 4514332.571464641019702 ], [ 453212.474476717354264, 4466088.143862707540393 ], [ 407273.797611624933779, 4466544.737305282615125 ], [ 405730.956600937119219, 4466469.453655116260052 ], [ 406366.466921521467157, 4514715.218667759560049 ] ] ] } },
{ "type": "Feature", "properties": { "drag_region": "East", "NAME": "Greenwood", "NAMELSAD": "Greenwood" }, "geometry": { "type": "Polygon", "coordinates": [ [ [ 798215.649876522831619, 4186761.643076276872307 ], [ 812700.84310318750795, 4187065.842125159222633 ], [ 812426.353012452484109, 4196695.27012453507632 ], [ 847340.367960180272348, 4197575.775810745544732 ], [ 847815.623516068444587, 4183082.8097343002446 ], [ 848606.900775145506486, 4149129.382170521654189 ], [ 849076.945060492493212, 4134637.202443216461688 ], [ 799311.371504150913097, 4133556.794241630937904 ], [ 798215.649876522831619, 4186761.643076276872307 ] ] ] } },
{ "type": "Feature", "properties": { "drag_region": "West", "NAME": "Lane", "NAMELSAD": "Lane" }, "geometry": { "type": "Polygon", "coordinates": [ [ [ 269430.959882397437468, 4269108.541167423129082 ], [ 307821.03172637312673, 4268302.615779200568795 ], [ 307480.167293446895201, 4219967.379491471685469 ], [ 268858.147134320286568, 4220769.617438295856118 ], [ 269430.959882397437468, 4269108.541167423129082 ] ] ] } },
{ "type": "Feature", "properties": { "drag_region": "East", "NAME": "Marion", "NAMELSAD": "Marion" }, "geometry": { "type": "Polygon", "coordinates": [ [ [ 707560.243253467720933, 4254373.42204565461725 ], [ 746002.775676126359031, 4255147.534625878557563 ], [ 746219.645313660264947, 4245518.430718460120261 ], [ 755920.447957168798894, 4245742.582340120337903 ], [ 756378.482148914714344, 4226389.093887061811984 ], [ 754810.050778688746504, 4226352.198046400211751 ], [ 755176.658244983991608, 4197172.647788916714489 ], [ 727782.430396047770046, 4196867.892085992731154 ], [ 727590.769105043960735, 4206496.0672806231305 ], [ 708413.106097534880973, 4206041.254081572405994 ], [ 707560.243253467720933, 4254373.42204565461725 ] ] ] } },
{ "type": "Feature", "properties": { "drag_region": "West", "NAME": "Barber", "NAMELSAD": "Barber" }, "geometry": { "type": "Polygon", "coordinates": [ [ [ 446811.293646324891597, 4105011.241306291427463 ], [ 495370.563094043638557, 4105241.542981271632016 ], [ 495425.334661030559801, 4095615.607930933125317 ], [ 505593.353943783789873, 4095679.595285289920866 ], [ 505888.031249190680683, 4052793.227532788179815 ], [ 447762.343258559762035, 4052785.630924407858402 ], [ 447763.241640595020726, 4095480.648869128432125 ], [ 446810.003459457482677, 4095480.723401166964322 ], [ 446811.293646324891597, 4105011.241306291427463 ] ] ] } },
{ "type": "Feature", "properties": { "drag_region": "West", "NAME": "Edwards", "NAMELSAD": "Edwards" }, "geometry": { "type": "Polygon", "coordinates": [ [ [ 383749.607486949127633, 4169995.685384970158339 ], [ 383867.934636326681357, 4189344.75372650846839 ], [ 403068.260052666184492, 4189249.739114518277347 ], [ 403032.002679473429453, 4179622.863262520171702 ], [ 431708.751371022197418, 4179565.288331124931574 ], [ 431703.844778890430462, 4160121.427425247151405 ], [ 432651.475921838253271, 4160121.243371667340398 ], [ 432650.084289685182739, 4149922.979803590569645 ], [ 384578.222594392718747, 4150260.22741647111252 ], [ 383749.607486949127633, 4169995.685384970158339 ] ] ] } },
{ "type": "Feature", "properties": { "drag_region": "Central", "NAME": "Thomas", "NAMELSAD": "Thomas" }, "geometry": { "type": "Polygon", "coordinates": [ [ [ 287997.251370675046928, 4463767.572650152258575 ], [ 345348.531451547169127, 4462456.648009529337287 ], [ 344429.267248667776585, 4414212.047942387871444 ], [ 336673.053424383164383, 4414362.989142997190356 ], [ 286415.733409044332802, 4415717.860490750521421 ], [ 287997.251370675046928, 4463767.572650152258575 ] ] ] } },
{ "type": "Feature", "properties": { "drag_region": "West", "NAME": "Ford", "NAMELSAD": "Ford" }, "geometry": { "type": "Polygon", "coordinates": [ [ [ 316258.704736964427866, 4167694.040583504363894 ], [ 373996.365780353080481, 4167042.909817151725292 ], [ 374824.980887796671595, 4147307.451848652679473 ], [ 374966.129529504338279, 4117664.427395875100046 ], [ 355604.744672760367393, 4117800.971968946047127 ], [ 326095.005514619813766, 4118858.269775379449129 ], [ 316574.770950222096872, 4119071.015982535667717 ], [ 317079.896862145396881, 4158054.562089734245092 ], [ 316132.233877930091694, 4158066.944747822824866 ], [ 316258.704736964427866, 4167694.040583504363894 ] ] ] } },
{ "type": "Feature", "properties": { "drag_region": "East", "NAME": "Chase", "NAMELSAD": "Chase" }, "geometry": { "type": "Polygon", "coordinates": [ [ [ 765498.103465597610921, 4243544.329071445390582 ], [ 806183.494599785655737, 4244517.004548924043775 ], [ 806982.038261382025667, 4205703.12560641951859 ], [ 807256.528352117049508, 4196073.697607044130564 ], [ 792771.335125452373177, 4195769.498558161780238 ], [ 764754.313753412803635, 4194974.394520241767168 ], [ 764387.706287117558531, 4224153.94477772526443 ], [ 765956.137657343526371, 4224190.840618386864662 ], [ 765498.103465597610921, 4243544.329071445390582 ] ] ] } },
{ "type": "Feature", "properties": { "drag_region": "East", "NAME": "Woodson", "NAMELSAD": "Woodson" }, "geometry": { "type": "Polygon", "coordinates": [ [ [ 856923.377905187895522, 4183872.307417988777161 ], [ 895370.68804801243823, 4185031.09761543944478 ], [ 896321.841780574992299, 4151072.542757534887642 ], [ 857714.655164264957421, 4149918.87985421018675 ], [ 856923.377905187895522, 4183872.307417988777161 ] ] ] } },
{ "type": "Feature", "properties": { "drag_region": "West", "NAME": "Wallace", "NAMELSAD": "Wallace" }, "geometry": { "type": "Polygon", "coordinates": [ [ [ 129773.08839535471634, 4333085.726455612108111 ], [ 178801.91160276150913, 4331688.225137006491423 ], [ 176868.201310762698995, 4283554.200215286575258 ], [ 169685.482070375204785, 4283656.986987716518342 ], [ 128157.14756592552294, 4284739.196757178753614 ], [ 129773.08839535471634, 4333085.726455612108111 ] ] ] } },
{ "type": "Feature", "properties": { "drag_region": "East", "NAME": "Franklin", "NAMELSAD": "Franklin" }, "geometry": { "type": "Polygon", "coordinates": [ [ [ 904976.192787060863338, 4281099.940197593532503 ], [ 943678.814140728791244, 4282579.142306411638856 ], [ 943263.904487234191038, 4277688.0990010201931 ], [ 944715.245500735589303, 4243830.359966056421399 ], [ 905824.256521363626234, 4242358.561503067612648 ], [ 904537.608772770850919, 4276212.480661523528397 ], [ 904976.192787060863338, 4281099.940197593532503 ] ] ] } },
{ "type": "Feature", "properties": { "drag_region": "East", "NAME": "Neosho", "NAMELSAD": "Neosho" }, "geometry": { "type": "Polygon", "coordinates": [ [ [ 906644.60933040373493, 4143637.099279133137316 ], [ 944933.657037065946497, 4145149.59988678060472 ], [ 946546.917653644108213, 4106431.526977181434631 ], [ 908078.039537361240946, 4104923.904908690135926 ], [ 906644.60933040373493, 4143637.099279133137316 ] ] ] } },
{ "type": "Feature", "properties": { "drag_region": "Central", "NAME": "Cloud", "NAMELSAD": "Cloud" }, "geometry": { "type": "Polygon", "coordinates": [ [ [ 617967.542775732814334, 4472200.698114823549986 ], [ 666313.739302652189508, 4472927.441524264402688 ], [ 667012.890016144840047, 4434312.253243726678193 ], [ 618734.531388069037348, 4433590.901173791848123 ], [ 618391.409740216215141, 4462479.282856225036085 ], [ 618083.089793752413243, 4462475.616833318024874 ], [ 617967.542775732814334, 4472200.698114823549986 ] ] ] } },
{ "type": "Feature", "properties": { "drag_region": "West", "NAME": "Ness", "NAMELSAD": "Ness" }, "geometry": { "type": "Polygon", "coordinates": [ [ [ 315358.988872004090808, 4268542.298900459893048 ], [ 323473.306953489780426, 4268340.612121479585767 ], [ 373101.71128419728484, 4267774.745146394707263 ], [ 372796.678703321842477, 4219636.432008947245777 ], [ 315018.124439077801071, 4220207.062612731009722 ], [ 315358.988872004090808, 4268542.298900459893048 ] ] ] } },
{ "type": "Feature", "properties": { "drag_region": "East", "NAME": "Anderson", "NAMELSAD": "Anderson" }, "geometry": { "type": "Polygon", "coordinates": [ [ [ 905067.340148298069835, 4232847.391072040423751 ], [ 943958.329127670032904, 4234319.189535029232502 ], [ 944576.767529320437461, 4219822.640502305701375 ], [ 943634.190548157785088, 4219782.542243254370987 ], [ 944361.782060831552371, 4195163.707991037517786 ], [ 905597.229244268033653, 4193714.407305714208633 ], [ 904990.888935927068815, 4218233.465443845838308 ], [ 905933.355893120868132, 4218269.043182652443647 ], [ 905067.340148298069835, 4232847.391072040423751 ] ] ] } },
{ "type": "Feature", "properties": { "drag_region": "Central", "NAME": "Ellis", "NAMELSAD": "Ellis" }, "geometry": { "type": "Polygon", "coordinates": [ [ [ 462112.371785186696798, 4407983.861620405688882 ], [ 508956.081886063504498, 4407818.924511920660734 ], [ 509886.78776919451775, 4407913.81388514302671 ], [ 509873.97538928524591, 4377121.998857581056654 ], [ 509554.547910531808157, 4359486.616006121970713 ], [ 461174.506856639112812, 4359560.037077076733112 ], [ 462112.371785186696798, 4407983.861620405688882 ] ] ] } },
{ "type": "Feature", "properties": { "drag_region": "Central", "NAME": "Jackson", "NAMELSAD": "Jackson" }, "geometry": { "type": "Polygon", "coordinates": [ [ [ 799663.003250837209634, 4466183.638243525288999 ], [ 820945.657755803898908, 4466819.170507894828916 ], [ 820597.785092687001452, 4476546.812782020308077 ], [ 840003.179318122100085, 4477265.93265269510448 ], [ 839758.790147230844013, 4467514.302025006152689 ], [ 840380.330131436116062, 4451205.72901323158294 ], [ 838834.977511944132857, 4451147.079582678154111 ], [ 839685.092710126307793, 4428639.860461275093257 ], [ 800937.817888689693063, 4427371.20796162635088 ], [ 801038.296798905008473, 4433770.512395546771586 ], [ 799663.003250837209634, 4466183.638243525288999 ] ] ] } },
{ "type": "Feature", "properties": { "drag_region": "West", "NAME": "Scott", "NAMELSAD": "Scott" }, "geometry": { "type": "Polygon", "coordinates": [ [ [ 224841.214618383033667, 4270789.092154231853783 ], [ 262921.429309831524733, 4269900.5751379635185 ], [ 262348.616561754373834, 4221561.651408836245537 ], [ 223721.974024259776343, 4222357.756195832043886 ], [ 224841.214618383033667, 4270789.092154231853783 ] ] ] } },
{ "type": "Feature", "properties": { "drag_region": "West", "NAME": "Pratt", "NAMELSAD": "Pratt" }, "geometry": { "type": "Polygon", "coordinates": [ [ [ 444698.768798071483616, 4154361.871506383176893 ], [ 492396.90814232052071, 4154398.392789273988456 ], [ 493087.16788044112036, 4144203.621039766352624 ], [ 493252.68284473993117, 4115229.661480783950537 ], [ 444693.41339702118421, 4114999.359805803745985 ], [ 444698.768798071483616, 4154361.871506383176893 ] ] ] } },
{ "type": "Feature", "properties": { "drag_region": "East", "NAME": "Crawford", "NAMELSAD": "Crawford" }, "geometry": { "type": "Polygon", "coordinates": [ [ [ 956706.437237252597697, 4137308.134345948696136 ], [ 998206.72309575881809, 4138955.358399691991508 ], [ 998626.250433055218309, 4136776.451790790073574 ], [ 1000259.824526054551825, 4101772.362073362339288 ], [ 959526.859623571741395, 4100168.924486389383674 ], [ 958052.587175588007085, 4104979.58161578187719 ], [ 956706.437237252597697, 4137308.134345948696136 ] ] ] } },
{ "type": "Feature", "properties": { "drag_region": "East", "NAME": "Lyon", "NAMELSAD": "Lyon" }, "geometry": { "type": "Polygon", "coordinates": [ [ [ 813633.488008580636233, 4248911.882632286287844 ], [ 812937.267550409538671, 4273034.768815296702087 ], [ 848196.14730378089007, 4274133.085542474873364 ], [ 848046.127981339464895, 4269259.534177219495177 ], [ 849648.311116211931221, 4220915.57966997846961 ], [ 849346.046617904794402, 4210978.509375992231071 ], [ 814432.031670177006163, 4210098.00368978176266 ], [ 813633.488008580636233, 4248911.882632286287844 ] ] ] } },
{ "type": "Feature", "properties": { "drag_region": "Central", "NAME": "Phillips", "NAMELSAD": "Phillips" }, "geometry": { "type": "Polygon", "coordinates": [ [ [ 459506.7739392168005, 4513952.805128329433501 ], [ 507300.985957727651112, 4513766.967025179415941 ], [ 507265.17100349656539, 4465618.402463183738291 ], [ 459169.176581269479357, 4465708.377526395954192 ], [ 459506.7739392168005, 4513952.805128329433501 ] ] ] } },
{ "type": "Feature", "properties": { "drag_region": "West", "NAME": "Grant", "NAMELSAD": "Grant" }, "geometry": { "type": "Polygon", "coordinates": [ [ [ 179241.909577500075102, 4147084.697672564070672 ], [ 217832.836594429099932, 4146131.96083269873634 ], [ 216971.432537789456546, 4107430.495086160488427 ], [ 178520.175894000683911, 4108466.958468863740563 ], [ 179241.909577500075102, 4147084.697672564070672 ] ] ] } },
{ "type": "Feature", "properties": { "drag_region": "Central", "NAME": "Graham", "NAMELSAD": "Graham" }, "geometry": { "type": "Polygon", "coordinates": [ [ [ 407578.208279394428246, 4461443.426202313043177 ], [ 455675.05005002359394, 4460972.101010194048285 ], [ 455043.752238831773866, 4412733.355622149072587 ], [ 406646.667122292681597, 4413109.820084 ], [ 407578.208279394428246, 4461443.426202313043177 ] ] ] } },
{ "type": "Feature", "properties": { "drag_region": "East", "NAME": "Allen", "NAMELSAD": "Allen" }, "geometry": { "type": "Polygon", "coordinates": [ [ [ 905278.72959672822617, 4185548.138614482712001 ], [ 944043.282413291628473, 4186997.439299806486815 ], [ 945059.865975047810934, 4162869.277922975830734 ], [ 944518.931035952991806, 4153102.084364225622267 ], [ 906229.883329290780239, 4151589.583756578154862 ], [ 905278.72959672822617, 4185548.138614482712001 ] ] ] } },
{ "type": "Feature", "properties": { "drag_region": "West", "NAME": "Trego", "NAMELSAD": "Trego" }, "geometry": { "type": "Polygon", "coordinates": [ [ [ 326328.577200579107739, 4326444.951423321850598 ], [ 374415.370399861596525, 4326080.068874419666827 ], [ 373477.505471313954331, 4277656.244331090711057 ], [ 325097.626488589914516, 4278214.064466239884496 ], [ 326328.577200579107739, 4326444.951423321850598 ] ] ] } },
{ "type": "Feature", "properties": { "drag_region": "East", "NAME": "Elk", "NAMELSAD": "Elk" }, "geometry": { "type": "Polygon", "coordinates": [ [ [ 799968.964101460878737, 4125444.690203153528273 ], [ 849734.537657802458853, 4126525.098404739052057 ], [ 850510.744176905485801, 4102499.09919593250379 ], [ 850505.605285511701368, 4092764.241436628159136 ], [ 800855.889569400926121, 4091698.233455686364323 ], [ 799968.964101460878737, 4125444.690203153528273 ] ] ] } },
{ "type": "Feature", "properties": { "drag_region": "West", "NAME": "Hamilton", "NAMELSAD": "Hamilton" }, "geometry": { "type": "Polygon", "coordinates": [ [ [ 126713.319702791297459, 4215792.770843625068665 ], [ 170688.839131728571374, 4214558.918891737237573 ], [ 169365.704155699699186, 4166222.563513836823404 ], [ 170945.420699435344432, 4166179.683412042912096 ], [ 170356.037943321454804, 4156082.801707626320422 ], [ 125124.383955925251939, 4157620.607111908961087 ], [ 126713.319702791297459, 4215792.770843625068665 ] ] ] } },
{ "type": "Feature", "properties": { "drag_region": "Central", "NAME": "Decatur", "NAMELSAD": "Decatur" }, "geometry": { "type": "Polygon", "coordinates": [ [ [ 352130.472376656136476, 4515955.555178099311888 ], [ 399925.993224616569933, 4515077.514654085971415 ], [ 399290.482904032221995, 4466831.749641442671418 ], [ 351194.846128709148616, 4467802.932989784516394 ], [ 352130.472376656136476, 4515955.555178099311888 ] ] ] } },
{ "type": "Feature", "properties": { "drag_region": "Central", "NAME": "Washington", "NAMELSAD": "Washington" }, "geometry": { "type": "Polygon", "coordinates": [ [ [ 670597.231542611028999, 4514898.819513997063041 ], [ 718704.720366100664251, 4515836.250639358535409 ], [ 719887.936973518226296, 4467585.878233569674194 ], [ 706628.893312044208869, 4467273.608154539018869 ], [ 671476.403901293408126, 4466651.33875828422606 ], [ 670597.231542611028999, 4514898.819513997063041 ] ] ] } },
{ "type": "Feature", "properties": { "drag_region": "West", "NAME": "Gray", "NAMELSAD": "Gray" }, "geometry": { "type": "Polygon", "coordinates": [ [ [ 308950.815842928597704, 4178867.959325636737049 ], [ 308696.37032247253228, 4159518.312051949556917 ], [ 309644.033306687837467, 4159505.929393860977143 ], [ 309138.907394764537457, 4120522.383286662399769 ], [ 270415.936731103574857, 4121016.878292795736343 ], [ 271108.256863630143926, 4160288.293928326107562 ], [ 270160.570355942007154, 4160305.12228740286082 ], [ 270504.270820172852837, 4179560.372285755351186 ], [ 308950.815842928597704, 4178867.959325636737049 ] ] ] } },
{ "type": "Feature", "properties": { "drag_region": "Central", "NAME": "Geary", "NAMELSAD": "Geary" }, "geometry": { "type": "Polygon", "coordinates": [ [ [ 711292.588172595365904, 4392437.548209964297712 ], [ 710657.571374951279722, 4420754.942494057118893 ], [ 720575.968493427964859, 4420888.865383695811033 ], [ 720786.433242019382305, 4412021.554551899433136 ], [ 722337.618922620546073, 4412058.493852017447352 ], [ 720611.561291470425203, 4406293.416220447048545 ], [ 733331.038958176388405, 4406986.159379605203867 ], [ 733381.632619556272402, 4404983.851837090216577 ], [ 751084.942492836737074, 4405355.623402662575245 ], [ 751702.791356910252944, 4382853.15380984172225 ], [ 717757.333100064541213, 4381996.010039419867098 ], [ 714641.002177411224693, 4382020.013079795986414 ], [ 714367.845014881226234, 4394033.207279816269875 ], [ 711292.588172595365904, 4392437.548209964297712 ] ] ] } },
{ "type": "Feature", "properties": { "drag_region": "West", "NAME": "Wichita", "NAMELSAD": "Wichita" }, "geometry": { "type": "Polygon", "coordinates": [ [ [ 178646.618344500922831, 4272626.336427187547088 ], [ 185829.337584888417041, 4272523.549654757604003 ], [ 217045.820189007587032, 4271737.457990518771112 ], [ 215926.579594884329708, 4223306.122032118961215 ], [ 177294.692610426136525, 4224191.529133106581867 ], [ 178646.618344500922831, 4272626.336427187547088 ] ] ] } },
{ "type": "Feature", "properties": { "drag_region": "Central", "NAME": "Clay", "NAMELSAD": "Clay" }, "geometry": { "type": "Polygon", "coordinates": [ [ [ 671130.317436017794535, 4433276.543614477850497 ], [ 670606.00861065229401, 4462261.571964226663113 ], [ 705758.498021403094754, 4462883.841360481455922 ], [ 706317.399030745495111, 4424451.172643909230828 ], [ 706535.880677789566107, 4414725.884471775963902 ], [ 671168.547663722303696, 4413916.50750592444092 ], [ 671130.317436017794535, 4433276.543614477850497 ] ] ] } },
{ "type": "Feature", "properties": { "drag_region": "Central", "NAME": "Sheridan", "NAMELSAD": "Sheridan" }, "geometry": { "type": "Polygon", "coordinates": [ [ [ 352958.132342741650064, 4462350.549152210354805 ], [ 399512.124657022068277, 4461409.030355396680534 ], [ 401054.965667709882837, 4461484.314005563035607 ], [ 400123.424510608136188, 4413150.707887249998748 ], [ 352038.868139862257522, 4414105.949085068888962 ], [ 352958.132342741650064, 4462350.549152210354805 ] ] ] } },
{ "type": "Feature", "properties": { "drag_region": "West", "NAME": "Kiowa", "NAMELSAD": "Kiowa" }, "geometry": { "type": "Polygon", "coordinates": [ [ [ 385639.801263363857288, 4143389.780170987360179 ], [ 433711.66295865632128, 4143052.532558106817305 ], [ 433706.409002891683485, 4104357.766520479694009 ], [ 385724.309341001848225, 4104120.81847982853651 ], [ 385780.949905071523972, 4113746.755718209780753 ], [ 385639.801263363857288, 4143389.780170987360179 ] ] ] } },
{ "type": "Feature", "properties": { "drag_region": "East", "NAME": "Osage", "NAMELSAD": "Osage" }, "geometry": { "type": "Polygon", "coordinates": [ [ [ 856740.564591558999382, 4280800.111007258296013 ], [ 856256.19426553521771, 4295294.354934693314135 ], [ 894879.863316101022065, 4296681.353676360100508 ], [ 895435.076774122775532, 4282185.721422634087503 ], [ 894996.492759832763113, 4277298.261886564083397 ], [ 896098.829784278990701, 4248307.795061937533319 ], [ 857553.073188131558709, 4246938.947200125083327 ], [ 856590.545269117574207, 4275926.559642002917826 ], [ 856740.564591558999382, 4280800.111007258296013 ] ] ] } },
{ "type": "Feature", "properties": { "drag_region": "West", "NAME": "Sherman", "NAMELSAD": "Sherman" }, "geometry": { "type": "Polygon", "coordinates": [ [ [ 131088.141109448391944, 4392440.865296934731305 ], [ 187827.946765874687117, 4390724.300979896448553 ], [ 186246.428804243972991, 4342674.588820494711399 ], [ 178797.385248544858769, 4342779.14032216463238 ], [ 129768.562041138080531, 4344176.641640770249069 ], [ 130091.011170974423294, 4362973.317468240857124 ], [ 131088.141109448391944, 4392440.865296934731305 ] ] ] } },
{ "type": "Feature", "properties": { "drag_region": "Central", "NAME": "Rooks", "NAMELSAD": "Rooks" }, "geometry": { "type": "Polygon", "coordinates": [ [ [ 461712.610391741909552, 4460988.921932463534176 ], [ 509500.252611502888612, 4460912.530360060743988 ], [ 509165.924639121221844, 4412577.067784385755658 ], [ 461081.312580550089478, 4412750.176544418558478 ], [ 461712.610391741909552, 4460988.921932463534176 ] ] ] } },
{ "type": "Feature", "properties": { "drag_region": "Central", "NAME": "Saline", "NAMELSAD": "Saline" }, "geometry": { "type": "Polygon", "coordinates": [ [ [ 619901.581876346375793, 4378816.46488456428051 ], [ 619788.488017978263088, 4388445.091386645101011 ], [ 667994.141670447657816, 4389159.051544682122767 ], [ 668683.031428295769729, 4350452.79420648701489 ], [ 620554.320371468784288, 4349744.411979769356549 ], [ 619901.581876346375793, 4378816.46488456428051 ] ] ] } },
{ "type": "Feature", "properties": { "drag_region": "Central", "NAME": "Ellsworth", "NAMELSAD": "Ellsworth" }, "geometry": { "type": "Polygon", "coordinates": [ [ [ 567452.094692915678024, 4377329.634195266291499 ], [ 615714.101576879504137, 4377844.218419211916625 ], [ 616366.840072001912631, 4348772.165514416992664 ], [ 616479.448799713165499, 4339144.092445300891995 ], [ 567982.419266926473938, 4338628.768910244107246 ], [ 567560.486072422354482, 4358073.362566583789885 ], [ 567452.094692915678024, 4377329.634195266291499 ] ] ] } },
{ "type": "Feature", "properties": { "drag_region": "East", "NAME": "Miami", "NAMELSAD": "Miami" }, "geometry": { "type": "Polygon", "coordinates": [ [ [ 954582.896873054327443, 4284119.875331396237016 ], [ 993598.511831561569124, 4285898.657096093520522 ], [ 994674.744112411513925, 4256886.136747322976589 ], [ 995143.343037643237039, 4247061.438777263276279 ], [ 955619.328233061125502, 4245371.092991041019559 ], [ 954167.987219559727237, 4279228.83202600479126 ], [ 954582.896873054327443, 4284119.875331396237016 ] ] ] } },
{ "type": "Feature", "properties": { "drag_region": "West", "NAME": "Stevens", "NAMELSAD": "Stevens" }, "geometry": { "type": "Polygon", "coordinates": [ [ [ 174446.666853114438709, 4100013.88053098320961 ], [ 217664.942492429050617, 4098858.273881795816123 ], [ 217039.121806757873856, 4055576.835170827805996 ], [ 173587.26697320654057, 4056345.459039747714996 ], [ 174446.666853114438709, 4100013.88053098320961 ] ] ] } },
{ "type": "Feature", "properties": { "drag_region": "Central", "NAME": "Doniphan", "NAMELSAD": "Doniphan" }, "geometry": { "type": "Polygon", "coordinates": [ [ [ 865289.150819025817327, 4521695.921350866556168 ], [ 868047.560805739252828, 4521809.813118787482381 ], [ 873192.353928307886235, 4516291.805135142989457 ], [ 877224.499895149841905, 4515411.398842026479542 ], [ 877706.04967151908204, 4511322.993569799698889 ], [ 881671.572512196726166, 4512066.315353058278561 ], [ 883354.894956795615144, 4508698.820784775540233 ], [ 891397.670307281077839, 4507713.297662393189967 ], [ 895530.227371595799923, 4511625.246027188375592 ], [ 901103.632412266801111, 4510826.268184451386333 ], [ 899997.037789161200635, 4508099.438171863555908 ], [ 905749.930660759913735, 4503487.961904213763773 ], [ 905561.339194914675318, 4500898.287307826802135 ], [ 901911.368025871808641, 4499870.659177254885435 ], [ 902990.697161983698606, 4496478.813473380170763 ], [ 906611.423082037246786, 4498174.575241597369313 ], [ 906519.4768745432375, 4493486.341905388049781 ], [ 903468.358450725558214, 4492772.756776865571737 ], [ 899364.199726547463797, 4494880.255351380445063 ], [ 898147.59609393181745, 4487656.939777047373354 ], [ 893608.841127016930841, 4485638.480661979876459 ], [ 891696.253171287826262, 4480010.986717845313251 ], [ 887972.608259152970277, 4480421.476881359703839 ], [ 886278.693848599330522, 4483883.728662490844727 ], [ 866867.413109683198854, 4483162.572040888480842 ], [ 865289.150819025817327, 4521695.921350866556168 ] ] ] } },
{ "type": "Feature", "properties": { "drag_region": "East", "NAME": "Sedgwick", "NAMELSAD": "Sedgwick" }, "geometry": { "type": "Polygon", "coordinates": [ [ [ 664112.664766880567186, 4140826.050269130151719 ], [ 673599.853281973046251, 4141047.778898803517222 ], [ 673012.209268104401417, 4160583.518431829754263 ], [ 674271.650178756914102, 4160791.816395706031471 ], [ 721286.08337434171699, 4161588.204617655370384 ], [ 722242.495905592106283, 4113069.253901110030711 ], [ 704782.147771067917347, 4112935.787799670360982 ], [ 664479.724684854852967, 4111946.100742595270276 ], [ 664112.664766880567186, 4140826.050269130151719 ] ] ] } },
{ "type": "Feature", "properties": { "drag_region": "Central", "NAME": "Smith", "NAMELSAD": "Smith" }, "geometry": { "type": "Polygon", "coordinates": [ [ [ 512658.540112362243235, 4513328.975260170176625 ], [ 560759.030606296379119, 4513445.087009746581316 ], [ 560718.474112181342207, 4465199.158460048027337 ], [ 512622.725158131157514, 4465180.410698174498975 ], [ 512658.540112362243235, 4513328.975260170176625 ] ] ] } },
{ "type": "Feature", "properties": { "drag_region": "East", "NAME": "Harvey", "NAMELSAD": "Harvey" }, "geometry": { "type": "Polygon", "coordinates": [ [ [ 673145.126381294219755, 4198269.888036704622209 ], [ 702070.762682464905083, 4198726.301637247204781 ], [ 721248.425689973984845, 4199181.114836297929287 ], [ 721826.068399170180783, 4170106.32184509979561 ], [ 674811.635203585377894, 4169309.933623150456697 ], [ 673552.19429293286521, 4169101.635659274179488 ], [ 673145.126381294219755, 4198269.888036704622209 ] ] ] } },
{ "type": "Feature", "properties": { "drag_region": "Central", "NAME": "Brown", "NAMELSAD": "Brown" }, "geometry": { "type": "Polygon", "coordinates": [ [ [ 821883.629319472471252, 4520326.892471080645919 ], [ 860193.157024242100306, 4521804.90187786705792 ], [ 861771.419314899481833, 4483271.552567888982594 ], [ 823267.817398092476651, 4481796.805951077491045 ], [ 821883.629319472471252, 4520326.892471080645919 ] ] ] } },
{ "type": "Feature", "properties": { "drag_region": "Central", "NAME": "Cheyenne", "NAMELSAD": "Cheyenne" }, "geometry": { "type": "Polygon", "coordinates": [ [ [ 223873.350694987952011, 4519938.875336973927915 ], [ 278721.644048770598602, 4518161.160980395972729 ], [ 277116.116066977090668, 4470013.079018051736057 ], [ 222534.786129667569185, 4471671.981423299759626 ], [ 223873.350694987952011, 4519938.875336973927915 ] ] ] } },
{ "type": "Feature", "properties": { "drag_region": "West", "NAME": "Greeley", "NAMELSAD": "Greeley" }, "geometry": { "type": "Polygon", "coordinates": [ [ [ 126357.292656674646423, 4226271.738035253249109 ], [ 127957.886426349999965, 4274615.675348148681223 ], [ 169486.220930799667258, 4273533.465578686445951 ], [ 168134.295196724880952, 4225098.658284605480731 ], [ 126357.292656674646423, 4226271.738035253249109 ] ] ] } },
{ "type": "Feature", "properties": { "drag_region": "East", "NAME": "Sumner", "NAMELSAD": "Sumner" }, "geometry": { "type": "Polygon", "coordinates": [ [ [ 663341.019546917988919, 4100541.743089336901903 ], [ 703643.442633131053299, 4101531.43014641199261 ], [ 721103.790767655242234, 4101664.896247851662338 ], [ 722774.592940825037658, 4048777.223222371190786 ], [ 694666.911813456332311, 4048276.449015321675688 ], [ 664324.683772610500455, 4047840.605319910682738 ], [ 663784.268359495326877, 4090633.459262677002698 ], [ 663464.093229141901247, 4090820.054554067086428 ], [ 663341.019546917988919, 4100541.743089336901903 ] ] ] } },
{ "type": "Feature", "properties": { "drag_region": "Central", "NAME": "Pottawatomie", "NAMELSAD": "Pottawatomie" }, "geometry": { "type": "Polygon", "coordinates": [ [ [ 746846.856292521231808, 4464150.480390511453152 ], [ 793411.438487122417428, 4465544.979412998072803 ], [ 794786.732035190216266, 4433131.85356501955539 ], [ 794686.253124974900857, 4426732.549131099134684 ], [ 794703.254683848004788, 4416709.663001018576324 ], [ 790740.003246959415264, 4424027.043695357628167 ], [ 782696.965842430829071, 4423199.569814753718674 ], [ 777967.484766967594624, 4425630.684996912255883 ], [ 774667.236890094587579, 4421903.657037210650742 ], [ 771506.818102707969956, 4423813.340345866046846 ], [ 769460.294019129592925, 4419553.509583028033376 ], [ 758197.989132752059959, 4422665.54150215908885 ], [ 758264.775094345095567, 4420281.721444015391171 ], [ 750170.688789058360271, 4421204.243243601173162 ], [ 749363.128375629195943, 4428148.209970786236227 ], [ 742400.847662003710866, 4433593.294485411606729 ], [ 741684.917567082098685, 4437295.884559500031173 ], [ 734661.524907361832447, 4445703.270856679417193 ], [ 736042.115530483541079, 4452226.360301664099097 ], [ 739399.681203971616924, 4453839.163376189768314 ], [ 741433.748691707383841, 4458758.478596703149378 ], [ 746846.856292521231808, 4464150.480390511453152 ] ] ] } },
{ "type": "Feature", "properties": { "drag_region": "East", "NAME": "Wilson", "NAMELSAD": "Wilson" }, "geometry": { "type": "Polygon", "coordinates": [ [ [ 859474.962684330996126, 4104302.561953627504408 ], [ 858228.711879880982451, 4142820.740889739245176 ], [ 896835.89849619101733, 4143974.403793063946068 ], [ 898269.328703148523346, 4105261.209422620944679 ], [ 859474.962684330996126, 4104302.561953627504408 ] ] ] } },
{ "type": "Feature", "properties": { "drag_region": "East", "NAME": "Chautauqua", "NAMELSAD": "Chautauqua" }, "geometry": { "type": "Polygon", "coordinates": [ [ [ 801452.148264024290256, 4083764.910184347536415 ], [ 851101.863980135065503, 4084830.918165289331228 ], [ 852170.105824930476956, 4051462.912605360150337 ], [ 802332.87947149539832, 4050019.868046804331243 ], [ 801452.148264024290256, 4083764.910184347536415 ] ] ] } },
{ "type": "Feature", "properties": { "drag_region": "East", "NAME": "Linn", "NAMELSAD": "Linn" }, "geometry": { "type": "Polygon", "coordinates": [ [ [ 955070.074179638992064, 4235463.257441340945661 ], [ 994594.088984221103601, 4237153.603227563202381 ], [ 996445.790824836585671, 4198141.574857375584543 ], [ 955473.527112800511532, 4196307.775897349230945 ], [ 954745.935600126744248, 4220926.610149566084146 ], [ 955688.512581289513037, 4220966.708408617414534 ], [ 955070.074179638992064, 4235463.257441340945661 ] ] ] } },
{ "type": "Feature", "properties": { "drag_region": "East", "NAME": "Kingman", "NAMELSAD": "Kingman" }, "geometry": { "type": "Polygon", "coordinates": [ [ [ 589404.176510915043764, 4097424.234448226168752 ], [ 589183.889979629311711, 4136024.129057547077537 ], [ 647061.003189307753928, 4136749.448129214346409 ], [ 647551.136789505952038, 4098147.810067409649491 ], [ 599572.195793668273836, 4097488.221802582964301 ], [ 589404.176510915043764, 4097424.234448226168752 ] ] ] } },
{ "type": "Feature", "properties": { "drag_region": "Central", "NAME": "Mitchell", "NAMELSAD": "Mitchell" }, "geometry": { "type": "Polygon", "coordinates": [ [ [ 567075.542173027875833, 4461423.836339148692787 ], [ 615173.308827845612541, 4461751.610636667348444 ], [ 615630.379461080767214, 4423234.046333903446794 ], [ 567294.213542316108942, 4422811.954156427644193 ], [ 567075.542173027875833, 4461423.836339148692787 ] ] ] } },
{ "type": "Feature", "properties": { "drag_region": "West", "NAME": "Hodgeman", "NAMELSAD": "Hodgeman" }, "geometry": { "type": "Polygon", "coordinates": [ [ [ 316134.120415332494304, 4213249.594580513425171 ], [ 373598.599695571116172, 4212692.100280876271427 ], [ 373360.895153506658971, 4173898.07372674997896 ], [ 315623.234110118006356, 4174549.204493102617562 ], [ 316134.120415332494304, 4213249.594580513425171 ] ] ] } },
{ "type": "Feature", "properties": { "drag_region": "Central", "NAME": "Morris", "NAMELSAD": "Morris" }, "geometry": { "type": "Polygon", "coordinates": [ [ [ 719267.900350409559906, 4378268.759655438363552 ], [ 753213.358607255155221, 4379125.903425860218704 ], [ 753346.519153738161549, 4374263.165026251226664 ], [ 763007.050644136965275, 4374533.47480171918869 ], [ 763282.127744826022536, 4364903.252236750908196 ], [ 766402.255693637067452, 4364992.904253383167088 ], [ 767098.476151808165014, 4340870.018070372752845 ], [ 716712.282374111702666, 4339673.19097123388201 ], [ 716495.412736577680334, 4349302.294878652319312 ], [ 716298.720136642688885, 4371809.532207822427154 ], [ 719415.399522018851712, 4371880.839770453050733 ], [ 719267.900350409559906, 4378268.759655438363552 ] ] ] } },
{ "type": "Feature", "properties": { "drag_region": "West", "NAME": "Rush", "NAMELSAD": "Rush" }, "geometry": { "type": "Polygon", "coordinates": [ [ [ 383618.750703872530721, 4269678.597709785215557 ], [ 431374.514324612799101, 4269612.965401109308004 ], [ 431673.719271232723258, 4230911.726681449450552 ], [ 412542.806179780629463, 4231226.729700338095427 ], [ 383374.490251948242076, 4231167.664270925335586 ], [ 383618.750703872530721, 4269678.597709785215557 ] ] ] } },
{ "type": "Feature", "properties": { "drag_region": "West", "NAME": "Stafford", "NAMELSAD": "Stafford" }, "geometry": { "type": "Polygon", "coordinates": [ [ [ 443817.151385590725113, 4182281.953075842000544 ], [ 453586.138502930523828, 4182285.323080633766949 ], [ 453558.831018159340601, 4211166.255339846014977 ], [ 492182.395568754640408, 4211295.027673096396029 ], [ 491923.561872257734649, 4201570.706052592024207 ], [ 492458.01528065581806, 4162874.429399275220931 ], [ 443812.244793458958156, 4162838.092169964220375 ], [ 443817.151385590725113, 4182281.953075842000544 ] ] ] } },
{ "type": "Feature", "properties": { "drag_region": "West", "NAME": "Finney", "NAMELSAD": "Finney" }, "geometry": { "type": "Polygon", "coordinates": [ [ [ 229100.019668259483296, 4214275.778255380690098 ], [ 305720.459789085725788, 4212706.736171657219529 ], [ 305337.548145292967092, 4183728.897522252053022 ], [ 266891.003122537222225, 4184421.31048237066716 ], [ 266547.302658306376543, 4165166.060484018176794 ], [ 267494.989165994513314, 4165149.232124941423535 ], [ 267314.651257441902999, 4154949.894064141437411 ], [ 228726.446598550130147, 4155721.819626661017537 ], [ 228956.742767888179515, 4166017.125749658793211 ], [ 227690.946718016755767, 4165950.191296356730163 ], [ 229100.019668259483296, 4214275.778255380690098 ] ] ] } },
{ "type": "Feature", "properties": { "drag_region": "Central", "NAME": "Jefferson", "NAMELSAD": "Jefferson" }, "geometry": { "type": "Polygon", "coordinates": [ [ [ 844769.696247919579037, 4426517.46549622900784 ], [ 843919.581049737404101, 4449024.684617632068694 ], [ 879151.02636180294212, 4450534.011870720423758 ], [ 880513.880265164421871, 4418296.35521253477782 ], [ 880289.944889549980871, 4408828.013904103077948 ], [ 870664.505740279564634, 4408238.707532417960465 ], [ 866985.434025198570453, 4406847.773532832041383 ], [ 858425.655194058199413, 4410805.960299397818744 ], [ 853200.285244008642621, 4409170.022484296932817 ], [ 844780.0072985177394, 4409709.436579297296703 ], [ 844769.696247919579037, 4426517.46549622900784 ] ] ] } },
{ "type": "Feature", "properties": { "drag_region": "West", "NAME": "Pawnee", "NAMELSAD": "Pawnee" }, "geometry": { "type": "Polygon", "coordinates": [ [ [ 384222.494783213711344, 4224220.933471374213696 ], [ 413390.810711046215147, 4224279.998900786973536 ], [ 432521.723802498308942, 4223964.995881898328662 ], [ 432518.525442952755839, 4214337.73412236943841 ], [ 442880.872871699626558, 4214245.608887553215027 ], [ 442908.180356470867991, 4185364.676628340967 ], [ 404462.444547582301311, 4185418.881554944440722 ], [ 404498.701920774998143, 4195045.757406942546368 ], [ 385298.376504435553215, 4195140.77201893273741 ], [ 385417.753897122456692, 4214585.730231520719826 ], [ 384161.722654262674041, 4214593.55377278663218 ], [ 384222.494783213711344, 4224220.933471374213696 ] ] ] } },
{ "type": "Feature", "properties": { "drag_region": "East", "NAME": "Coffey", "NAMELSAD": "Coffey" }, "geometry": { "type": "Polygon", "coordinates": [ [ [ 856975.912783101433888, 4206387.224877625703812 ], [ 857278.177281408570707, 4216324.295171611942351 ], [ 856638.522065550088882, 4235680.637236975133419 ], [ 895184.278661697520874, 4237049.485098787583411 ], [ 895368.589385844068602, 4232186.03276495821774 ], [ 896234.605130666866899, 4217607.684875570237637 ], [ 895292.138173473067582, 4217572.107136763632298 ], [ 895898.478481814148836, 4193053.048998631071299 ], [ 857451.168338989606127, 4191894.25880118040368 ], [ 856975.912783101433888, 4206387.224877625703812 ] ] ] } },
{ "type": "Feature", "properties": { "drag_region": "West", "NAME": "Clark", "NAMELSAD": "Clark" }, "geometry": { "type": "Polygon", "coordinates": [ [ [ 328050.379488429636694, 4108597.086207928601652 ], [ 357560.118646570190322, 4107539.788401495199651 ], [ 376921.503503314161208, 4107403.24382842425257 ], [ 376864.86293924448546, 4097777.306590043008327 ], [ 377818.156249987194315, 4097771.757199446670711 ], [ 377894.67801864183275, 4055455.619670911226422 ], [ 336697.808918653870933, 4055980.274359666276723 ], [ 329034.008121988968924, 4056159.840912672691047 ], [ 329207.153455348627176, 4098860.650705859065056 ], [ 327936.150553370418493, 4098875.473336786963046 ], [ 328050.379488429636694, 4108597.086207928601652 ] ] ] } },
{ "type": "Feature", "properties": { "drag_region": "West", "NAME": "Stanton", "NAMELSAD": "Stanton" }, "geometry": { "type": "Polygon", "coordinates": [ [ [ 123194.137333443126408, 4109264.967156112194061 ], [ 124451.381409109890228, 4148069.22344363713637 ], [ 169683.035396506107645, 4146531.418039354495704 ], [ 168961.301713006716454, 4107913.678835654165596 ], [ 123194.137333443126408, 4109264.967156112194061 ] ] ] } },
{ "type": "Feature", "properties": { "drag_region": "West", "NAME": "Comanche", "NAMELSAD": "Comanche" }, "geometry": { "type": "Polygon", "coordinates": [ [ [ 387847.974214651098009, 4095580.937350997235626 ], [ 435830.018746935762465, 4095823.360250206198543 ], [ 435829.120364900503773, 4053128.34230548562482 ], [ 387924.495983305736445, 4053264.799822461791337 ], [ 387847.974214651098009, 4095580.937350997235626 ] ] ] } },
{ "type": "Feature", "properties": { "drag_region": "Central", "NAME": "Rawlins", "NAMELSAD": "Rawlins" }, "geometry": { "type": "Polygon", "coordinates": [ [ [ 287239.20795092289336, 4517702.02798885665834 ], [ 294595.72479785757605, 4517601.955920316278934 ], [ 344537.417556022643112, 4516367.646213942207396 ], [ 343601.791308075655252, 4468215.024025627411902 ], [ 285633.679969129385427, 4469553.946026512421668 ], [ 287239.20795092289336, 4517702.02798885665834 ] ] ] } },
{ "type": "Feature", "properties": { "drag_region": "East", "NAME": "Cherokee", "NAMELSAD": "Cherokee" }, "geometry": { "type": "Polygon", "coordinates": [ [ [ 960853.902467181673273, 4090861.730432637035847 ], [ 1001586.867369664483704, 4092465.168019609991461 ], [ 1002713.096483480418101, 4061262.141937748529017 ], [ 1003012.288316937396303, 4054776.592210674658418 ], [ 962738.791396439191885, 4053111.658806896302849 ], [ 962198.609711732249707, 4058438.648850226774812 ], [ 960853.902467181673273, 4090861.730432637035847 ] ] ] } },
{ "type": "Feature", "properties": { "drag_region": "Central", "NAME": "Shawnee", "NAMELSAD": "Shawnee" }, "geometry": { "type": "Polygon", "coordinates": [ [ [ 801647.59862526145298, 4422787.105900765396655 ], [ 840394.87344669806771, 4424055.758400414139032 ], [ 840405.184497296228074, 4407247.729483482427895 ], [ 848825.462442787131295, 4406708.315388482064009 ], [ 849313.838778240489773, 4385906.199946883134544 ], [ 810690.169727674685419, 4384519.201205216348171 ], [ 809839.204322404344566, 4409884.688699790276587 ], [ 801664.600184134556912, 4412764.219770684838295 ], [ 801647.59862526145298, 4422787.105900765396655 ] ] ] } },
{ "type": "Feature", "properties": { "drag_region": "Central", "NAME": "Atchison", "NAMELSAD": "Atchison" }, "geometry": { "type": "Polygon", "coordinates": [ [ [ 845758.393014763831161, 4478956.259801031090319 ], [ 884267.881445051869377, 4480433.04316877014935 ], [ 885961.795855605509132, 4476970.791387639008462 ], [ 889685.440767740365118, 4476560.301224124617875 ], [ 890402.758407947025262, 4474298.237596431747079 ], [ 885260.558072482002899, 4471779.981312841176987 ], [ 885767.522633844753727, 4467215.028065947815776 ], [ 890568.277391070500016, 4463506.391222666017711 ], [ 890998.591047177556902, 4460753.865073398686945 ], [ 896072.24404291016981, 4458015.676233777776361 ], [ 898062.850000411272049, 4455046.209002248942852 ], [ 879821.636520651401952, 4454346.733984102495015 ], [ 846135.543828077847138, 4452896.056161567568779 ], [ 845514.003843872575089, 4469204.629173342138529 ], [ 845758.393014763831161, 4478956.259801031090319 ] ] ] } },
{ "type": "Feature", "properties": { "drag_region": "Central", "NAME": "Jewell", "NAMELSAD": "Jewell" }, "geometry": { "type": "Polygon", "coordinates": [ [ [ 565194.323072012048215, 4512997.788322854787111 ], [ 584801.549646707135253, 4513227.724695763550699 ], [ 613908.297543035121635, 4513425.354037168435752 ], [ 614484.754060897743329, 4465084.576737564057112 ], [ 565153.766577897011302, 4464751.859773156233132 ], [ 565194.323072012048215, 4512997.788322854787111 ] ] ] } },
{ "type": "Feature", "properties": { "drag_region": "Central", "NAME": "Marshall", "NAMELSAD": "Marshall" }, "geometry": { "type": "Polygon", "coordinates": [ [ [ 724335.01846130983904, 4516376.39322944264859 ], [ 772753.333655399619602, 4517627.982502738945186 ], [ 774239.886510870070197, 4469469.204574371688068 ], [ 725518.235068727401085, 4468126.020823653787374 ], [ 724335.01846130983904, 4516376.39322944264859 ] ] ] } },
{ "type": "Feature", "properties": { "drag_region": "Central", "NAME": "Nemaha", "NAMELSAD": "Nemaha" }, "geometry": { "type": "Polygon", "coordinates": [ [ [ 778329.464256143779494, 4518084.642011042684317 ], [ 816636.057535992469639, 4519369.110370221547782 ], [ 818368.118277729372494, 4471111.381576092913747 ], [ 779816.017111614230089, 4469925.864082675427198 ], [ 778329.464256143779494, 4518084.642011042684317 ] ] ] } },
{ "type": "Feature", "properties": { "drag_region": "West", "NAME": "Kearny", "NAMELSAD": "Kearny" }, "geometry": { "type": "Polygon", "coordinates": [ [ [ 180224.469125645526219, 4214456.723678143694997 ], [ 218856.168023876787629, 4213581.828282887116075 ], [ 217447.0950736340601, 4165256.241323862690479 ], [ 218712.891123505483847, 4165323.175777164287865 ], [ 218482.59495416743448, 4155027.869654166977853 ], [ 179891.66793723840965, 4155980.606494032312185 ], [ 180481.050693352299277, 4166077.488198448903859 ], [ 178901.334149616654031, 4166120.368300242815167 ], [ 180224.469125645526219, 4214456.723678143694997 ] ] ] } },
{ "type": "Feature", "properties": { "drag_region": "West", "NAME": "Morton", "NAMELSAD": "Morton" }, "geometry": { "type": "Polygon", "coordinates": [ [ [ 121729.254615005571395, 4100457.487673025112599 ], [ 164636.122380742803216, 4099183.289409208111465 ], [ 163776.722500834905077, 4055514.867917972616851 ], [ 120317.34496014501201, 4056506.75083720870316 ], [ 121729.254615005571395, 4100457.487673025112599 ] ] ] } },
{ "type": "Feature", "properties": { "drag_region": "Central", "NAME": "Ottawa", "NAMELSAD": "Ottawa" }, "geometry": { "type": "Polygon", "coordinates": [ [ [ 618918.78172342851758, 4430718.490286853164434 ], [ 667197.140351504320279, 4431439.842356787994504 ], [ 667235.37057920882944, 4412079.806248234584928 ], [ 667580.07387700676918, 4392821.218912767246366 ], [ 619374.420224537374452, 4392107.258754730224609 ], [ 618918.78172342851758, 4430718.490286853164434 ] ] ] } },
{ "type": "Feature", "properties": { "drag_region": "Central", "NAME": "Russell", "NAMELSAD": "Russell" }, "geometry": { "type": "Polygon", "coordinates": [ [ [ 515194.6423398462357, 4408416.185701834969223 ], [ 562658.691456115921028, 4408444.603043925017118 ], [ 562969.456703264266253, 4408351.02258918993175 ], [ 563241.746612413553521, 4360113.942342945374548 ], [ 514862.402481183526106, 4359988.987822813913226 ], [ 515181.82995993696386, 4377624.370674272999167 ], [ 515194.6423398462357, 4408416.185701834969223 ] ] ] } },
{ "type": "Feature", "properties": { "drag_region": "Central", "NAME": "Douglas", "NAMELSAD": "Douglas" }, "geometry": { "type": "Polygon", "coordinates": [ [ [ 854679.50062133546453, 4404667.439978150650859 ], [ 859904.870571385021321, 4406303.377793251536787 ], [ 868464.649402525392361, 4402345.191026685759425 ], [ 872143.721117606386542, 4403736.125026271678507 ], [ 881769.16026687680278, 4404325.43139795679599 ], [ 882141.267791323713027, 4395455.551662159152329 ], [ 883927.477799659944139, 4397441.519741938449442 ], [ 891785.640829204465263, 4395865.717974700964987 ], [ 893254.38495412375778, 4397935.917207998223603 ], [ 894425.711768478504382, 4370848.894391643814743 ], [ 855723.090414810576476, 4369369.692282825708389 ], [ 855167.876956788823009, 4383865.324536551721394 ], [ 854679.50062133546453, 4404667.439978150650859 ] ] ] } },
{ "type": "Feature", "properties": { "drag_region": "Central", "NAME": "Republic", "NAMELSAD": "Republic" }, "geometry": { "type": "Polygon", "coordinates": [ [ [ 617781.855973782599904, 4514058.01478198543191 ], [ 665884.631529989768751, 4514786.382998251356184 ], [ 666588.962000544997863, 4476169.062173327431083 ], [ 618242.76547362562269, 4475442.318763886578381 ], [ 617781.855973782599904, 4514058.01478198543191 ] ] ] } },
{ "type": "Feature", "properties": { "drag_region": "Central", "NAME": "Leavenworth", "NAMELSAD": "Leavenworth" }, "geometry": { "type": "Polygon", "coordinates": [ [ [ 883512.36084715242032, 4450179.680814202874899 ], [ 901753.574326912290417, 4450879.155832349322736 ], [ 905635.497006160672754, 4447230.708218801766634 ], [ 909699.619766835821792, 4446459.665699773468077 ], [ 907023.988798352424055, 4443948.274292730726302 ], [ 909223.628407285897993, 4436497.276196677237749 ], [ 915027.573709439719096, 4431792.946998120285571 ], [ 914220.859081727452576, 4429079.272130431607366 ], [ 919580.251542940852232, 4427415.994370929896832 ], [ 908714.146231312304735, 4427202.809652015566826 ], [ 908841.984166762093082, 4403696.640239958651364 ], [ 905459.187640308518894, 4402685.04729666095227 ], [ 899159.216532055637799, 4404222.597025934606791 ], [ 896136.504062146414071, 4402084.168657626956701 ], [ 894667.759937227121554, 4400013.969424329698086 ], [ 886809.596907682600431, 4401589.771191567182541 ], [ 885023.386899346369319, 4399603.803111787885427 ], [ 884651.279374899459071, 4408473.682847585529089 ], [ 884875.214750513900071, 4417942.024156017228961 ], [ 883512.36084715242032, 4450179.680814202874899 ] ] ] } },
{ "type": "Feature", "properties": { "drag_region": "Central", "NAME": "Osborne", "NAMELSAD": "Osborne" }, "geometry": { "type": "Polygon", "coordinates": [ [ [ 514893.842883046192583, 4460973.510362727567554 ], [ 562681.31990867247805, 4461002.015073131769896 ], [ 562954.269910065224394, 4412761.354502364993095 ], [ 515490.220793795539066, 4412732.937160274945199 ], [ 514559.514910664525814, 4412638.047787052579224 ], [ 514893.842883046192583, 4460973.510362727567554 ] ] ] } },
{ "type": "Feature", "properties": { "drag_region": "West", "NAME": "Rice", "NAMELSAD": "Rice" }, "geometry": { "type": "Polygon", "coordinates": [ [ [ 502729.169161670200992, 4247717.754512025974691 ], [ 551226.198694456834346, 4248233.07804708275944 ], [ 551991.083336397539824, 4209535.174058424308896 ], [ 532812.96802076860331, 4209334.711466408334672 ], [ 532827.989389902213588, 4207714.276078196242452 ], [ 526225.239745230181143, 4207560.436431874521077 ], [ 526211.536294907797128, 4209180.864286819472909 ], [ 503575.224620686785784, 4209020.960569318383932 ], [ 503834.058317183691543, 4218745.282189822755754 ], [ 502892.014646384224761, 4218739.948637954890728 ], [ 502729.169161670200992, 4247717.754512025974691 ] ] ] } },
{ "type": "Feature", "properties": { "drag_region": "Central", "NAME": "Wyandotte", "NAMELSAD": "Wyandotte" }, "geometry": { "type": "Polygon", "coordinates": [ [ [ 923151.05514630721882, 4426357.558333242312074 ], [ 924188.511168168624863, 4424111.780943267978728 ], [ 928580.843718406744301, 4423266.975994932465255 ], [ 931300.123683186946437, 4424925.905554926022887 ], [ 932992.669606464682147, 4422043.010081237182021 ], [ 938258.440741805126891, 4422488.224695147946477 ], [ 937882.908954150043428, 4417402.420719092711806 ], [ 938256.955605804221705, 4409675.839651715941727 ], [ 921478.643824481870979, 4408786.589040889404714 ], [ 915495.655182089656591, 4410232.723538080230355 ], [ 912412.787770128576085, 4402638.204202271066606 ], [ 912284.949834678787738, 4426144.373614327982068 ], [ 923151.05514630721882, 4426357.558333242312074 ] ] ] } },
{ "type": "Feature", "properties": { "drag_region": "East", "NAME": "Labette", "NAMELSAD": "Labette" }, "geometry": { "type": "Polygon", "coordinates": [ [ [ 909892.277479751734063, 4095360.563622169662267 ], [ 948043.250917349709198, 4096856.455221044830978 ], [ 949517.523365333443508, 4092045.798091652337462 ], [ 950862.230609884019941, 4059622.716509242076427 ], [ 951402.412294590962119, 4054295.726465911604464 ], [ 911139.339803646551445, 4052727.85218260018155 ], [ 910748.518293448956683, 4080783.690065284259617 ], [ 909892.277479751734063, 4095360.563622169662267 ] ] ] } },
{ "type": "Feature", "properties": { "drag_region": "Central", "NAME": "Johnson", "NAMELSAD": "Johnson" }, "geometry": { "type": "Polygon", "coordinates": [ [ [ 899237.726508571300656, 4397905.104565044865012 ], [ 902260.438978480640799, 4400043.532933352515101 ], [ 908560.410086733521894, 4398505.983204078860581 ], [ 911943.206613186979666, 4399517.576147376559675 ], [ 915026.074025148293003, 4407112.095483185723424 ], [ 921009.062667540507391, 4405665.960985994897783 ], [ 937787.374448862858117, 4406555.211596821434796 ], [ 939424.668281433405355, 4372596.863513387739658 ], [ 900409.053322926163673, 4370818.081748690456152 ], [ 899237.726508571300656, 4397905.104565044865012 ] ] ] } },
{ "type": "Feature", "properties": { "drag_region": "Central", "NAME": "Dickinson", "NAMELSAD": "Dickinson" }, "geometry": { "type": "Polygon", "coordinates": [ [ [ 672817.83250568062067, 4350996.808592492714524 ], [ 671784.239450034569018, 4408961.653266155160964 ], [ 707151.572464101831429, 4409771.030232006683946 ], [ 707568.107614701846614, 4391178.924120047129691 ], [ 710643.364456987706944, 4392774.583189899101853 ], [ 710916.521619517705403, 4380761.388989878818393 ], [ 714032.852542171021923, 4380737.385949502699077 ], [ 714180.35171378031373, 4374349.466064517386258 ], [ 711063.672328404267319, 4374278.158501886762679 ], [ 711260.364928339258768, 4351770.921172716654837 ], [ 672817.83250568062067, 4350996.808592492714524 ] ] ] } },
{ "type": "Feature", "properties": { "drag_region": "East", "NAME": "Reno", "NAMELSAD": "Reno" }, "geometry": { "type": "Polygon", "coordinates": [ [ [ 589301.456070645013824, 4195511.537516061216593 ], [ 611937.767744865966961, 4195671.44123356230557 ], [ 611951.471195188350976, 4194051.013378616888076 ], [ 618554.220839860383421, 4194204.853024938609451 ], [ 618539.199470726773143, 4195825.288413151167333 ], [ 656895.759016427211463, 4196271.528725034557283 ], [ 657302.826928065856919, 4167103.27634760318324 ], [ 657890.470941934501752, 4147567.536814576946199 ], [ 648403.282426842022687, 4147345.808184903580695 ], [ 590526.169217163696885, 4146620.489113236311823 ], [ 589835.90947904298082, 4156815.260862743947655 ], [ 589301.456070645013824, 4195511.537516061216593 ] ] ] } },
{ "type": "Feature", "properties": { "drag_region": "West", "NAME": "Logan", "NAMELSAD": "Logan" }, "geometry": { "type": "Polygon", "coordinates": [ [ [ 190583.347175958624575, 4330090.663275327533484 ], [ 198032.390731657738797, 4329986.111773657612503 ], [ 248289.710746996570379, 4328631.240425904281437 ], [ 246709.114745876635425, 4280497.130445711314678 ], [ 188649.63688395981444, 4281956.638353607617319 ], [ 190583.347175958624575, 4330090.663275327533484 ] ] ] } },
{ "type": "Feature", "properties": { "drag_region": "West", "NAME": "Haskell", "NAMELSAD": "Haskell" }, "geometry": { "type": "Polygon", "coordinates": [ [ [ 225590.285248568339739, 4146769.185827711597085 ], [ 264178.48990746011259, 4145997.260265191551298 ], [ 263497.641204003128223, 4107298.297019680961967 ], [ 224728.881191928696353, 4108067.720081173349172 ], [ 225590.285248568339739, 4146769.185827711597085 ] ] ] } },
{ "type": "Feature", "properties": { "drag_region": "West", "NAME": "Gove", "NAMELSAD": "Gove" }, "geometry": { "type": "Polygon", "coordinates": [ [ [ 259333.382159190252423, 4327428.552205272018909 ], [ 316725.346229171729647, 4326302.616242347285151 ], [ 315494.395517182536423, 4278071.729285265319049 ], [ 257752.78615807031747, 4279294.44222507905215 ], [ 259333.382159190252423, 4327428.552205272018909 ] ] ] } },
{ "type": "Feature", "properties": { "drag_region": "Central", "NAME": "Wabaunsee", "NAMELSAD": "Wabaunsee" }, "geometry": { "type": "Polygon", "coordinates": [ [ [ 757786.198094159481116, 4377198.060750285163522 ], [ 757124.368454292416573, 4401321.348365980200469 ], [ 766444.70700578764081, 4401583.182352140545845 ], [ 766341.213876557420008, 4415990.398640306666493 ], [ 771347.913853147416376, 4414609.225779508240521 ], [ 773394.437936725793406, 4418869.056542346253991 ], [ 776554.85672411241103, 4416959.373233690857887 ], [ 779855.104600985418074, 4420686.401193392463028 ], [ 784584.585676448652521, 4418255.286011233925819 ], [ 792627.623080977238715, 4419082.759891837835312 ], [ 796590.874517865828238, 4411765.379197498783469 ], [ 804765.478656135615893, 4408885.848126604221761 ], [ 806100.814387429738417, 4369026.116704595275223 ], [ 767721.806685247225687, 4367838.147960784845054 ], [ 767446.729584558168426, 4377468.370525753125548 ], [ 757786.198094159481116, 4377198.060750285163522 ] ] ] } },
{ "type": "Feature", "properties": { "drag_region": "West", "NAME": "Meade", "NAMELSAD": "Meade" }, "geometry": { "type": "Polygon", "coordinates": [ [ [ 271023.261450128746219, 4109908.373370852787048 ], [ 309746.232113789708819, 4109413.878364719450474 ], [ 319266.466678187425714, 4109201.132157563231885 ], [ 319152.237743128207512, 4099479.519286421593279 ], [ 320423.240645106416196, 4099464.696655493695289 ], [ 320250.095311746757943, 4056763.88686230732128 ], [ 272019.20038731652312, 4057167.313569123391062 ], [ 272443.226181220030412, 4100253.796593450941145 ], [ 270854.394970645720605, 4100281.48770007211715 ], [ 271023.261450128746219, 4109908.373370852787048 ] ] ] } },
{ "type": "Feature", "properties": { "drag_region": "East", "NAME": "Harper", "NAMELSAD": "Harper" }, "geometry": { "type": "Polygon", "coordinates": [ [ [ 600482.775229588034563, 4087354.619928624015301 ], [ 648461.716225425712764, 4088014.208193450700492 ], [ 648781.891355779138394, 4087827.612902060616761 ], [ 649322.306768894311972, 4045034.758959294296801 ], [ 621856.407915324438363, 4044638.671625580172986 ], [ 600777.452534994925372, 4044468.25217612227425 ], [ 600482.775229588034563, 4087354.619928624015301 ] ] ] } },
{ "type": "Feature", "properties": { "drag_region": "Central", "NAME": "Riley", "NAMELSAD": "Riley" }, "geometry": { "type": "Polygon", "coordinates": [ [ [ 710002.251235481468029, 4462374.008993574418128 ], [ 742687.810805645422079, 4463184.949029884301126 ], [ 737274.703204831574112, 4457792.947236075997353 ], [ 735240.635717095807195, 4452873.632015562616289 ], [ 731883.07004360773135, 4451260.828941036947072 ], [ 730502.479420486022718, 4444737.739496052265167 ], [ 737525.872080206288956, 4436330.353198872879148 ], [ 738241.802175127901137, 4432627.763124784454703 ], [ 745204.082888753386214, 4427182.678610159084201 ], [ 746011.643302182550542, 4420238.711882974021137 ], [ 754105.729607469285838, 4419316.190083388239145 ], [ 754038.94364587625023, 4421700.010141531936824 ], [ 760294.548555663786829, 4419969.151083199307323 ], [ 760398.041684894007631, 4405561.934795033186674 ], [ 751077.703133398783393, 4405300.100808872841299 ], [ 750988.523362709325738, 4408542.021185607649386 ], [ 733285.213489428861067, 4408170.249620035290718 ], [ 733234.61982804897707, 4410172.557162550278008 ], [ 720515.142161343013868, 4409479.814003392122686 ], [ 722241.199792493134737, 4415244.891634962521493 ], [ 720690.01411189197097, 4415207.952334844507277 ], [ 720479.549363300553523, 4424075.263166640885174 ], [ 710561.152244823868386, 4423941.340277002193034 ], [ 710002.251235481468029, 4462374.008993574418128 ] ] ] } },
{ "type": "Feature", "properties": { "drag_region": "Central", "NAME": "Lincoln", "NAMELSAD": "Lincoln" }, "geometry": { "type": "Polygon", "coordinates": [ [ [ 567074.840590466279536, 4419927.516700765118003 ], [ 615411.006509230937809, 4420349.608878239989281 ], [ 615865.78988332557492, 4381738.933464366942644 ], [ 567603.782999361748807, 4381224.34924042224884 ], [ 567439.884469719137996, 4410205.157857984304428 ], [ 567129.119222570792772, 4410298.738312719389796 ], [ 567074.840590466279536, 4419927.516700765118003 ] ] ] } },
{ "type": "Feature", "properties": { "drag_region": "West", "NAME": "Seward", "NAMELSAD": "Seward" }, "geometry": { "type": "Polygon", "coordinates": [ [ [ 226023.256731618545018, 4099577.227940532378852 ], [ 264474.125572567805648, 4098822.166982261929661 ], [ 264050.099778664298356, 4055735.683957934379578 ], [ 236257.867043177597225, 4056067.007764957845211 ], [ 225397.436045947368257, 4056295.789229564368725 ], [ 226023.256731618545018, 4099577.227940532378852 ] ] ] } },
{ "type": "Feature", "properties": { "drag_region": "West", "NAME": "Barton", "NAMELSAD": "Barton" }, "geometry": { "type": "Polygon", "coordinates": [ [ [ 442371.284220005618408, 4269462.404320396482944 ], [ 490126.380436404666398, 4269587.616918184794486 ], [ 490548.313630908785854, 4250143.023261845111847 ], [ 490711.159115622809622, 4221165.217387774027884 ], [ 453029.638235826976597, 4221041.778606391511858 ], [ 442667.290807080047671, 4221133.90384120773524 ], [ 442670.489166625600774, 4230761.165600736625493 ], [ 442371.284220005618408, 4269462.404320396482944 ] ] ] } },
{ "type": "Feature", "properties": { "drag_region": "East", "NAME": "Montgomery", "NAMELSAD": "Montgomery" }, "geometry": { "type": "Polygon", "coordinates": [ [ [ 860781.243337350897491, 4085412.97924985177815 ], [ 860786.382228744681925, 4095147.837009156122804 ], [ 899898.652926247101277, 4096118.214947765693069 ], [ 900754.893739944323897, 4081541.341390880290419 ], [ 901145.715250141918659, 4053485.503508196212351 ], [ 861849.485182146308944, 4052044.973689922597259 ], [ 860781.243337350897491, 4085412.97924985177815 ] ] ] } },
{ "type": "Feature", "properties": { "drag_region": "East", "NAME": "McPherson", "NAMELSAD": "McPherson" }, "geometry": { "type": "Polygon", "coordinates": [ [ [ 646990.487109957961366, 4255575.473456978797913 ], [ 695119.198166784946807, 4256283.855683696456254 ], [ 695972.061010852106847, 4207951.687719614244998 ], [ 647867.980479609803297, 4207249.4963992042467 ], [ 647103.095837669214234, 4245947.400387862697244 ], [ 646990.487109957961366, 4255575.473456978797913 ] ] ] } },
{ "type": "Feature", "properties": { "drag_region": "East", "NAME": "Cowley", "NAMELSAD": "Cowley" }, "geometry": { "type": "Polygon", "coordinates": [ [ [ 734678.931833919254132, 4103418.263217724394053 ], [ 790225.092765308101662, 4104788.66503895772621 ], [ 791611.165408491506241, 4051787.3437520256266 ], [ 736349.734007089049555, 4050530.590192243922502 ], [ 734678.931833919254132, 4103418.263217724394053 ] ] ] } },
{ "type": "Feature", "properties": { "drag_region": "East", "NAME": "Bourbon", "NAMELSAD": "Bourbon" }, "geometry": { "type": "Polygon", "coordinates": [ [ [ 955851.794173290021718, 4152905.935110974125564 ], [ 956392.729112384840846, 4162673.128669724334031 ], [ 955376.145550628658384, 4186801.290046554990113 ], [ 996348.409262664732523, 4188635.08900658134371 ], [ 997619.190710038994439, 4148163.638985285069793 ], [ 956118.904851532774046, 4146516.414931541774422 ], [ 955851.794173290021718, 4152905.935110974125564 ] ] ] } },
{ "type": "Feature", "properties": { "drag_region": "East", "NAME": "Butler", "NAMELSAD": "Butler" }, "geometry": { "type": "Polygon", "coordinates": [ [ [ 735567.011384871555492, 4115833.594265889842063 ], [ 734224.617435428779572, 4183799.162779003381729 ], [ 761618.845284365001135, 4184103.918481927365065 ], [ 789635.866656404570676, 4184899.022519847378135 ], [ 790731.588284032652155, 4131694.173685201443732 ], [ 791113.172316260403022, 4117203.99608712317422 ], [ 735567.011384871555492, 4115833.594265889842063 ] ] ] } }
]
}
