{
"type": "FeatureCollection",
"name": "tmpyi4nmqak",
"crs": { "type": "name", "properties": { "name": "urn:ogc:def:crs:EPSG::32613" } },
"features": [
{ "type": "Feature", "properties": { "drag_region": "East", "NAME": "Conejos" }, "geometry": { "type": "Polygon", "coordinates": [ [ [ 390239.066285077948123, 4043905.497378577012569 ], [ 389895.143664869130589, 4024556.687097833957523 ], [ 397154.897346760088112, 4020617.488953314721584 ], [ 397691.373830575263128, 4014602.182708178181201 ], [ 407640.167027505405713, 3998139.729915221221745 ], [ 449484.765599884558469, 3997785.430744448211044 ], [ 475036.759187980904244, 3997649.624902204610407 ], [ 470286.934409356035758, 4002738.038932470604777 ], [ 473213.04564690386178, 4009576.944561973679811 ], [ 472284.092568579362705, 4013110.635486298240721 ], [ 474235.6865912109497, 4018146.794011479709297 ], [ 472701.197321310988627, 4025592.890105864964426 ], [ 474965.092637271154672, 4030245.545813620556146 ], [ 472148.838235708244611, 4036176.817535774316639 ], [ 473114.612401191378012, 4037694.160335566382855 ], [ 446731.206006427819375, 4037943.313975397497416 ], [ 446784.805371385242324, 4042804.05093081574887 ], [ 407069.559691947128158, 4043146.032708337996155 ], [ 390239.066285077948123, 4043905.497378577012569 ] ] ] } },
{ "type": "Feature", "properties": { "drag_region": "West", "NAME": "Jackson" }, "geometry": { "type": "Polygon", "coordinates": [ [ [ 276743.362077748170123, 4642689.522061118856072 ], [ 275458.118847026140429, 4639091.245363555848598 ], [ 277465.392096489085816, 4633991.601482089608908 ], [ 281331.52814519777894, 4630857.788895757868886 ], [ 283167.005107007455081, 4631869.711749326437712 ], [ 287021.483893189695664, 4627976.053573898971081 ], [ 290682.396641844301485, 4629526.324748790822923 ], [ 295065.127579129650258, 4621238.544541228562593 ], [ 291877.755176948383451, 4612903.476070574484766 ], [ 292095.654393481556326, 4608415.543744826689363 ], [ 288889.211331485537812, 4599509.506118608638644 ], [ 289106.225919655757025, 4595021.540808048099279 ], [ 292917.927180859842338, 4587603.387372927740216 ], [ 293088.234749792842194, 4580445.581627611070871 ], [ 295183.937491101329215, 4578498.835402243770659 ], [ 296301.008695354801603, 4572945.639732679352164 ], [ 302981.325566591345705, 4571491.4495865162462 ], [ 306412.534525471040979, 4576106.702415824867785 ], [ 309367.037814557435922, 4570525.072168212383986 ], [ 314830.711117803351954, 4569006.351997825317085 ], [ 317899.628816898912191, 4570294.005069860257208 ], [ 322731.47136431094259, 4567169.390681686811149 ], [ 323078.262850768049248, 4570025.628636607900262 ], [ 326128.944030294893309, 4570172.329354524612427 ], [ 328516.852261438034475, 4566514.463338678702712 ], [ 334032.056092260754667, 4568442.627669808454812 ], [ 336453.716868459014222, 4567075.901032476685941 ], [ 345957.761051012319513, 4571442.086348582059145 ], [ 351720.630587543942966, 4568897.900868418626487 ], [ 352982.645703099435195, 4572889.725414929911494 ], [ 356666.727442479226738, 4575616.913438944146037 ], [ 357038.097024065675214, 4582193.405488162301481 ], [ 360707.89479301252868, 4584064.326651459559798 ], [ 359528.638364352635108, 4587890.492849472910166 ], [ 356178.24184662674088, 4587352.030027298256755 ], [ 355932.346985394135118, 4592981.292090197093785 ], [ 352984.243916642502882, 4601404.957407109439373 ], [ 344701.314440250396729, 4619524.673003339208663 ], [ 338133.722539102076553, 4626854.928259121254086 ], [ 337272.178884608321823, 4630395.152335924096406 ], [ 333094.047897325945087, 4634456.741049020551145 ], [ 332882.907831478863955, 4641136.484256500378251 ], [ 276743.362077748170123, 4642689.522061118856072 ] ] ] } },
{ "type": "Feature", "properties": { "drag_region": "East", "NAME": "Washington" }, "geometry": { "type": "Polygon", "coordinates": [ [ [ 750371.607543609454297, 4418934.067499539814889 ], [ 750648.896283452399075, 4399674.162681490182877 ], [ 798133.976484586950392, 4400407.181456081569195 ], [ 828345.302878090296872, 4401372.484468341805041 ], [ 827160.807286681374535, 4449622.882608778774738 ], [ 828080.030830123927444, 4449645.606853161938488 ], [ 827117.085861578700133, 4488362.640071045607328 ], [ 828033.99999239994213, 4488290.158400738611817 ], [ 827789.797891982016154, 4498017.42141493037343 ], [ 776344.644369562971406, 4496615.398346249945462 ], [ 769645.251773670897819, 4496591.509298965334892 ], [ 769507.448078682180494, 4486954.948768836446106 ], [ 770174.262765449704602, 4448240.458110328763723 ], [ 750258.769639975042082, 4447924.753829433582723 ], [ 750371.607543609454297, 4418934.067499539814889 ] ] ] } },
{ "type": "Feature", "properties": { "drag_region": "West", "NAME": "Garfield" }, "geometry": { "type": "Polygon", "coordinates": [ [ [ 21218.04229794893763, 4436651.685065075755119 ], [ 19747.707376447768183, 4404030.044527119025588 ], [ 75116.636420236638514, 4401739.991741951555014 ], [ 159548.478892531100428, 4399008.647569474764168 ], [ 186761.800989629206015, 4398323.909667117521167 ], [ 188205.588681937282672, 4459636.23005251493305 ], [ 194954.74763139183051, 4459479.365294219926 ], [ 195474.396721343829995, 4468817.381264983676374 ], [ 195086.521895587997278, 4478653.303359331563115 ], [ 171215.218938873003935, 4479142.664653575979173 ], [ 170708.932034730882151, 4459689.026421893388033 ], [ 160898.925080925546354, 4460236.480651155114174 ], [ 160628.748309506307123, 4450318.977761229500175 ], [ 138208.753236881893827, 4451152.973199051804841 ], [ 117299.937967062491225, 4451239.233758391812444 ], [ 116823.9046705449, 4436743.554534150287509 ], [ 64180.484899924165802, 4438555.106856465339661 ], [ 63987.669936241785763, 4433690.930790739133954 ], [ 34725.908730662398739, 4435001.67202372290194 ], [ 34771.48672849565628, 4436050.881705972366035 ], [ 21218.04229794893763, 4436651.685065075755119 ] ] ] } },
{ "type": "Feature", "properties": { "drag_region": "East", "NAME": "Rio Grande" }, "geometry": { "type": "Polygon", "coordinates": [ [ [ 383998.462918830919079, 4109086.689178438391536 ], [ 383655.04169012606144, 4090117.823734454344958 ], [ 382072.060313554946333, 4090146.579150853678584 ], [ 381546.207958951359615, 4061265.232810847926885 ], [ 401234.299003073887434, 4060359.036427059210837 ], [ 440949.5446825120016, 4060017.054649536963552 ], [ 441693.317700023180805, 4098614.755234163720161 ], [ 393309.443814113852568, 4099197.601433831267059 ], [ 393472.807399789511692, 4108824.947049396112561 ], [ 383998.462918830919079, 4109086.689178438391536 ] ] ] } },
{ "type": "Feature", "properties": { "drag_region": "East", "NAME": "Morgan" }, "geometry": { "type": "Polygon", "coordinates": [ [ [ 750707.42947895557154, 4519702.715869347564876 ], [ 692939.042826352873817, 4519017.098230727948248 ], [ 693496.484409488271922, 4460946.927287688478827 ], [ 751403.76527816709131, 4461720.244932597503066 ], [ 750736.950591399567202, 4500434.735591105185449 ], [ 750874.754286388284527, 4510071.296121234074235 ], [ 750707.42947895557154, 4519702.715869347564876 ] ] ] } },
{ "type": "Feature", "properties": { "drag_region": "Front Range & Mountains", "NAME": "Elbert" }, "geometry": { "type": "Polygon", "coordinates": [ [ [ 673510.867568803718314, 4458058.259013334289193 ], [ 673691.845827321987599, 4409627.160920953378081 ], [ 726433.881210242630914, 4409905.238576790317893 ], [ 726422.258481588913128, 4381111.294758230447769 ], [ 755695.458696836140007, 4381277.482889800332487 ], [ 754977.157063901657239, 4410255.179165225476027 ], [ 754906.004836493404582, 4458887.97055381257087 ], [ 673510.867568803718314, 4458058.259013334289193 ] ] ] } },
{ "type": "Feature", "properties": { "drag_region": "West", "NAME": "Montrose" }, "geometry": { "type": "Polygon", "coordinates": [ [ [ -2801.319324478477938, 4254077.602088673971593 ], [ -3902.526014401490102, 4229089.122331035323441 ], [ -2923.768349825782934, 4215477.126687359064817 ], [ 8726.463548558735056, 4215168.106999230571091 ], [ 93030.394529525830876, 4211762.282617324963212 ], [ 93892.594688852928812, 4219084.043206101283431 ], [ 87740.222573263890808, 4223386.186788178049028 ], [ 81143.319073833437869, 4223603.742933862842619 ], [ 79790.492310429486679, 4230140.2640201728791 ], [ 77344.099386074551148, 4232132.149753677658737 ], [ 120965.12191683871788, 4230864.776464185677469 ], [ 120869.930102811107645, 4227527.76717759296298 ], [ 132484.512093185010599, 4227204.918705287389457 ], [ 133591.320109959720867, 4267916.396848859265447 ], [ 57377.169801950250985, 4270266.096319049596786 ], [ 56379.683349036175059, 4251682.198428123258054 ], [ -2801.319324478477938, 4254077.602088673971593 ] ] ] } },
{ "type": "Feature", "properties": { "drag_region": "East", "NAME": "Otero" }, "geometry": { "type": "Polygon", "coordinates": [ [ [ 706372.373869896633551, 4163859.538272092584521 ], [ 706735.508814152446575, 4127924.895638378337026 ], [ 706517.029973786557093, 4118199.684897175058722 ], [ 706934.72384344029706, 4108099.711420578882098 ], [ 764568.366578321554698, 4108878.430530898738652 ], [ 764862.567736066528596, 4128715.687483031768352 ], [ 764016.91630416829139, 4177807.655809803400189 ], [ 754910.336436807760037, 4177655.140648242551833 ], [ 754447.956391965271905, 4167349.830198207404464 ], [ 745016.912516073556617, 4167108.369195788633078 ], [ 745113.506728484528139, 4160626.377041198778898 ], [ 725918.933761332649738, 4160363.17440239014104 ], [ 724960.743947311188094, 4161495.250848408322781 ], [ 713938.640356808318757, 4162319.152556242886931 ], [ 712033.616644739871845, 4163918.92654202086851 ], [ 706372.373869896633551, 4163859.538272092584521 ] ] ] } },
{ "type": "Feature", "properties": { "drag_region": "Front Range & Mountains", "NAME": "Teller" }, "geometry": { "type": "Polygon", "coordinates": [ [ [ 564524.667901984299533, 4385782.095203962177038 ], [ 564350.883754478185438, 4337735.926268329843879 ], [ 572466.128343550954014, 4337710.842796069569886 ], [ 572139.520981940673664, 4332182.770008405670524 ], [ 598063.605386532261036, 4332442.965257655829191 ], [ 598365.022461295826361, 4348743.958482255227864 ], [ 586832.70139634271618, 4349030.582694749347866 ], [ 587150.189703502110206, 4356847.247925749979913 ], [ 590575.253222894156352, 4356750.112577117048204 ], [ 590274.065973967197351, 4385730.770546851679683 ], [ 564524.667901984299533, 4385782.095203962177038 ] ] ] } },
{ "type": "Feature", "properties": { "drag_region": "East", "NAME": "Phillips" }, "geometry": { "type": "Polygon", "coordinates": [ [ [ 868216.015929888002574, 4567990.426146519370377 ], [ 867436.397146601462737, 4563102.221623058430851 ], [ 868223.651426343130879, 4533442.450190781615674 ], [ 919976.277390042087063, 4535182.411872629076242 ], [ 918826.041511505376548, 4569517.98361543379724 ], [ 868216.015929888002574, 4567990.426146519370377 ] ] ] } },
{ "type": "Feature", "properties": { "drag_region": "East", "NAME": "Yuma" }, "geometry": { "type": "Polygon", "coordinates": [ [ [ 853741.818226664676331, 4502779.383203966543078 ], [ 853986.020327082602307, 4493052.120189774781466 ], [ 853069.10619626136031, 4493124.601860081776977 ], [ 854032.051164806587622, 4454407.568642198108137 ], [ 853112.827621364034712, 4454384.844397814944386 ], [ 854297.323212772957049, 4406134.446257377974689 ], [ 919031.370380951906554, 4408656.270203714258969 ], [ 917155.161846847273409, 4456234.174800173379481 ], [ 915541.332612240803428, 4504778.544283681549132 ], [ 863788.706648541847244, 4503038.582601834088564 ], [ 853741.818226664676331, 4502779.383203966543078 ] ] ] } },
{ "type": "Feature", "properties": { "drag_region": "Front Range & Mountains", "NAME": "Pueblo" }, "geometry": { "type": "Polygon", "coordinates": [ [ [ 624724.875482988776639, 4229364.376533191651106 ], [ 624704.421648977557197, 4191333.341324150562286 ], [ 627858.76883937837556, 4187519.746069436892867 ], [ 660045.711196544812992, 4189770.255485630594194 ], [ 686301.363434648141265, 4180665.516777058131993 ], [ 711666.46118617686443, 4171730.003031632397324 ], [ 711884.940026542870328, 4181455.213772835675627 ], [ 711521.805082286940888, 4217389.856406549923122 ], [ 711722.375854008365422, 4259147.709801336750388 ], [ 666981.058496379060671, 4258525.525279850699008 ], [ 634127.423188333399594, 4258342.294280742295086 ], [ 634459.575123743154109, 4229364.974016435444355 ], [ 624724.875482988776639, 4229364.376533191651106 ] ] ] } },
{ "type": "Feature", "properties": { "drag_region": "East", "NAME": "Baca" }, "geometry": { "type": "Polygon", "coordinates": [ [ [ 832393.231015431694686, 4081366.92181652970612 ], [ 832986.037205945700407, 4052389.467339382972568 ], [ 832350.428620444145054, 4052376.527204870246351 ], [ 832887.23879569885321, 4010049.857508781831712 ], [ 860359.343650709255598, 4010551.419307776726782 ], [ 867398.373132391832769, 4010241.842401168309152 ], [ 925871.162324296426959, 4011571.540215235203505 ], [ 923607.4417841124814, 4083837.249947600066662 ], [ 832393.231015431694686, 4081366.92181652970612 ] ] ] } },
{ "type": "Feature", "properties": { "drag_region": "West", "NAME": "Montezuma" }, "geometry": { "type": "Polygon", "coordinates": [ [ [ -28926.680474703607615, 4072136.00251390831545 ], [ -31236.625206886092201, 4018158.761636685114354 ], [ 27884.094901888573077, 4015945.405790163669735 ], [ 32251.866430765425321, 4021900.731408431194723 ], [ 34779.401889166852925, 4030212.790965293068439 ], [ 36433.785544949467294, 4031873.464487022720277 ], [ 36390.203060112020466, 4039798.096808518283069 ], [ 40659.579031810280867, 4043373.304681559093297 ], [ 43366.292105843895115, 4047957.992014165502042 ], [ 45511.667819597641937, 4054853.180242744274437 ], [ 53889.44252417399548, 4057913.948462361935526 ], [ 56295.22379283583723, 4063370.764723219908774 ], [ 60529.114023086207453, 4066478.333381561096758 ], [ 60423.982694817474112, 4073067.115340416319668 ], [ 61935.45013818872394, 4080558.199206757824868 ], [ 66542.369395065063145, 4085755.581636050250381 ], [ 49736.811576778360177, 4085828.185549924615771 ], [ -16815.502265488612466, 4087959.373000268824399 ], [ -28926.680474703607615, 4072136.00251390831545 ] ] ] } },
{ "type": "Feature", "properties": { "drag_region": "East", "NAME": "Mineral" }, "geometry": { "type": "Polygon", "coordinates": [ [ [ 334606.32525400450686, 4125679.314891933463514 ], [ 328627.023133612936363, 4126382.114190538413823 ], [ 322263.098450410238001, 4124045.998637365177274 ], [ 320962.104647191357799, 4094890.112271215766668 ], [ 322859.35846388322534, 4094751.500774172134697 ], [ 321832.786554629041348, 4063397.090231276117265 ], [ 358701.69794332125457, 4063123.294613816775382 ], [ 359243.121770867903251, 4092862.484955789521337 ], [ 360826.103147439018358, 4092833.729539389722049 ], [ 361245.636491604207549, 4115996.783983104862273 ], [ 354325.426448743324727, 4117460.353684931062162 ], [ 351860.935119840025436, 4120654.448242864571512 ], [ 347770.268270031432621, 4121306.707612432539463 ], [ 345024.890845632995479, 4126034.491871065460145 ], [ 339332.826413116592448, 4125388.480692209675908 ], [ 337488.921478054311592, 4127716.087354737333953 ], [ 334606.32525400450686, 4125679.314891933463514 ] ] ] } },
{ "type": "Feature", "properties": { "drag_region": "West", "NAME": "Dolores" }, "geometry": { "type": "Polygon", "coordinates": [ [ [ -19809.405663963785628, 4144452.553115131799132 ], [ -21490.772525674983626, 4105541.669949223753065 ], [ -22025.732060169248143, 4100500.813683278858662 ], [ -9914.553850954252994, 4116324.18416963936761 ], [ 56637.759991312719649, 4114192.996719295158982 ], [ 73443.317809599422617, 4114120.392805420793593 ], [ 73959.467241190635832, 4120402.909964473452419 ], [ 82277.101008640805958, 4123006.304511335212737 ], [ 83723.577657533605816, 4128878.619481390807778 ], [ 72630.668564317718847, 4138292.572500408627093 ], [ 63723.644518327113474, 4136673.866617956664413 ], [ 61885.308004741644254, 4138453.108521019574255 ], [ 59271.727912946516881, 4135963.411670090164989 ], [ 53225.706767075491371, 4134928.094593948218971 ], [ 49403.657471585640451, 4143270.480560718569905 ], [ 153.817855673172744, 4145234.826889146585017 ], [ -544.201110380963655, 4143639.51024159276858 ], [ -19809.405663963785628, 4144452.553115131799132 ] ] ] } },
{ "type": "Feature", "properties": { "drag_region": "West", "NAME": "Delta" }, "geometry": { "type": "Polygon", "coordinates": [ [ [ 153149.731294596218504, 4353843.258934437297285 ], [ 141128.853836250724271, 4345786.248423400335014 ], [ 136604.603469766385388, 4339811.100010110996664 ], [ 129625.599611659199581, 4335153.183785852976143 ], [ 121984.24940640006389, 4339398.466108250431716 ], [ 117569.588786505293683, 4337438.572872817516327 ], [ 111043.362694477502373, 4337554.659682000987232 ], [ 101111.969102836141246, 4329008.212443515658379 ], [ 101688.665331099575269, 4327652.057959350757301 ], [ 96789.593497324371128, 4321041.088094424456358 ], [ 75924.760319716166123, 4313193.089991030283272 ], [ 75262.558101109156269, 4295264.880880660377443 ], [ 151476.708409118640702, 4292915.181410470046103 ], [ 153149.731294596218504, 4353843.258934437297285 ] ] ] } },
{ "type": "Feature", "properties": { "drag_region": "West", "NAME": "Grand" }, "geometry": { "type": "Polygon", "coordinates": [ [ [ 299266.354178649606183, 4547136.296155186370015 ], [ 298745.989144105697051, 4535603.412927689962089 ], [ 300575.212229457451031, 4535569.435296712443233 ], [ 299576.192221244331449, 4497909.184801034629345 ], [ 300338.936954054690432, 4489310.552841225638986 ], [ 316595.986459839274175, 4489031.777430395595729 ], [ 319952.167068030685186, 4487834.051341070793569 ], [ 332223.282709858380258, 4487652.051379499025643 ], [ 336442.439714801614173, 4481967.414642216637731 ], [ 342554.725589804758783, 4479694.290025614202023 ], [ 346496.040765581303276, 4475449.578406520187855 ], [ 348539.774167913827114, 4466365.931716863997281 ], [ 353719.429571811459027, 4461824.741238285787404 ], [ 359892.075417401210871, 4463379.615794424898922 ], [ 363626.138459999638144, 4467537.553657491691411 ], [ 363384.618961221363861, 4474214.772111256606877 ], [ 368904.532097510993481, 4472922.508490717969835 ], [ 370766.487048265291378, 4474908.062956291250885 ], [ 376297.988181704538874, 4474955.959281150251627 ], [ 380332.719162692374084, 4480168.183929198421538 ], [ 379445.912539064709563, 4484561.270069290883839 ], [ 381628.576483941695187, 4489121.403113273903728 ], [ 380102.540869353630114, 4490086.619143687188625 ], [ 380472.532633872935548, 4498284.180627914145589 ], [ 384785.592457118211314, 4501684.792142854072154 ], [ 385171.408912159269676, 4512838.531549252569675 ], [ 382429.87095384352142, 4514193.606137902475893 ], [ 381549.249340756039601, 4518968.116184181533754 ], [ 383736.057896007725503, 4525531.37626064941287 ], [ 381025.239813090127427, 4530224.406342851929367 ], [ 374064.183384181407746, 4536575.322709382511675 ], [ 370165.373813689453527, 4543476.330084134824574 ], [ 370828.409386901999824, 4549382.82213363237679 ], [ 366886.014221869350877, 4550755.041179034858942 ], [ 363216.21645292249741, 4548884.120015737600625 ], [ 362844.846871336048935, 4542307.627966519445181 ], [ 359160.765131956257392, 4539580.439942505210638 ], [ 357898.750016400765162, 4535588.615395993925631 ], [ 352135.880479869083501, 4538132.800876157358289 ], [ 342631.836297315778211, 4533766.615560051985085 ], [ 340210.175521117576864, 4535133.342197383753955 ], [ 334694.971690294798464, 4533205.177866254001856 ], [ 332307.063459151715506, 4536863.043882099911571 ], [ 329256.382279624813236, 4536716.343164183199406 ], [ 328909.590793167764787, 4533860.105209262110293 ], [ 324077.74824575567618, 4536984.719597435556352 ], [ 321008.830546660115942, 4535697.066525400616229 ], [ 315545.157243414258119, 4537215.786695787683129 ], [ 312590.653954327863175, 4542797.416943400166929 ], [ 309159.444995448167901, 4538182.164114091545343 ], [ 302479.128124211623799, 4539636.354260254651308 ], [ 301362.056919958093204, 4545189.549929819069803 ], [ 299266.354178649606183, 4547136.296155186370015 ] ] ] } },
{ "type": "Feature", "properties": { "drag_region": "East", "NAME": "Saguache" }, "geometry": { "type": "Polygon", "coordinates": [ [ [ 363904.764964288449846, 4166548.868769500870258 ], [ 363761.981563625973649, 4145283.63306224020198 ], [ 366644.577787675778382, 4147320.405525044072419 ], [ 368488.482722738059238, 4144992.798862516414374 ], [ 374180.547155254462268, 4145638.810041372198611 ], [ 376925.924579652899411, 4140911.025782739277929 ], [ 381016.591429461492226, 4140258.766413171309978 ], [ 383481.082758364791516, 4137064.671855237800628 ], [ 390401.292801225674339, 4135601.1021534120664 ], [ 390325.180685765342787, 4131406.913153680972755 ], [ 399799.525166723935399, 4131145.17102463869378 ], [ 399636.161581048276275, 4121517.825409073848277 ], [ 448020.035466957604513, 4120934.979209406301379 ], [ 499247.410846225917339, 4120812.413919961079955 ], [ 499271.54897541180253, 4125768.614157972391695 ], [ 501171.997487925924361, 4126712.712744511198252 ], [ 501512.117017191427294, 4131953.43046700488776 ], [ 497747.588070728583261, 4136832.745786463376135 ], [ 494618.352173045102973, 4141710.388522427994758 ], [ 490210.867760311579332, 4143070.120934266131371 ], [ 486468.10522172920173, 4149479.86111258668825 ], [ 484306.19639432412805, 4155975.966907891910523 ], [ 481806.961471910122782, 4158757.575458993669599 ], [ 480287.300298961927183, 4166203.664095068816096 ], [ 470305.195904900901951, 4175719.757908834610134 ], [ 469696.711073359241709, 4178012.838304742705077 ], [ 464393.172966750280466, 4181778.100150184240192 ], [ 461613.440311682468746, 4186475.592434782069176 ], [ 451077.026454647420906, 4198310.287041240371764 ], [ 447018.273043167311698, 4199499.943335681222379 ], [ 445410.061254484346136, 4195895.721742426976562 ], [ 430682.61831823491957, 4195985.843868583440781 ], [ 364887.267351237183902, 4197429.884441345930099 ], [ 363904.764964288449846, 4166548.868769500870258 ] ] ] } },
{ "type": "Feature", "properties": { "drag_region": "West", "NAME": "Summit" }, "geometry": { "type": "Polygon", "coordinates": [ [ [ 314036.660653926141094, 4463496.822156064212322 ], [ 314809.367215258884244, 4454233.071378722786903 ], [ 318057.644413631875068, 4445789.273673401214182 ], [ 321729.794371121912263, 4444588.921328106895089 ], [ 325952.139834630943369, 4438804.796115425415337 ], [ 328407.139754811825696, 4438292.993865048512816 ], [ 331119.181791480456013, 4434059.257612580433488 ], [ 334801.363870526722167, 4433056.022745444439352 ], [ 335349.563397296238691, 4427899.271929535083473 ], [ 332532.529819914430846, 4424694.490801045671105 ], [ 332463.113665841810871, 4419545.916603043675423 ], [ 328752.048388716299087, 4418929.280437286943197 ], [ 328971.732454183802474, 4412536.979025720618665 ], [ 332883.653527093178127, 4404854.879963523708284 ], [ 332854.366071757802274, 4402662.02962170727551 ], [ 339037.368283083371352, 4402581.925995691679418 ], [ 345811.908858862647321, 4400211.330764470621943 ], [ 348599.371546887443401, 4400560.685679708607495 ], [ 351121.429060716065578, 4404918.706934182904661 ], [ 354845.068691929685883, 4406308.852222836576402 ], [ 353636.650288715434726, 4408896.16644832585007 ], [ 358291.165398753539193, 4410945.452084589749575 ], [ 363282.616191767272539, 4416236.157084220089018 ], [ 362061.126341652066913, 4417582.737464649602771 ], [ 366402.30068726814352, 4419925.818782081827521 ], [ 365504.203894127334934, 4422889.879150617867708 ], [ 370173.431095691979863, 4427997.11997802183032 ], [ 368657.249710116768256, 4430775.500151596963406 ], [ 363737.258484406513162, 4431678.674908458255231 ], [ 357303.23505644663237, 4434984.329449164681137 ], [ 357332.74961148807779, 4437844.660520093515515 ], [ 351160.103765898325946, 4436289.785963954403996 ], [ 345980.448362000694033, 4440830.976442532613873 ], [ 343936.714959668170195, 4449914.623132188804448 ], [ 339995.399783891625702, 4454159.334751282818615 ], [ 333883.113908888481092, 4456432.459367885254323 ], [ 329663.956903945247177, 4462117.096105167642236 ], [ 317392.841262117552105, 4462299.096066739410162 ], [ 314036.660653926141094, 4463496.822156064212322 ] ] ] } },
{ "type": "Feature", "properties": { "drag_region": "West", "NAME": "Gunnison" }, "geometry": { "type": "Polygon", "coordinates": [ [ [ 166585.953070879360894, 4240857.472032793797553 ], [ 170503.972150548914215, 4234926.285074152052402 ], [ 172423.192131658113794, 4224758.980345888063312 ], [ 171759.777274234191282, 4223536.980268743820488 ], [ 221460.118876019929303, 4222311.423576414585114 ], [ 222442.621262968663359, 4253192.439248259179294 ], [ 288237.972229966428131, 4251748.398675496689975 ], [ 280832.428446717793122, 4259765.702612388879061 ], [ 279689.140547507675365, 4267219.575323349796236 ], [ 277596.770108702592552, 4273734.38410756085068 ], [ 272663.869185616378672, 4278100.539222666993737 ], [ 270856.330432244110852, 4282324.563935144804418 ], [ 273712.881637946353294, 4285331.24596465844661 ], [ 273551.899838088196702, 4295060.085884920321405 ], [ 279545.185247634770349, 4299832.253388909623027 ], [ 282114.276491274009459, 4305134.448034424334764 ], [ 274055.990858862525783, 4307448.779414067044854 ], [ 269370.121698202914558, 4306378.686430203728378 ], [ 261753.276698277652031, 4316041.793384442105889 ], [ 258332.426081404817523, 4316005.835155515931547 ], [ 253763.456439928588225, 4321237.529705924913287 ], [ 250369.534282518405234, 4322539.86303551401943 ], [ 245683.192219565942651, 4321197.936799245886505 ], [ 240881.894980404496891, 4314138.313268119469285 ], [ 236859.125001760519808, 4315172.731223745271564 ], [ 235668.219886117294664, 4317772.291762919165194 ], [ 231896.749969561380567, 4315847.337009097449481 ], [ 223626.889208560431143, 4321652.78149734903127 ], [ 224313.08440570285893, 4324594.777578054927289 ], [ 218228.126332052604994, 4330263.628749704919755 ], [ 199608.422578137280652, 4330709.763686394318938 ], [ 198463.641505869483808, 4334555.02852395363152 ], [ 193557.640830337739317, 4336875.335351828485727 ], [ 191769.53640699290554, 4339689.040638286620378 ], [ 192199.409423814940965, 4344257.762081517837942 ], [ 190390.997725147841265, 4346213.726850165054202 ], [ 187296.220582769339671, 4346391.627759614959359 ], [ 185357.783213234477444, 4343485.824465150013566 ], [ 180980.365963505551917, 4342174.179228027351201 ], [ 178200.535061253263848, 4240534.62356048822403 ], [ 166585.953070879360894, 4240857.472032793797553 ] ] ] } },
{ "type": "Feature", "properties": { "drag_region": "East", "NAME": "Costilla" }, "geometry": { "type": "Polygon", "coordinates": [ [ [ 503316.149464756250381, 4044300.162008603103459 ], [ 502350.375299273058772, 4042782.819208811037242 ], [ 505166.629700836027041, 4036851.54748665727675 ], [ 502902.734384875860997, 4032198.891778901685029 ], [ 504437.223654775763862, 4024752.795684516429901 ], [ 502485.629632144235075, 4019716.637159334961325 ], [ 503414.582710468675941, 4016182.946235010400414 ], [ 500488.471472920849919, 4009344.040605507325381 ], [ 505238.296251545776613, 4004255.626575241331011 ], [ 555380.82428881386295, 4003930.811891006771475 ], [ 555434.510249589453451, 4037000.156352864578366 ], [ 554479.289082045434043, 4036525.249975583981723 ], [ 554498.577117002685554, 4047580.497059495188296 ], [ 557679.375941537437029, 4050148.781399888917804 ], [ 555146.781026711803861, 4055203.827629990875721 ], [ 553559.413243596209213, 4055111.328758185263723 ], [ 553260.840952059719712, 4065023.801874313503504 ], [ 549782.452115102903917, 4069034.098364900331944 ], [ 552642.972578020417131, 4073221.507360932417214 ], [ 548208.703148002037778, 4073326.806860827375203 ], [ 542837.300634895800613, 4077535.724039952270687 ], [ 536497.294304144335911, 4075461.437652710825205 ], [ 533634.634342393139377, 4072518.570912274066359 ], [ 530149.589956453070045, 4072438.90578339388594 ], [ 526328.504686099360697, 4068645.292426775675267 ], [ 525369.676113306661136, 4067125.312990222591907 ], [ 503316.149464756250381, 4044300.162008603103459 ] ] ] } },
{ "type": "Feature", "properties": { "drag_region": "East", "NAME": "Las Animas" }, "geometry": { "type": "Polygon", "coordinates": [ [ [ 601651.5017993649235, 4043068.754686525091529 ], [ 601597.815838589332998, 4009999.410224667284638 ], [ 615331.195540333515964, 4009797.725819272454828 ], [ 674098.948217012686655, 4010001.716957876924425 ], [ 703480.528787392773665, 4010542.493819311261177 ], [ 785558.476481983670965, 4012271.337604956235737 ], [ 785021.666306728962809, 4054598.007301044650376 ], [ 785657.274892230518162, 4054610.947435557376593 ], [ 785064.468701716512442, 4083588.401912704110146 ], [ 698293.717747526941821, 4082358.521982004400343 ], [ 697876.023877873201855, 4092458.495458600576967 ], [ 672510.926126344362274, 4101394.009204026311636 ], [ 663084.339823349262588, 4092564.849920184351504 ], [ 655560.207494326867163, 4078990.35409887181595 ], [ 654317.79605199652724, 4073742.321720920968801 ], [ 645155.184448783867992, 4065507.769958220422268 ], [ 642933.913701212499291, 4065595.405211567413062 ], [ 642318.213717377395369, 4059779.642762803006917 ], [ 637249.044081073137932, 4055666.59743685182184 ], [ 625816.32263721502386, 4053452.358504132833332 ], [ 621367.33660825563129, 4054400.991424082778394 ], [ 615331.06581948348321, 4051444.352898182813078 ], [ 605469.734481718507595, 4043635.223882245831192 ], [ 601651.5017993649235, 4043068.754686525091529 ] ] ] } },
{ "type": "Feature", "properties": { "drag_region": "West", "NAME": "Routt" }, "geometry": { "type": "Polygon", "coordinates": [ [ [ 208751.898218639864353, 4629763.97991899959743 ], [ 207872.304735719022574, 4585026.503796933218837 ], [ 203012.748556085891323, 4585155.927925862371922 ], [ 202840.584384917310672, 4578766.17790334764868 ], [ 197976.823046676203376, 4578898.736448154784739 ], [ 197036.711336103355279, 4555828.007039205171168 ], [ 196121.932820292684482, 4555853.22294866386801 ], [ 196087.884259568789275, 4543542.567306958138943 ], [ 230299.120150285220006, 4542869.45260158367455 ], [ 229957.658554014196852, 4527993.275350412353873 ], [ 230345.533379770029569, 4518157.353256064467132 ], [ 229825.884289818030084, 4508819.337285300716758 ], [ 262345.541804623557255, 4508242.662092329934239 ], [ 264810.063255429384299, 4508769.689236280508339 ], [ 264047.318522618967108, 4517368.321196089498699 ], [ 265046.33853083208669, 4555028.571691767312586 ], [ 263217.11544548033271, 4555062.549322744831443 ], [ 263737.480480024241842, 4566595.432550241239369 ], [ 263567.172911091241986, 4573753.238295557908714 ], [ 259755.471649887243984, 4581171.391730678267777 ], [ 259538.457061716966564, 4585659.357041238807142 ], [ 262744.900123713072389, 4594565.39466745685786 ], [ 262527.000907179899514, 4599053.326993204653263 ], [ 265714.373309361166321, 4607388.395463858731091 ], [ 261331.642372075730236, 4615676.175671420991421 ], [ 257670.729623421124415, 4614125.904496529139578 ], [ 253816.25083723894204, 4618019.562671956606209 ], [ 251980.7738754292659, 4617007.639818388037384 ], [ 248114.637826720572775, 4620141.452404719777405 ], [ 246107.364577257627388, 4625241.096286186017096 ], [ 247392.607807979598874, 4628839.37298374902457 ], [ 208751.898218639864353, 4629763.97991899959743 ] ] ] } },
{ "type": "Feature", "properties": { "drag_region": "Front Range & Mountains", "NAME": "Douglas" }, "geometry": { "type": "Polygon", "coordinates": [ [ [ 598542.318698498420417, 4458355.04766755271703 ], [ 595451.6746934853727, 4450444.195412379689515 ], [ 591126.88807870214805, 4447780.032667647115886 ], [ 592356.27981793647632, 4443678.72158033028245 ], [ 588026.116891611367464, 4440730.291876547038555 ], [ 588634.919407423236407, 4435676.268730824813247 ], [ 582726.952790385927074, 4422914.18976547382772 ], [ 574317.314843820640817, 4409974.730144867673516 ], [ 632021.134406370227225, 4409881.86588469427079 ], [ 631840.15614785195794, 4458312.963977075181901 ], [ 598542.318698498420417, 4458355.04766755271703 ] ] ] } },
{ "type": "Feature", "properties": { "drag_region": "West", "NAME": "Rio Blanco" }, "geometry": { "type": "Polygon", "coordinates": [ [ [ 11783.834394946316024, 4519973.643130618147552 ], [ 8942.304280918702716, 4457494.209861010313034 ], [ 22495.748711465421366, 4456893.40650190692395 ], [ 22450.170713632163825, 4455844.196819657459855 ], [ 51711.931919211550849, 4454533.455586673691869 ], [ 51904.746882893930888, 4459397.631652399897575 ], [ 104548.166653514665086, 4457586.079330084845424 ], [ 105024.199950032256311, 4472081.758554326370358 ], [ 125933.015219851658912, 4471995.497994986362755 ], [ 148353.010292476072209, 4471161.502557164058089 ], [ 148623.187063895311439, 4481079.005447089672089 ], [ 158433.194017700647237, 4480531.551217827945948 ], [ 158939.480921842769021, 4499985.189449510537088 ], [ 182810.783878557762364, 4499495.82815526612103 ], [ 183152.245474828785518, 4514372.005406437441707 ], [ 148941.009584112354787, 4515045.120111811906099 ], [ 48134.157217284984654, 4518303.123540113680065 ], [ 11783.834394946316024, 4519973.643130618147552 ] ] ] } },
{ "type": "Feature", "properties": { "drag_region": "Front Range & Mountains", "NAME": "Larimer" }, "geometry": { "type": "Polygon", "coordinates": [ [ [ 471475.997929072822444, 4729720.655409382656217 ], [ 471687.137994919903576, 4723040.912201902829111 ], [ 475865.26898220233852, 4718979.323488806374371 ], [ 476726.812636696035042, 4715439.099412003532052 ], [ 483294.404537844413426, 4708108.844156221486628 ], [ 491577.334014236519579, 4689989.128559991717339 ], [ 494525.437082988093607, 4681565.46324307937175 ], [ 494771.331944220757578, 4675936.20118018053472 ], [ 498121.728461946651805, 4676474.664002355188131 ], [ 499300.984890606545378, 4672648.497804341837764 ], [ 503243.380055639194325, 4671276.278758939355612 ], [ 502580.344482426648028, 4665369.786709441803396 ], [ 506479.154052918602247, 4658468.779334689490497 ], [ 513440.210481827321928, 4652117.862968158908188 ], [ 516151.028564744920004, 4647424.832885956391692 ], [ 537209.578747809398919, 4647013.082856551744044 ], [ 546978.673721288330853, 4647546.870735233649611 ], [ 567121.877570744254626, 4647317.088055377826095 ], [ 566822.941777097526938, 4657043.210470299236476 ], [ 576272.211335057858378, 4657043.050375315360725 ], [ 576255.428023092332296, 4684409.945900644175708 ], [ 576552.810841701342724, 4694041.27627360355109 ], [ 576529.753184143686667, 4729038.810477888211608 ], [ 548455.604190362384543, 4729169.269688727334142 ], [ 510719.835004505584948, 4729194.753795797005296 ], [ 471475.997929072822444, 4729720.655409382656217 ] ] ] } },
{ "type": "Feature", "properties": { "drag_region": "East", "NAME": "Crowley" }, "geometry": { "type": "Polygon", "coordinates": [ [ [ 704120.36650717491284, 4220820.336842266842723 ], [ 703919.795735453604721, 4179062.483447480015457 ], [ 709581.038510296843015, 4179121.871717408299446 ], [ 711486.062222365289927, 4177522.097731630317867 ], [ 722508.165812868159264, 4176698.196023795753717 ], [ 723466.355626889620908, 4175566.119577777571976 ], [ 742660.928594041499309, 4175829.322216586209834 ], [ 742564.334381630527787, 4182311.314371176064014 ], [ 751995.378257522243075, 4182552.775373594835401 ], [ 752457.758302364731207, 4192858.085823629982769 ], [ 752005.098038739757612, 4201432.437587950378656 ], [ 752004.43854318454396, 4220789.289183751679957 ], [ 742293.589427655562758, 4221304.584758072160184 ], [ 704120.36650717491284, 4220820.336842266842723 ] ] ] } },
{ "type": "Feature", "properties": { "drag_region": "East", "NAME": "Custer" }, "geometry": { "type": "Polygon", "coordinates": [ [ [ 505485.684194168250542, 4180855.332620282657444 ], [ 506094.169025709910784, 4178562.252224374562502 ], [ 516076.273419770936016, 4169046.158410608768463 ], [ 517595.934592719131615, 4161600.069774533621967 ], [ 520095.169515133136883, 4158818.461223431862891 ], [ 522257.078342538210563, 4152322.355428126640618 ], [ 525999.840881120646372, 4145912.615249806083739 ], [ 530407.325293854111806, 4144552.882837967947125 ], [ 533536.561191537650302, 4139675.240102003328502 ], [ 538898.873758788220584, 4139077.882588900160044 ], [ 547438.141972944606096, 4144382.185053984634578 ], [ 551212.84173759969417, 4140938.958733571693301 ], [ 554068.296472589601763, 4147031.224024494178593 ], [ 558177.380595403956249, 4151978.027016173116863 ], [ 562273.37351268355269, 4151779.905141942203045 ], [ 564155.931174488738179, 4145772.347508578561246 ], [ 567625.089985085651278, 4146244.984863877296448 ], [ 570775.885926203569397, 4141762.955753925256431 ], [ 570796.33976021502167, 4179793.990962966345251 ], [ 505485.684194168250542, 4180855.332620282657444 ] ] ] } },
{ "type": "Feature", "properties": { "drag_region": "Front Range & Mountains", "NAME": "El Paso" }, "geometry": { "type": "Polygon", "coordinates": [ [ [ 620725.158272180939093, 4380816.598826237022877 ], [ 621026.345521107781678, 4351835.940856502391398 ], [ 617601.282001715851948, 4351933.076205135323107 ], [ 617283.793694556457922, 4344116.41097413469106 ], [ 628816.114759509568103, 4343829.786761640571058 ], [ 628514.697684745886363, 4327528.793537041172385 ], [ 628523.801724260207266, 4313039.546680511906743 ], [ 661377.437032305984758, 4313222.777679620310664 ], [ 706118.754389935173094, 4313844.962201106362045 ], [ 705409.992417014669627, 4352259.193060451187193 ], [ 705421.615145668387413, 4381053.136879011057317 ], [ 652679.579762747627683, 4380775.059223174117506 ], [ 620725.158272180939093, 4380816.598826237022877 ] ] ] } },
{ "type": "Feature", "properties": { "drag_region": "Front Range & Mountains", "NAME": "Gilpin" }, "geometry": { "type": "Polygon", "coordinates": [ [ [ 515159.427084308583289, 4537812.081637588329613 ], [ 512976.763139431597665, 4533251.948593605309725 ], [ 513863.569763059262186, 4528858.862453512847424 ], [ 518769.581009900546633, 4527869.13237005379051 ], [ 530079.098767488496378, 4518358.228270989842713 ], [ 538682.508718088734895, 4517075.675463302060962 ], [ 538774.611103943316266, 4537765.541232508607209 ], [ 515159.427084308583289, 4537812.081637588329613 ] ] ] } },
{ "type": "Feature", "properties": { "drag_region": "East", "NAME": "Huerfano" }, "geometry": { "type": "Polygon", "coordinates": [ [ [ 547536.603785579791293, 4107829.92614407883957 ], [ 545614.66952848515939, 4102978.523429571185261 ], [ 545590.895784126012586, 4098308.322995256632566 ], [ 543334.679683622438461, 4090790.450507430825382 ], [ 544907.617639949545264, 4088590.030671820510179 ], [ 548728.702910303371027, 4092383.644028438720852 ], [ 552213.747296243323945, 4092463.309157318901271 ], [ 555076.407257994636893, 4095406.175897755660117 ], [ 561416.41358874598518, 4097480.462284997105598 ], [ 566787.816101852338761, 4093271.545105872210115 ], [ 571222.085531870718114, 4093166.245605977252126 ], [ 568361.5650689532049, 4088978.836609945166856 ], [ 571839.953905910020694, 4084968.540119358338416 ], [ 572138.526197446510196, 4075056.067003230098635 ], [ 573725.893980562104844, 4075148.565875035710633 ], [ 576258.488895387621596, 4070093.519644933752716 ], [ 573077.690070852870122, 4067525.235304540023208 ], [ 573058.40203589561861, 4056469.988220628816634 ], [ 574013.623203439754434, 4056944.894597909413278 ], [ 577831.855885793222114, 4057511.363793630152941 ], [ 587693.187223558314145, 4065320.492809567134827 ], [ 593729.458012330462225, 4068277.131335467100143 ], [ 598178.444041289738379, 4067328.498415517155081 ], [ 609611.165485147968866, 4069542.737348236143589 ], [ 614680.335121452109888, 4073655.782674187328666 ], [ 615296.03510528721381, 4079471.545122951734811 ], [ 617517.305852858582512, 4079383.909869604744017 ], [ 626679.917456071241759, 4087618.46163230529055 ], [ 627922.328898401581682, 4092866.494010256137699 ], [ 635446.461227423977107, 4106440.989831568673253 ], [ 644873.047530419076793, 4115270.149115410633385 ], [ 618617.395292315864936, 4124374.887823983095586 ], [ 586430.452935149427503, 4122124.378407789394259 ], [ 583276.105744748492725, 4125937.973662503063679 ], [ 580125.309803630574606, 4130420.002772455103695 ], [ 576656.150993033545092, 4129947.365417156368494 ], [ 574773.593331228476018, 4135954.923050520010293 ], [ 570677.600413948879577, 4136153.04492475092411 ], [ 566568.51629113452509, 4131206.241933071985841 ], [ 563713.061556144617498, 4125113.976642149500549 ], [ 559938.361791489529423, 4128557.202962562441826 ], [ 551399.093577333143912, 4123252.900497477967292 ], [ 546036.781010082457215, 4123850.25801058113575 ], [ 549801.309956545359455, 4118970.942691122647375 ], [ 549461.190427279798314, 4113730.224968628957868 ], [ 547560.741914765676484, 4112786.12638209015131 ], [ 547536.603785579791293, 4107829.92614407883957 ] ] ] } },
{ "type": "Feature", "properties": { "drag_region": "West", "NAME": "Ouray" }, "geometry": { "type": "Polygon", "coordinates": [ [ [ 139345.199854149192106, 4213433.829385405406356 ], [ 139440.391668176802341, 4216770.838671998120844 ], [ 95819.369137412621058, 4218038.211961490102112 ], [ 98265.762061767556588, 4216046.326227985322475 ], [ 99618.588825171507779, 4209509.805141675285995 ], [ 106215.492324601960718, 4209292.248995990492404 ], [ 112367.864440190998721, 4204990.105413913726807 ], [ 111505.664280863900785, 4197668.344825137406588 ], [ 109932.780635320217698, 4197718.51075909845531 ], [ 111063.649505481749657, 4193673.783856027759612 ], [ 116096.353419841165305, 4193419.812737172469497 ], [ 115157.15639623424795, 4183523.578564543277025 ], [ 119454.786627773180953, 4179668.718940002843738 ], [ 124169.28396798959875, 4179048.486730034463108 ], [ 129653.904637989078765, 4172396.742194166406989 ], [ 128941.601460017482168, 4169650.410963363945484 ], [ 132687.734550426597707, 4168109.910689902491868 ], [ 137827.601684528694022, 4171111.585005573928356 ], [ 137652.680992852139752, 4176078.125331815332174 ], [ 143959.865681448427495, 4175901.555912961252034 ], [ 142150.025932634889614, 4178909.492271933704615 ], [ 145953.834383676934522, 4179567.687683086842299 ], [ 149291.484529326786287, 4186346.216169947758317 ], [ 144685.881361344538163, 4190765.616973868571222 ], [ 144519.024057504022494, 4196113.337621355429292 ], [ 145182.438914927945007, 4197335.337698499672115 ], [ 143263.218933818745427, 4207502.642426763661206 ], [ 139345.199854149192106, 4213433.829385405406356 ] ] ] } },
{ "type": "Feature", "properties": { "drag_region": "East", "NAME": "Cheyenne" }, "geometry": { "type": "Polygon", "coordinates": [ [ [ 814646.605983901419677, 4295508.486769147217274 ], [ 815109.987877509091049, 4256985.240053838118911 ], [ 814658.474647698458284, 4248297.202809896320105 ], [ 824340.892274607089348, 4248781.972219080664217 ], [ 912788.486854331800714, 4251235.769891526550055 ], [ 911239.485534371691756, 4299104.149947264231741 ], [ 853166.394074430922046, 4296572.17379438970238 ], [ 814646.605983901419677, 4295508.486769147217274 ] ] ] } },
{ "type": "Feature", "properties": { "drag_region": "West", "NAME": "Moffat" }, "geometry": { "type": "Polygon", "coordinates": [ [ [ 13161.080307176773204, 4607233.794126725755632 ], [ 12026.70881047428702, 4589218.379922895692289 ], [ 10613.17910462783766, 4558406.788748441264033 ], [ 46963.501926966506289, 4556736.269157936796546 ], [ 147770.354293793876423, 4553478.265729635022581 ], [ 147804.40285451777163, 4565788.921371340751648 ], [ 148719.181370328442426, 4565763.705461882054806 ], [ 149659.293080901290523, 4588834.434870831668377 ], [ 154523.054419142397819, 4588701.876326024532318 ], [ 154695.21859031097847, 4595091.626348539255559 ], [ 159554.774769944109721, 4594962.202219610102475 ], [ 160434.368252864951501, 4639699.678341676481068 ], [ 87967.588829150510719, 4641696.271590397693217 ], [ 14896.0110989488021, 4644724.328183966688812 ], [ 13161.080307176773204, 4607233.794126725755632 ] ] ] } },
{ "type": "Feature", "properties": { "drag_region": "West", "NAME": "Pitkin" }, "geometry": { "type": "Polygon", "coordinates": [ [ [ 190362.28936406649882, 4383315.648349064402282 ], [ 187113.622448352689389, 4377678.260326438583434 ], [ 194408.075677287066355, 4372425.518669424578547 ], [ 193131.532358465075959, 4371027.919433663599193 ], [ 194939.944057132175658, 4369071.954665016382933 ], [ 194510.071040310140233, 4364503.23322178516537 ], [ 196298.17546365497401, 4361689.527935327030718 ], [ 201204.176139186718501, 4359369.221107452176511 ], [ 202348.957211454515345, 4355523.956269892863929 ], [ 220968.660965369839687, 4355077.821333203464746 ], [ 227053.619039020093624, 4349408.970161553472281 ], [ 226367.423841877665836, 4346466.974080847576261 ], [ 234637.28460287861526, 4340661.529592595994473 ], [ 238408.754519434529357, 4342586.484346417710185 ], [ 239599.659635077754501, 4339986.923807243816555 ], [ 243622.429613721731585, 4338952.505851618014276 ], [ 248423.726852883177344, 4346012.129382744431496 ], [ 253110.068915835639928, 4347354.055619012564421 ], [ 256503.991073245822918, 4346051.722289423458278 ], [ 261072.960714722052217, 4340820.027739014476538 ], [ 263053.831846721353941, 4347461.171357595361769 ], [ 262490.924969880317803, 4350808.869453745894134 ], [ 265036.592530209629331, 4354388.811714543960989 ], [ 264793.533644773589913, 4358303.094030818901956 ], [ 269466.273072646465153, 4359463.843728390522301 ], [ 271828.768713568046223, 4371154.996674336493015 ], [ 271591.1748127315077, 4375545.805468897335231 ], [ 276240.515495170431677, 4375947.625967011786997 ], [ 276629.814144344942179, 4380995.869548065587878 ], [ 190362.28936406649882, 4383315.648349064402282 ] ] ] } },
{ "type": "Feature", "properties": { "drag_region": "East", "NAME": "Prowers" }, "geometry": { "type": "Polygon", "coordinates": [ [ [ 862446.149213256547228, 4178144.675196903757751 ], [ 863639.186455712188035, 4129048.097173789981753 ], [ 863009.600388725753874, 4128937.512662743683904 ], [ 863488.839344686130062, 4109013.801180695649236 ], [ 925885.119823817978613, 4110747.227828565984964 ], [ 923368.154900011839345, 4180052.948175803758204 ], [ 862446.149213256547228, 4178144.675196903757751 ] ] ] } },
{ "type": "Feature", "properties": { "drag_region": "West", "NAME": "San Juan" }, "geometry": { "type": "Polygon", "coordinates": [ [ [ 120396.327137170475908, 4130458.493295830208808 ], [ 118949.85048827767605, 4124586.178325774613768 ], [ 110632.216720827505924, 4121982.78377891285345 ], [ 110116.067289236292709, 4115700.266619860194623 ], [ 153195.225724977441132, 4114446.902492687571794 ], [ 153574.542720650439151, 4128746.765217022504658 ], [ 155828.006569882272743, 4130213.59298504376784 ], [ 154960.226172150112689, 4133289.261843322310597 ], [ 150900.792483059572987, 4135210.247067826334387 ], [ 149150.258087793248706, 4140600.32420562999323 ], [ 150811.41594449034892, 4143608.261630329769105 ], [ 149675.957520466879942, 4148313.958066815976053 ], [ 146587.265136133239139, 4150783.830586477648467 ], [ 140280.080447536951397, 4150960.400005331728607 ], [ 140455.001139213505667, 4145993.859679090324789 ], [ 135315.134005111409351, 4142992.185363418888301 ], [ 131569.000914702308364, 4144532.685636880341917 ], [ 127659.167375588120194, 4140545.216480087954551 ], [ 126244.623812447767705, 4135529.95151145150885 ], [ 120396.327137170475908, 4130458.493295830208808 ] ] ] } },
{ "type": "Feature", "properties": { "drag_region": "West", "NAME": "La Plata" }, "geometry": { "type": "Polygon", "coordinates": [ [ [ 101381.049614084826317, 4082803.241003616712987 ], [ 96774.130357208487112, 4077605.858574324287474 ], [ 95262.662913837237284, 4070114.774707982782274 ], [ 95367.794242105970625, 4063525.992749127559364 ], [ 91133.904011855600402, 4060418.42409078637138 ], [ 88728.122743193758652, 4054961.607829928398132 ], [ 80350.348038617405109, 4051900.839610310737044 ], [ 78204.972324863658287, 4045005.651381731964648 ], [ 75498.259250830044039, 4040420.964049125555903 ], [ 71228.883279131783638, 4036845.756176084745675 ], [ 71272.465763969230466, 4028921.123854589182884 ], [ 69618.082108186616097, 4027260.450332859531045 ], [ 67090.546649785188492, 4018948.390775997657329 ], [ 62722.775120908336248, 4012993.065157730132341 ], [ 74541.43765159114264, 4012485.701901605352759 ], [ 142592.769524928706232, 4010530.988661139272153 ], [ 144460.20804982597474, 4081549.876876444090158 ], [ 101381.049614084826317, 4082803.241003616712987 ] ] ] } },
{ "type": "Feature", "properties": { "drag_region": "West", "NAME": "Hinsdale" }, "geometry": { "type": "Polygon", "coordinates": [ [ [ 163095.287247886473779, 4173984.533809738233685 ], [ 163262.144551726989448, 4168636.813162251375616 ], [ 167867.747719709237572, 4164217.412358330562711 ], [ 164530.097574059385806, 4157438.883871469646692 ], [ 160726.289123017340899, 4156780.688460316509008 ], [ 162536.128871830878779, 4153772.752101344056427 ], [ 165624.821256164519582, 4151302.879581682384014 ], [ 166760.279680187988561, 4146597.183145196177065 ], [ 165099.121823490888346, 4143589.245720496401191 ], [ 166849.656218757212628, 4138199.168582692742348 ], [ 170909.089907847752329, 4136278.183358188718557 ], [ 171776.870305579912383, 4133202.5144999101758 ], [ 169523.406456348078791, 4131735.686731888912618 ], [ 168506.826985641906504, 4093317.298462738282979 ], [ 199956.773006509814877, 4092643.11737417569384 ], [ 200905.878658888454083, 4120565.927292387466878 ], [ 199008.624842196586542, 4120704.538789430633187 ], [ 200309.618645415466744, 4149860.425155580043793 ], [ 206673.543328618165106, 4152196.540708753280342 ], [ 212652.845449009735603, 4151493.741410148330033 ], [ 212795.6288496722118, 4172758.977117408998311 ], [ 163095.287247886473779, 4173984.533809738233685 ] ] ] } },
{ "type": "Feature", "properties": { "drag_region": "East", "NAME": "Kit Carson" }, "geometry": { "type": "Polygon", "coordinates": [ [ [ 815390.598763990215957, 4372831.575961817055941 ], [ 816381.86574115336407, 4324300.323116961866617 ], [ 815965.780644266400486, 4314181.447502510622144 ], [ 854485.568734795902856, 4315245.13452775310725 ], [ 912558.660194736672565, 4317777.110680627636611 ], [ 912245.25053515448235, 4327408.31472994107753 ], [ 911322.700994454789907, 4346184.121485937386751 ], [ 910335.972325672511943, 4376318.702920413576066 ], [ 845601.925157493562438, 4373796.878974077291787 ], [ 815390.598763990215957, 4372831.575961817055941 ] ] ] } },
{ "type": "Feature", "properties": { "drag_region": "West", "NAME": "San Miguel" }, "geometry": { "type": "Polygon", "coordinates": [ [ [ -11612.974791904794984, 4191192.815689201466739 ], [ -12928.531832428823691, 4160959.779050084762275 ], [ 6336.672721153998282, 4160146.736176545731723 ], [ 7034.691687208134681, 4161742.052824099548161 ], [ 56284.531303120602388, 4159777.706495671533048 ], [ 60106.580598610453308, 4151435.320528901182115 ], [ 66152.601744481478818, 4152470.637605043128133 ], [ 68766.181836276606191, 4154960.334455972537398 ], [ 70604.518349862075411, 4153181.092552909627557 ], [ 79511.542395852680784, 4154799.798435361590236 ], [ 90604.451489068567753, 4145385.845416343770921 ], [ 96452.74816434585955, 4150457.303631965070963 ], [ 97867.291727486212039, 4155472.568600601516664 ], [ 101777.125266600400209, 4159460.03775739390403 ], [ 102489.428444571996806, 4162206.368988196365535 ], [ 97004.807774572516792, 4168858.113524064421654 ], [ 92290.310434356098995, 4169478.345734032802284 ], [ 87992.680202817165991, 4173333.205358573235571 ], [ 88931.877226424083347, 4183229.439531202428043 ], [ 83899.173312064667698, 4183483.410650057718158 ], [ 82768.304441903135739, 4187528.137553128413856 ], [ 37.257106479723006, 4190883.796001072973013 ], [ -11612.974791904794984, 4191192.815689201466739 ] ] ] } },
{ "type": "Feature", "properties": { "drag_region": "Front Range & Mountains", "NAME": "Clear Creek" }, "geometry": { "type": "Polygon", "coordinates": [ [ [ 487694.78370499209268, 4499941.397717050276697 ], [ 487665.269149950647261, 4497081.066646121442318 ], [ 494099.292577910528053, 4493775.412105415016413 ], [ 499019.283803620783146, 4492872.237348553724587 ], [ 500535.465189195994753, 4490093.857174978591502 ], [ 495866.237987631349824, 4484986.61634757462889 ], [ 516526.296572775172535, 4485205.245801104232669 ], [ 532865.158302865806036, 4484829.619095840491354 ], [ 532954.366405312670395, 4504946.77886161301285 ], [ 524350.956454712548293, 4506229.331669300794601 ], [ 513041.43869712454034, 4515740.235768364742398 ], [ 508135.427450283255894, 4516729.965851823799312 ], [ 504100.696469295420684, 4511517.741203775629401 ], [ 498569.195335856173187, 4511469.844878916628659 ], [ 496707.24038510187529, 4509484.290413343347609 ], [ 491187.327248812245671, 4510776.554033881984651 ], [ 491428.846747590519954, 4504099.335580117069185 ], [ 487694.78370499209268, 4499941.397717050276697 ] ] ] } },
{ "type": "Feature", "properties": { "drag_region": "East", "NAME": "Kiowa" }, "geometry": { "type": "Polygon", "coordinates": [ [ [ 781373.660088083473966, 4223673.907960072159767 ], [ 781386.732398789841682, 4203554.413928145542741 ], [ 781839.392662414815277, 4194980.062163825146854 ], [ 790945.972529775346629, 4195132.577325385995209 ], [ 848409.771181356278248, 4196522.28836626932025 ], [ 909331.776868111570366, 4198430.561345169320703 ], [ 908095.777364170644432, 4236952.230451314710081 ], [ 819648.182784445933066, 4234498.432778868824244 ], [ 809965.765157537302002, 4234013.663369684480131 ], [ 810157.278103746590205, 4224384.866150010377169 ], [ 781373.660088083473966, 4223673.907960072159767 ] ] ] } },
{ "type": "Feature", "properties": { "drag_region": "Front Range & Mountains", "NAME": "Park" }, "geometry": { "type": "Polygon", "coordinates": [ [ [ 466861.532277079531923, 4426971.758337178267539 ], [ 465233.132835619500838, 4420508.180121917277575 ], [ 462432.231185823911801, 4419304.73653129208833 ], [ 462286.316219522967003, 4408150.058073626831174 ], [ 463112.401492011034861, 4400129.59812678117305 ], [ 459961.979475940344855, 4396547.506011351943016 ], [ 463350.160738378413953, 4394500.727876583114266 ], [ 461443.789621660602279, 4391188.161340496502817 ], [ 463214.058296904666349, 4383918.48049324657768 ], [ 468493.965082441456616, 4383471.017365646548569 ], [ 468119.072440359392203, 4378231.439727758988738 ], [ 475277.053766611148603, 4378433.363705604337156 ], [ 480832.800039668451063, 4374272.791788015514612 ], [ 479871.594855647301301, 4371708.762194012291729 ], [ 484218.543228217982687, 4370519.374949446879327 ], [ 482639.032940518460236, 4368342.695957242511213 ], [ 485703.392933791386895, 4363258.604187837801874 ], [ 482848.530570058966987, 4358425.120494379661977 ], [ 480272.07116554514505, 4350729.467697641812265 ], [ 535835.015291830059141, 4350717.081536184065044 ], [ 536008.799439336173236, 4398763.250471816398203 ], [ 530113.923727439949289, 4398691.551068844273686 ], [ 530327.288203357951716, 4447122.714240370318294 ], [ 513988.426473267376423, 4447498.340945634059608 ], [ 493328.367888123495504, 4447279.711492104455829 ], [ 494226.464681264362298, 4444315.651123568415642 ], [ 489885.290335648227483, 4441972.569806136190891 ], [ 491106.780185763491318, 4440625.989425706677139 ], [ 486115.329392749699764, 4435335.284426076337695 ], [ 481460.814282711595297, 4433285.99878981243819 ], [ 482669.232685925904661, 4430698.684564323164523 ], [ 478945.593054712284356, 4429308.539275669492781 ], [ 476423.535540883662179, 4424950.518021195195615 ], [ 473636.072852858807892, 4424601.163105957210064 ], [ 466861.532277079531923, 4426971.758337178267539 ] ] ] } },
{ "type": "Feature", "properties": { "drag_region": "Front Range & Mountains", "NAME": "Lake" }, "geometry": { "type": "Polygon", "coordinates": [ [ [ 399351.213838140771259, 4430813.887903165072203 ], [ 398961.915188966260757, 4425765.644322111271322 ], [ 394312.57450652733678, 4425363.823823996819556 ], [ 394550.168407363875303, 4420973.01502943597734 ], [ 392187.672766442294233, 4409281.862083490006626 ], [ 387514.933338569418993, 4408121.112385918386281 ], [ 387757.992224005458411, 4404206.830069643445313 ], [ 385212.324663676146884, 4400626.887808845378458 ], [ 385775.231540517183021, 4397279.189712694846094 ], [ 419314.151241857209243, 4396577.467812004499137 ], [ 421220.522358575079124, 4399890.034348091110587 ], [ 417832.341096136951819, 4401936.812482859939337 ], [ 420982.763112207700033, 4405518.904598289169371 ], [ 420156.677839719632175, 4413539.364545134827495 ], [ 420302.592806020576973, 4424694.043002800084651 ], [ 423103.49445581616601, 4425897.486593425273895 ], [ 424731.893897276197094, 4432361.064808686263859 ], [ 418548.891685950628016, 4432441.168434701859951 ], [ 411700.089451353938784, 4429198.009940026327968 ], [ 405830.78974573063897, 4429760.493390410207212 ], [ 401857.575522192229982, 4432872.697482292540371 ], [ 399351.213838140771259, 4430813.887903165072203 ] ] ] } },
{ "type": "Feature", "properties": { "drag_region": "East", "NAME": "Lincoln" }, "geometry": { "type": "Polygon", "coordinates": [ [ [ 710031.528741601621732, 4278338.228044620715082 ], [ 710740.290714522125199, 4239923.997185275889933 ], [ 748913.513635002775118, 4240408.245101081207395 ], [ 758624.362750531756319, 4239892.949526760727167 ], [ 758611.949935380602255, 4240655.591962886042893 ], [ 787395.567951043718494, 4241366.550152824260294 ], [ 787204.055004834430292, 4250995.347372498363256 ], [ 787655.568234645063058, 4259683.384616440162063 ], [ 787192.186341037391685, 4298206.631331749260426 ], [ 787608.271437924355268, 4308325.506946200504899 ], [ 786617.004460761207156, 4356856.759791055694222 ], [ 738515.275096505996771, 4356114.903840202838182 ], [ 738586.427323914365843, 4307482.112451615743339 ], [ 739304.728956848848611, 4278504.416176190599799 ], [ 710031.528741601621732, 4278338.228044620715082 ] ] ] } },
{ "type": "Feature", "properties": { "drag_region": "Front Range & Mountains", "NAME": "Adams" }, "geometry": { "type": "Polygon", "coordinates": [ [ [ 631037.956324980128556, 4537631.32551724743098 ], [ 631029.734263860154897, 4523901.674511260353029 ], [ 643015.732430055388249, 4523141.126469621434808 ], [ 645472.408047965727746, 4524764.739156461320817 ], [ 653461.69359365303535, 4524779.181632209569216 ], [ 653450.585679538198747, 4529546.400027632713318 ], [ 658669.953243526280858, 4529941.729899496771395 ], [ 658651.840907680918463, 4535948.483798552304506 ], [ 662944.429992065182887, 4536820.765233841724694 ], [ 669697.408690742100589, 4536085.14559568464756 ], [ 668175.450426772353239, 4533218.079591326415539 ], [ 668199.810490020667203, 4527497.373487984761596 ], [ 655912.60828109504655, 4527550.284554620273411 ], [ 658387.807881421991624, 4521550.518586819060147 ], [ 650394.2201897429768, 4522007.671692799776793 ], [ 645480.743444013292901, 4518281.384347261860967 ], [ 680849.060330979060382, 4518217.586040914058685 ], [ 746355.531366820912808, 4519073.622522215358913 ], [ 746242.693463186500594, 4548064.308852109126747 ], [ 679145.382284511113539, 4547289.135390443727374 ], [ 639009.54931281413883, 4547165.363064640201628 ], [ 636558.949920591432601, 4543636.826308607123792 ], [ 634413.523918350227177, 4545067.064534713514149 ], [ 634412.472076297737658, 4538392.815077837556601 ], [ 631037.956324980128556, 4537631.32551724743098 ] ] ] } },
{ "type": "Feature", "properties": { "drag_region": "West", "NAME": "Eagle" }, "geometry": { "type": "Polygon", "coordinates": [ [ [ 268894.034271119744517, 4461553.229462924413383 ], [ 229625.217806859611301, 4462286.769414190202951 ], [ 228181.430114551534643, 4400974.449028792791069 ], [ 287235.632797731901519, 4399339.408130151219666 ], [ 289741.994481783360243, 4401398.217709278687835 ], [ 293715.20870532176923, 4398286.013617396354675 ], [ 299584.508410945069045, 4397723.530167012475431 ], [ 306433.310645541758277, 4400966.688661688007414 ], [ 306462.598100877134129, 4403159.539003504440188 ], [ 302550.677027967758477, 4410841.63806570135057 ], [ 302330.992962500196882, 4417233.939477267675102 ], [ 306042.058239625766873, 4417850.575643024407327 ], [ 306111.474393698386848, 4422999.14984102640301 ], [ 308928.507971080136485, 4426203.930969515815377 ], [ 308380.308444310678169, 4431360.681785425171256 ], [ 304698.126365264412016, 4432363.916652561165392 ], [ 301986.084328595781699, 4436597.652905029244721 ], [ 299531.084408414899372, 4437109.455155406147242 ], [ 295308.738944905810058, 4442893.580368087626994 ], [ 291636.588987415772863, 4444093.932713381946087 ], [ 288388.311789042782038, 4452537.730418703518808 ], [ 287615.605227710097097, 4461801.481196044944227 ], [ 271358.555721925455146, 4462080.256606874987483 ], [ 268894.034271119744517, 4461553.229462924413383 ] ] ] } },
{ "type": "Feature", "properties": { "drag_region": "East", "NAME": "Logan" }, "geometry": { "type": "Polygon", "coordinates": [ [ [ 763952.823111607460305, 4598410.617622865363955 ], [ 764494.479231933015399, 4565128.009633102454245 ], [ 763897.247742370469496, 4564546.015047086402774 ], [ 764207.639371623634361, 4545282.925010425038636 ], [ 773937.064762387075461, 4545445.761580254882574 ], [ 774104.389569819788449, 4535814.341832141391933 ], [ 780803.782165711862035, 4535838.230879426002502 ], [ 842295.824110008077696, 4537499.453345973975956 ], [ 841508.569830266409554, 4567159.224778250791132 ], [ 842288.188613552949391, 4572047.429301711730659 ], [ 841535.883129160967655, 4600087.192656449042261 ], [ 780253.864192490233108, 4598694.81194618716836 ], [ 763952.823111607460305, 4598410.617622865363955 ] ] ] } },
{ "type": "Feature", "properties": { "drag_region": "East", "NAME": "Sedgwick" }, "geometry": { "type": "Polygon", "coordinates": [ [ [ 868530.082445360603742, 4611239.76196966227144 ], [ 869282.387929752585478, 4583199.998614924959838 ], [ 919892.413511369959451, 4584727.556083839386702 ], [ 918947.65692677127663, 4612769.280801740474999 ], [ 871244.512158963712864, 4611408.724070674739778 ], [ 868530.082445360603742, 4611239.76196966227144 ] ] ] } },
{ "type": "Feature", "properties": { "drag_region": "East", "NAME": "Chaffee" }, "geometry": { "type": "Polygon", "coordinates": [ [ [ 405225.800763178325724, 4288277.112713130190969 ], [ 408646.651380051160231, 4288313.070942056365311 ], [ 416263.496379976393655, 4278649.9639878179878 ], [ 420949.365540636063088, 4279720.056971681304276 ], [ 429007.651173047488555, 4277405.725592038594186 ], [ 426438.559929408249445, 4272103.530946523882449 ], [ 420445.274519861675799, 4267331.363442534580827 ], [ 420606.256319719890598, 4257602.523522272706032 ], [ 417749.705114017589949, 4254595.84149275906384 ], [ 419557.243867389915977, 4250371.816780281253159 ], [ 424490.144790476071648, 4246005.661665175110102 ], [ 426582.515229281212669, 4239490.852880964055657 ], [ 427725.803128491272219, 4232036.980170003138483 ], [ 435131.346911739907227, 4224019.676233110949397 ], [ 449858.789847989333794, 4223929.554106954485178 ], [ 451467.001636672299355, 4227533.775700208730996 ], [ 455525.755048152408563, 4226344.11940576788038 ], [ 462168.363257893943228, 4232661.354688834398985 ], [ 464674.015337076387368, 4232826.915574690327048 ], [ 465032.89779734693002, 4237494.794695124961436 ], [ 467279.823808590997942, 4243479.119629021733999 ], [ 464185.713709666510113, 4246655.449289206415415 ], [ 463304.247348605422303, 4252193.867191255092621 ], [ 459573.873140402254649, 4253757.840788166038692 ], [ 462150.332544916076586, 4261453.493584903888404 ], [ 465005.194908648438286, 4266286.977278362028301 ], [ 461940.834915375511628, 4271371.06904776673764 ], [ 463520.345203075034078, 4273547.748039971105754 ], [ 459173.3968305044109, 4274737.135284536518157 ], [ 460134.602014525560662, 4277301.164878539741039 ], [ 454578.855741468199994, 4281461.736796128563583 ], [ 447420.874415216443595, 4281259.812818283215165 ], [ 447795.767057298566215, 4286499.390456170774996 ], [ 442515.86027176171774, 4286946.853583770804107 ], [ 440745.59159651765367, 4294216.534431020729244 ], [ 407206.671895177627448, 4294918.2563317110762 ], [ 405225.800763178325724, 4288277.112713130190969 ] ] ] } },
{ "type": "Feature", "properties": { "drag_region": "Front Range & Mountains", "NAME": "Fremont" }, "geometry": { "type": "Polygon", "coordinates": [ [ [ 487625.517040034290403, 4277348.712613469921052 ], [ 498161.930897069338243, 4265514.018007012084126 ], [ 500941.663552137149964, 4260816.525722414255142 ], [ 506245.201658746111207, 4257051.263876972720027 ], [ 571555.857224792824127, 4255989.922219656407833 ], [ 581290.556865547085181, 4255990.519702900201082 ], [ 580958.404930137330666, 4284967.839967207051814 ], [ 580949.300890623126179, 4299457.086823736317456 ], [ 555025.216486031538807, 4299196.891574486158788 ], [ 555351.823847641819157, 4304724.96436215005815 ], [ 491673.635132284136489, 4304762.433995868079364 ], [ 495404.009340487304144, 4303198.460398957133293 ], [ 496285.475701548391953, 4297660.042496908456087 ], [ 499379.585800472879782, 4294483.712836723774672 ], [ 497132.65978922881186, 4288499.387902827002108 ], [ 496773.777328958269209, 4283831.508782392367721 ], [ 494268.125249775825068, 4283665.947896536439657 ], [ 487625.517040034290403, 4277348.712613469921052 ] ] ] } },
{ "type": "Feature", "properties": { "drag_region": "East", "NAME": "Bent" }, "geometry": { "type": "Polygon", "coordinates": [ [ [ 781951.771219958318397, 4178421.737824705429375 ], [ 782797.422651856555603, 4129329.769497933797538 ], [ 782503.221494111581706, 4109492.512545800767839 ], [ 811640.329713419894688, 4109943.673366180621088 ], [ 840458.26000296883285, 4110680.57484938018024 ], [ 839979.021047008456662, 4130604.286331428214908 ], [ 840608.607113994890824, 4130714.870842474512756 ], [ 839415.569871539250016, 4179811.448865588754416 ], [ 781951.771219958318397, 4178421.737824705429375 ] ] ] } }
]
}
