{
"type": "FeatureCollection",
"name": "map",
"crs": { "type": "name", "properties": { "name": "urn:ogc:def:crs:EPSG::32616" } },
"features": [
{ "type": "Feature", "properties": { "drag_region": "Southeast", "NAME": "Butler", "NAMELSAD": "Butler" }, "geometry": { "type": "Polygon", "coordinates": [ [ [ 556082.002316309371963, 3456849.058932049199939 ], [ 599833.49428754998371, 3457264.828191122040153 ], [ 599982.408350733108819, 3428032.361176079604775 ], [ 599667.707251474959776, 3422984.116035123355687 ], [ 594903.559495382243767, 3422961.221110087353736 ], [ 594969.22351114929188, 3408583.63539554644376 ], [ 575886.875934230163693, 3408323.717893962748349 ], [ 562937.507435968262143, 3408391.714493774808943 ], [ 560208.486556155490689, 3410768.374670390039682 ], [ 556452.7527346664574, 3420285.904228611849248 ], [ 556433.78903182852082, 3442280.873344961553812 ], [ 556082.002316309371963, 3456849.058932049199939 ] ] ] } },
{ "type": "Feature", "properties": { "drag_region": "Southeast", "NAME": "Coffee", "NAMELSAD": "Coffee" }, "geometry": { "type": "Polygon", "coordinates": [ [ [ 644957.496742725605145, 3387995.660704219713807 ], [ 644884.165150256711058, 3397993.432990984991193 ], [ 649648.150337934610434, 3398886.527404999826103 ], [ 649578.958778944564983, 3407741.874391620978713 ], [ 683283.786216547479853, 3408060.335848537739366 ], [ 683797.429826676379889, 3361401.946580057498068 ], [ 645499.642805585754104, 3360576.401011655107141 ], [ 644957.496742725605145, 3387995.660704219713807 ] ] ] } },
{ "type": "Feature", "properties": { "drag_region": "Northwest", "NAME": "Morgan", "NAMELSAD": "Morgan" }, "geometry": { "type": "Polygon", "coordinates": [ [ [ 468426.619844790140633, 3947856.339505839627236 ], [ 486520.229927951237187, 3936043.149198580998927 ], [ 497061.183620776981115, 3932820.107634252402931 ], [ 500682.201946204411797, 3933399.860244924668223 ], [ 503308.169863626128063, 3936455.032433330081403 ], [ 507589.38389429775998, 3935896.201308162882924 ], [ 508586.458625125233084, 3933041.613515013828874 ], [ 513186.217574602342211, 3935820.572998190764338 ], [ 517466.739205571007915, 3935647.346611267421395 ], [ 519127.224154480732977, 3932415.664081959985197 ], [ 516243.267334756441414, 3912970.145702161360532 ], [ 516273.376871547545306, 3905635.355729774106294 ], [ 467723.946661207475699, 3906610.027724836021662 ], [ 468426.619844790140633, 3947856.339505839627236 ] ] ] } },
{ "type": "Feature", "properties": { "drag_region": "Southwest", "NAME": "Baldwin", "NAMELSAD": "Baldwin" }, "geometry": { "type": "Polygon", "coordinates": [ [ [ 344181.440916325140279, 3278456.169858335983008 ], [ 342532.096066786034498, 3286088.430479866918176 ], [ 346368.305752104497515, 3292528.699664563406259 ], [ 350502.96522506600013, 3294206.914643460419029 ], [ 347103.392165314464364, 3298044.823932138737291 ], [ 346784.526234008488245, 3300808.934735454618931 ], [ 352318.89409953035647, 3306188.97320592822507 ], [ 348578.243962182663381, 3309838.985284619964659 ], [ 348617.049012491945177, 3314313.930976309347898 ], [ 351052.615504727989901, 3318673.13596002664417 ], [ 347667.718933268391993, 3323272.886431814637035 ], [ 351145.38547664595535, 3329622.613741935696453 ], [ 348081.063544901728164, 3331363.043888616375625 ], [ 351160.738343633885961, 3331431.673639338929206 ], [ 350505.069988876581192, 3334769.997305716853589 ], [ 353577.414611603075173, 3334077.600415532011539 ], [ 358048.125335153599735, 3337183.825306667014956 ], [ 361859.020785224216525, 3343819.922463813796639 ], [ 365964.622915622137953, 3344551.648932868614793 ], [ 363592.619762455986347, 3347234.943394829984754 ], [ 368025.766018052934669, 3346155.887231172528118 ], [ 372470.923498784832191, 3346792.560370967723429 ], [ 376200.213716664875392, 3342198.585361700505018 ], [ 381998.913970865949523, 3340260.292393934447318 ], [ 381846.353164558357093, 3312839.878973236307502 ], [ 383559.72453705460066, 3312830.518486935645342 ], [ 384568.631966411077883, 3309207.150420300662518 ], [ 380050.031996936013456, 3298282.82065969472751 ], [ 380724.019427255145274, 3296089.204374465625733 ], [ 388581.277234419481829, 3288526.619236179161817 ], [ 389593.022855609597173, 3284618.295623646583408 ], [ 401934.28600506199291, 3276950.293313920032233 ], [ 402942.704258528654464, 3270377.736678618937731 ], [ 397743.648657389043365, 3260686.602318043354899 ], [ 398756.380107908567879, 3255446.5780791323632 ], [ 405630.767209499084856, 3250566.975590469315648 ], [ 399414.249201935657766, 3247256.858744560275227 ], [ 396624.520956029184163, 3239461.479312498122454 ], [ 393513.221205942099914, 3238046.521397067699581 ], [ 395919.251267641142476, 3235751.610534430481493 ], [ 390730.957976933685131, 3233298.962989173829556 ], [ 377593.667803977790754, 3230034.931337281130254 ], [ 363764.723782384651713, 3227838.58190616639331 ], [ 344418.891245569917373, 3227610.809750682208687 ], [ 350668.519204718526453, 3231461.122267561033368 ], [ 354792.570973608002532, 3228952.581848036963493 ], [ 366897.700815923919436, 3231434.720719192177057 ], [ 367955.099067675007973, 3234664.539295815397054 ], [ 362810.03157131827902, 3239269.861937853042036 ], [ 360424.945546247356106, 3243381.023723054211587 ], [ 353562.610758719558362, 3247908.589386808220297 ], [ 351219.905134858039673, 3256496.520186269655824 ], [ 354376.60486352519365, 3263516.457527101039886 ], [ 353402.330238562601153, 3270760.345401090104133 ], [ 351032.084523711760994, 3275350.016597263980657 ], [ 344181.440916325140279, 3278456.169858335983008 ] ] ] } },
{ "type": "Feature", "properties": { "drag_region": "Southeast", "NAME": "Lowndes", "NAMELSAD": "Lowndes" }, "geometry": { "type": "Polygon", "coordinates": [ [ [ 566034.919347118935548, 3512891.130086935125291 ], [ 567730.569110634969547, 3509275.601192869246006 ], [ 570088.140169912483543, 3512898.895478577818722 ], [ 569738.061995533294976, 3518802.206577332224697 ], [ 575136.697356296586804, 3519767.193955373950303 ], [ 575824.326219892362133, 3515102.886821830179542 ], [ 578528.428216320462525, 3514253.474707102403045 ], [ 581214.255790430237539, 3519213.610506699886173 ], [ 584586.797238023602404, 3520082.118321265559644 ], [ 584936.657352455076762, 3516655.151978766079992 ], [ 591694.874718063045293, 3515443.740065763704479 ], [ 592719.992537423968315, 3512686.530021569691598 ], [ 596094.683816661243327, 3513368.419286837801337 ], [ 598128.243732942850329, 3511949.73725111130625 ], [ 597139.924720829934813, 3506707.363307876512408 ], [ 604599.785478304955177, 3502365.303164563607424 ], [ 604718.275802685180679, 3480844.512969985604286 ], [ 605110.190760618657805, 3471228.889414602424949 ], [ 601039.680143626756035, 3471302.49163236329332 ], [ 562375.703900278313085, 3470892.233890706673265 ], [ 562363.004771029227413, 3480414.283286898862571 ], [ 557619.082703273743391, 3480409.052807622589171 ], [ 557263.779566831886768, 3500024.576105418615043 ], [ 566733.324934201547876, 3500036.966351745650172 ], [ 562332.018320750910789, 3503553.401799811050296 ], [ 561989.945975428330712, 3506600.13687358610332 ], [ 565027.914167157723568, 3508985.204313300084323 ], [ 562996.890207685530186, 3511553.219083189032972 ], [ 566034.919347118935548, 3512891.130086935125291 ] ] ] } },
{ "type": "Feature", "properties": { "drag_region": "Northwest", "NAME": "Fayette", "NAMELSAD": "Fayette" }, "geometry": { "type": "Polygon", "coordinates": [ [ [ 364701.038906928850338, 3838263.420428737066686 ], [ 393895.313211533240974, 3837561.748720723204315 ], [ 393865.30291650025174, 3832703.926535699050874 ], [ 403489.895315624773502, 3832173.109532049391419 ], [ 403722.500998858828098, 3812740.610574405174702 ], [ 413368.038664532126859, 3812315.257448077201843 ], [ 413328.694899582653306, 3802695.37511394592002 ], [ 394019.527153410715982, 3803650.921208209358156 ], [ 393999.788943594670855, 3800412.528885384555906 ], [ 390668.254501016926952, 3800338.153552763629705 ], [ 390626.581918723182753, 3793861.397127813193947 ], [ 374630.176912761642598, 3794358.537835829891264 ], [ 364629.886224625632167, 3794349.38363976450637 ], [ 364701.038906928850338, 3838263.420428737066686 ] ] ] } },
{ "type": "Feature", "properties": { "drag_region": "Northwest", "NAME": "Winston", "NAMELSAD": "Winston" }, "geometry": { "type": "Polygon", "coordinates": [ [ [ 403225.17516149871517, 3893197.276694465894252 ], [ 412801.552282396820374, 3892856.60584868490696 ], [ 451443.374733112170361, 3892163.192998120095581 ], [ 451406.405545963789336, 3858062.559445155318826 ], [ 415607.112016576225869, 3858645.19141973182559 ], [ 403014.856266851187684, 3859381.603065010160208 ], [ 403225.17516149871517, 3893197.276694465894252 ] ] ] } },
{ "type": "Feature", "properties": { "drag_region": "Northeast", "NAME": "Chilton", "NAMELSAD": "Chilton" }, "geometry": { "type": "Polygon", "coordinates": [ [ [ 528536.071460321662016, 3685331.573333285748959 ], [ 541972.615030804299749, 3685338.040188213344663 ], [ 541607.20723322883714, 3711431.998480695765465 ], [ 546968.243383886408992, 3711058.595608319621533 ], [ 566734.842539606732316, 3711302.225719122681767 ], [ 572119.630985915195197, 3705609.275173821952194 ], [ 575471.06341195711866, 3705814.531073268037289 ], [ 575852.813953666365705, 3695721.007565459702164 ], [ 579238.614185902057216, 3689641.949346193578094 ], [ 581930.782962638768367, 3688512.751864071004093 ], [ 581287.517231977893971, 3682985.661507424432784 ], [ 589055.577318749972619, 3676266.690404479391873 ], [ 585358.574704928090796, 3675959.84517470235005 ], [ 585384.891268314910121, 3671198.175450904294848 ], [ 557127.623700756346807, 3670891.8074388243258 ], [ 557477.45962568174582, 3665940.696202093269676 ], [ 538292.593443379737437, 3666192.875371655914932 ], [ 528868.835196558386087, 3666094.723813608754426 ], [ 528870.034091587294824, 3673427.496200299356133 ], [ 528536.071460321662016, 3685331.573333285748959 ] ] ] } },
{ "type": "Feature", "properties": { "drag_region": "Northwest", "NAME": "Jefferson", "NAMELSAD": "Jefferson" }, "geometry": { "type": "Polygon", "coordinates": [ [ [ 451260.304786090739071, 3785593.282007351052016 ], [ 458935.788183700642549, 3790338.679138666018844 ], [ 457274.949498742469586, 3792913.411530650686473 ], [ 459613.332449059002101, 3796814.13885138835758 ], [ 467605.626521359197795, 3798327.575070658698678 ], [ 467608.529713056865148, 3801565.917029086500406 ], [ 470936.375828099669889, 3801468.264576446730644 ], [ 472601.631212886946741, 3804896.341859905514866 ], [ 473934.590517598146107, 3814420.599463197402656 ], [ 478919.296426165034063, 3815944.674407186917961 ], [ 480579.301840387401171, 3819088.468110527377576 ], [ 486887.198229332920164, 3822236.648671146016568 ], [ 498510.353807500563562, 3821971.04278688877821 ], [ 508833.250500955851749, 3813714.1144088357687 ], [ 518472.470964074484073, 3813656.679021335206926 ], [ 520156.696097037638538, 3808806.527922483626753 ], [ 520189.941717299167067, 3801567.73422338347882 ], [ 517877.737204768112861, 3797556.979543709661812 ], [ 517906.247913933708332, 3790985.029927781783044 ], [ 520912.245518234325573, 3789379.325945927761495 ], [ 520923.744331756606698, 3786902.956745482981205 ], [ 516926.894736727117561, 3786218.508736234623939 ], [ 512948.360988528816961, 3780583.04520669952035 ], [ 506945.279618868604302, 3780466.8199792210944 ], [ 502290.852513826219365, 3774929.00766267767176 ], [ 499287.652694292250089, 3774826.132059693802148 ], [ 496963.268804153543897, 3769392.061694904696196 ], [ 491955.792991683119908, 3768715.93944527907297 ], [ 491960.898078127240296, 3765572.989320654422045 ], [ 487284.411048341484275, 3765566.52303006965667 ], [ 478935.555659610079601, 3758417.578646613750607 ], [ 477933.138285508204717, 3756036.364400049671531 ], [ 473586.434415531926788, 3756036.563178496900946 ], [ 470242.873966117098462, 3756133.275929350405931 ], [ 470244.799499558168463, 3759276.178285290952772 ], [ 461225.311964568390977, 3762714.53879216266796 ], [ 457894.764488602231722, 3768434.711679216474295 ], [ 454557.309848715667613, 3769298.765801812987775 ], [ 454564.545829253387637, 3772536.979551292024553 ], [ 449905.128411296755075, 3777596.396041651722044 ], [ 444906.343666085333098, 3779325.684079901315272 ], [ 445586.163937506033108, 3783323.76511771325022 ], [ 449585.426206427742727, 3782645.18946772441268 ], [ 451260.304786090739071, 3785593.282007351052016 ] ] ] } },
{ "type": "Feature", "properties": { "drag_region": "Northeast", "NAME": "Clay", "NAMELSAD": "Clay" }, "geometry": { "type": "Polygon", "coordinates": [ [ [ 662042.946839822456241, 3777531.817855287808925 ], [ 660402.814235453843139, 3775036.998523937538266 ], [ 668415.989665791159496, 3774365.491716163698584 ], [ 670045.155813659890555, 3777623.734812322538346 ], [ 681386.777685217792168, 3777384.310614134185016 ], [ 680965.884391022380441, 3758420.421616660896689 ], [ 680943.315292178071104, 3734222.768895403016359 ], [ 650801.147379399044439, 3733786.943582419771701 ], [ 647803.080432547139935, 3732043.624656352214515 ], [ 647787.782672126893885, 3733662.751019325572997 ], [ 632381.568960090633482, 3733529.289245465770364 ], [ 632301.961748773464933, 3743624.914560651406646 ], [ 637321.307643247419037, 3743570.583792760502547 ], [ 637560.857603754498996, 3754812.165817625820637 ], [ 650261.957935107755475, 3754737.491075752768666 ], [ 650500.764714287477545, 3764455.925194189418107 ], [ 655492.988509695976973, 3766030.420367901213467 ], [ 655425.891828155145049, 3772507.327165568713099 ], [ 657093.850683704251423, 3772524.763571824412793 ], [ 657041.614951618015766, 3777477.743690256029367 ], [ 662042.946839822456241, 3777531.817855287808925 ] ] ] } },
{ "type": "Feature", "properties": { "drag_region": "Southeast", "NAME": "Chambers", "NAMELSAD": "Chambers" }, "geometry": { "type": "Polygon", "coordinates": [ [ [ 718412.030934282229282, 3629128.305001115892082 ], [ 751904.745412924326956, 3629730.454610716085881 ], [ 756713.942761455895379, 3603419.189134476240724 ], [ 759789.950977244996466, 3600423.467374927829951 ], [ 758505.531899629160762, 3596970.967006600927562 ], [ 762950.690649936906993, 3592761.211059332825243 ], [ 762320.323480454972014, 3590367.974380282219499 ], [ 747870.133170638466254, 3589456.262243867851794 ], [ 746887.251431727199815, 3587820.72596835764125 ], [ 718972.923826550948434, 3587124.799293960444629 ], [ 718412.030934282229282, 3629128.305001115892082 ] ] ] } },
{ "type": "Feature", "properties": { "drag_region": "Northeast", "NAME": "St. Clair", "NAMELSAD": "St. Clair" }, "geometry": { "type": "Polygon", "coordinates": [ [ [ 606918.71530062914826, 3840771.659780962858349 ], [ 611192.635415597353131, 3846230.452085540629923 ], [ 613532.67720682057552, 3843579.987000799272209 ], [ 618486.72014676220715, 3846189.393373882398009 ], [ 621491.310434827930294, 3843641.318104100879282 ], [ 621526.125783491763286, 3839354.896085939835757 ], [ 623873.938069996191189, 3836325.919631154276431 ], [ 626524.775718890014105, 3836824.74649544339627 ], [ 628225.149256319971755, 3832171.79954786831513 ], [ 630900.311982979532331, 3830099.977180398069322 ], [ 632975.040548616903834, 3821259.756733546499163 ], [ 623716.82233694428578, 3815272.487135723698884 ], [ 623744.418244405300356, 3811938.729600314050913 ], [ 618079.443792052101344, 3813036.592214545235038 ], [ 621100.190907054580748, 3809726.335032630246133 ], [ 620159.614501154283062, 3802384.248646115418524 ], [ 616833.447778613306582, 3801787.112517082132399 ], [ 619536.61021352908574, 3796854.649788006208837 ], [ 615577.792903889669105, 3791395.245362280867994 ], [ 611230.749191403388977, 3793173.95035042334348 ], [ 608606.878808296984062, 3786679.157965403515846 ], [ 602309.772803203668445, 3779781.598239899147302 ], [ 602235.738597777672112, 3792163.383651226758957 ], [ 592567.421157292905264, 3792110.336823475547135 ], [ 592543.19142479787115, 3796967.8323103194125 ], [ 589210.984768703696318, 3796951.778118313290179 ], [ 586204.987164403079078, 3798557.482100167311728 ], [ 586176.476455237483606, 3805129.431716095190495 ], [ 588488.680967768537812, 3809140.186395769007504 ], [ 588455.435347507009283, 3816378.980094869155437 ], [ 586771.210214543854818, 3821229.13119372073561 ], [ 583447.447900489787571, 3821214.992928175255656 ], [ 583762.964386991690844, 3825312.039749352727085 ], [ 599356.610470591811463, 3829103.887603959999979 ], [ 605298.620742797618732, 3834760.020343599375337 ], [ 606918.71530062914826, 3840771.659780962858349 ] ] ] } },
{ "type": "Feature", "properties": { "drag_region": "Northwest", "NAME": "Lauderdale", "NAMELSAD": "Lauderdale" }, "geometry": { "type": "Polygon", "coordinates": [ [ [ 363487.490026814222801, 4002718.344495182856917 ], [ 398203.16052614687942, 4002251.028486627154052 ], [ 432918.796742006728891, 4001630.185252835974097 ], [ 434228.7189725334174, 4001532.054949829820544 ], [ 433857.661627638386562, 3981241.25887183053419 ], [ 427935.957891644793563, 3976587.88756068283692 ], [ 429573.642083549697418, 3974868.731326826382428 ], [ 426286.201663171814289, 3974020.495137130375952 ], [ 422032.709771432739217, 3979083.083960577379912 ], [ 414482.869786896684673, 3979588.38184557761997 ], [ 405636.447419253876433, 3983155.127834491897374 ], [ 400048.696275236899965, 3981756.957555348519236 ], [ 397408.699555769970175, 3979486.26008927077055 ], [ 388851.838727573805954, 3976684.398624305613339 ], [ 386530.562311401881743, 3973652.361812102608383 ], [ 379618.766580484400038, 3972180.911857386119664 ], [ 376998.625038747384679, 3973250.308679546695203 ], [ 369177.622004891221877, 3980369.013410749845207 ], [ 366616.971373307111207, 3987348.110667569097131 ], [ 358460.645507901965175, 3991812.007199160289019 ], [ 353196.182527968601789, 3990248.425155198201537 ], [ 347986.987094523909036, 3993641.960108298808336 ], [ 343822.126284556055907, 4001790.364038206171244 ], [ 343839.323297762486618, 4003219.469721119385213 ], [ 363487.490026814222801, 4002718.344495182856917 ] ] ] } },
{ "type": "Feature", "properties": { "drag_region": "Northeast", "NAME": "DeKalb", "NAMELSAD": "DeKalb" }, "geometry": { "type": "Polygon", "coordinates": [ [ [ 642968.297728673554957, 3923086.472568736411631 ], [ 647907.937022908590734, 3923610.075103702023625 ], [ 667821.804440203821287, 3939834.364231747575104 ], [ 676203.852824704954401, 3953279.162735634017736 ], [ 679145.786255828803405, 3954461.353863305412233 ], [ 681985.440939024323598, 3963075.794082847423851 ], [ 686207.953850846271962, 3966279.197742356918752 ], [ 690856.7675988052506, 3940045.098270333837718 ], [ 692993.885316610336304, 3929022.5312884375453 ], [ 687126.68585484335199, 3924459.551053708884865 ], [ 687194.932291615987197, 3919600.849597899708897 ], [ 682027.410512981237844, 3911430.581166746094823 ], [ 678430.258865347364917, 3908810.294927025679499 ], [ 666349.756499575218186, 3897132.062633078079671 ], [ 663037.702690400416031, 3897665.508671925868839 ], [ 663093.936663848813623, 3892711.911930871196091 ], [ 638951.661930803675205, 3892564.308019960299134 ], [ 638400.543943743221462, 3917710.039053061511368 ], [ 642968.297728673554957, 3923086.472568736411631 ] ] ] } },
{ "type": "Feature", "properties": { "drag_region": "Southwest", "NAME": "Greene", "NAMELSAD": "Greene" }, "geometry": { "type": "Polygon", "coordinates": [ [ [ 324773.481677930394653, 3608894.482125270646065 ], [ 327172.872447742673103, 3613630.762197462841868 ], [ 336886.361902381468099, 3612862.687768838368356 ], [ 338595.828057511767838, 3616274.910712970886379 ], [ 343972.004708849592134, 3617843.113237276207656 ], [ 347356.91734978108434, 3621717.69880955806002 ], [ 356099.750055421201978, 3626120.499283576384187 ], [ 356649.144179718452506, 3610971.866107910405844 ], [ 368048.115572998183779, 3610983.513777069747448 ], [ 367369.191135276632849, 3609749.961785671301186 ], [ 365303.357895382447168, 3602049.587401336524636 ], [ 361940.191336833464447, 3601026.067082903813571 ], [ 363266.037560841359664, 3598730.588980327825993 ], [ 359230.126866316655651, 3597712.836344906128943 ], [ 356494.997372602345422, 3591447.974427411798388 ], [ 357462.77483642892912, 3586297.305015332996845 ], [ 352728.530777124513406, 3582811.201766309794039 ], [ 358771.537678844470065, 3581620.397235208656639 ], [ 356383.421088669740129, 3577257.776616883929819 ], [ 359749.494872855080757, 3577517.646605284418911 ], [ 360371.971389986225404, 3570750.971435648854822 ], [ 364745.907482426555362, 3570433.714457210619003 ], [ 363721.868573481915519, 3568440.922904274892062 ], [ 357998.170355581969488, 3568483.142333713360131 ], [ 359325.574609929870348, 3565901.60527902841568 ], [ 364041.763184087700211, 3566057.713340471964329 ], [ 365370.396229091391433, 3563381.79126028995961 ], [ 360312.583879963494837, 3562751.362473500426859 ], [ 357905.621739209687803, 3556388.53795051202178 ], [ 354204.410993528843392, 3557274.651985030155629 ], [ 350215.722119791258592, 3563974.241603964474052 ], [ 353582.639974136545788, 3563755.942579797934741 ], [ 353946.366399184043985, 3567086.410036418121308 ], [ 349563.078453243419062, 3566456.039126153569669 ], [ 347222.383329551666975, 3568381.064033604227006 ], [ 342823.412903975637164, 3566039.412826306652278 ], [ 335394.327312901208643, 3564110.209064889233559 ], [ 333066.334893322025891, 3567086.204275741707534 ], [ 335113.421677345293574, 3569732.507361704483628 ], [ 335508.761819210136309, 3575633.864699725527316 ], [ 333138.969490460527595, 3574228.998162209056318 ], [ 329793.864482941164169, 3576168.584068918600678 ], [ 332495.225894065981265, 3577093.01113689923659 ], [ 330548.480415583180729, 3583971.114821540657431 ], [ 333578.015941342979204, 3584320.843438163865358 ], [ 333947.984992357785814, 3587650.802140644285828 ], [ 330916.493844859185629, 3587015.264886552002281 ], [ 328268.688025979266968, 3590853.334691121708602 ], [ 324231.927415963669773, 3590421.203638771083206 ], [ 326276.917510743194725, 3593065.711446330416948 ], [ 323949.175360367342364, 3595187.027388444636017 ], [ 321330.374688818585128, 3601122.478418339509517 ], [ 324359.371045892767143, 3601850.234736206009984 ], [ 324773.481677930394653, 3608894.482125270646065 ] ] ] } },
{ "type": "Feature", "properties": { "drag_region": "Northeast", "NAME": "Cherokee", "NAMELSAD": "Cherokee" }, "geometry": { "type": "Polygon", "coordinates": [ [ [ 697660.427695418940857, 3919469.898937782272696 ], [ 706990.433936551446095, 3870441.113183225505054 ], [ 709180.290227978257462, 3857515.96778620313853 ], [ 700236.905921304598451, 3856618.239131410606205 ], [ 696944.722630252945237, 3854855.446383139118552 ], [ 697253.211857137037441, 3856479.654349265154451 ], [ 677667.103919113753363, 3857647.838480606209487 ], [ 677970.524987897486426, 3859938.143878419883549 ], [ 672189.986720617860556, 3872158.766274972353131 ], [ 672819.45938030607067, 3874929.141354833263904 ], [ 668203.810946590965614, 3873255.943338599987328 ], [ 667760.479042657418177, 3883159.279580215923488 ], [ 667704.245069209020585, 3888112.876321270596236 ], [ 671016.298878383822739, 3887579.430282422807068 ], [ 683096.801244155969471, 3899257.662576370406896 ], [ 686693.952891789842397, 3901877.94881609082222 ], [ 691861.47467042459175, 3910048.217247244436294 ], [ 691793.228233651840128, 3914906.918703053612262 ], [ 697660.427695418940857, 3919469.898937782272696 ] ] ] } },
{ "type": "Feature", "properties": { "drag_region": "Northwest", "NAME": "Colbert", "NAMELSAD": "Colbert" }, "geometry": { "type": "Polygon", "coordinates": [ [ [ 348817.430384866311215, 3981144.791590116918087 ], [ 354081.8933647996746, 3982708.373634079005569 ], [ 362238.219230204820633, 3978244.477102487813681 ], [ 364798.869861788931303, 3971265.379845668561757 ], [ 372619.872895645094104, 3964146.675114465411752 ], [ 375240.014437382109463, 3963077.278292304836214 ], [ 382151.810168299591169, 3964548.728247021324933 ], [ 384473.08658447151538, 3967580.765059224329889 ], [ 393029.9474126676796, 3970382.6265241894871 ], [ 395669.94413213460939, 3972653.323990267235786 ], [ 401257.695276151585858, 3974051.494269410613924 ], [ 410104.117643794394098, 3970484.74828049633652 ], [ 411074.108007468399592, 3966860.586317121051252 ], [ 410061.264306924655102, 3960386.813238373957574 ], [ 407754.047393840388395, 3958967.910782524384558 ], [ 408394.282613512768876, 3955059.224224808625877 ], [ 403441.81687091931235, 3951176.559066347312182 ], [ 400446.101232331362553, 3944618.617776998318732 ], [ 344490.362030020041857, 3946701.398747800849378 ], [ 348817.430384866311215, 3981144.791590116918087 ] ] ] } },
{ "type": "Feature", "properties": { "drag_region": "Southeast", "NAME": "Montgomery", "NAMELSAD": "Montgomery" }, "geometry": { "type": "Polygon", "coordinates": [ [ [ 618402.767116756178439, 3521730.820443287491798 ], [ 619404.633321763714775, 3523641.029572980478406 ], [ 624462.402926565147936, 3524337.33664447395131 ], [ 627852.124985715025105, 3521977.816510002594441 ], [ 626479.788868460222147, 3525492.689292369410396 ], [ 632170.868692621937953, 3532006.2934634773992 ], [ 636913.190289184451103, 3529087.83241813397035 ], [ 638969.327853190246969, 3524817.551868367474526 ], [ 645045.371956126298755, 3524579.649453832767904 ], [ 652833.754174379981123, 3521598.628832728601992 ], [ 654845.099118471494876, 3523140.651529412250966 ], [ 657970.594346278696321, 3513836.109896400012076 ], [ 664794.995180897065438, 3507140.54645462334156 ], [ 658374.981163553195074, 3506792.182634375523776 ], [ 657383.072615520213731, 3504401.897491849493235 ], [ 657588.704884131555445, 3482308.787330644205213 ], [ 658014.394295597448945, 3472979.701906563248485 ], [ 639360.901920636650175, 3472728.140253575518727 ], [ 628848.026184654561803, 3472464.57738561462611 ], [ 628786.63116973801516, 3481986.928412980865687 ], [ 618959.945711312349886, 3481928.232659304048866 ], [ 618841.455386932124384, 3503449.022853882052004 ], [ 611381.59462945710402, 3507791.082997194956988 ], [ 612369.913641570019536, 3513033.45694042975083 ], [ 610336.353725288412534, 3514452.138976156245917 ], [ 613695.259920443524607, 3518182.446971429511905 ], [ 614016.953596087172627, 3521326.678559119813144 ], [ 618402.767116756178439, 3521730.820443287491798 ] ] ] } },
{ "type": "Feature", "properties": { "drag_region": "Northeast", "NAME": "Etowah", "NAMELSAD": "Etowah" }, "geometry": { "type": "Polygon", "coordinates": [ [ [ 614269.324316655285656, 3866277.479381323326379 ], [ 624790.648168732528575, 3875595.576628605369478 ], [ 632394.914636831264943, 3876040.251163438893855 ], [ 632380.707896449835971, 3877659.63972972612828 ], [ 656522.98262949497439, 3877807.243640637025237 ], [ 656966.314533428521827, 3867903.907399021089077 ], [ 661581.962967143626884, 3869577.105415254365653 ], [ 660952.490307455416769, 3866806.73033539345488 ], [ 666733.028574735042639, 3854586.107938840985298 ], [ 666429.607505951309577, 3852295.802541027311236 ], [ 666475.260104175540619, 3848580.707997796591371 ], [ 656496.23054837831296, 3850845.119591450784355 ], [ 651537.727352979243733, 3849266.402799857314676 ], [ 651581.578025341383182, 3845170.380721833091229 ], [ 645266.877596603590064, 3846057.559395373798907 ], [ 642998.251560158794746, 3840509.753153264522552 ], [ 636380.63007709174417, 3837970.535186873283237 ], [ 633705.467350432183594, 3840042.357554343529046 ], [ 632005.093813002225943, 3844695.304501918610185 ], [ 629354.256164108403027, 3844196.477637629490346 ], [ 627006.443877603975125, 3847225.454092415049672 ], [ 626971.628528940142132, 3851511.876110576093197 ], [ 623967.038240874418989, 3854059.951380357611924 ], [ 619012.995300932787359, 3851450.545007274486125 ], [ 616672.953509709564969, 3854101.010092015843838 ], [ 612399.033394741360098, 3848642.217787438072264 ], [ 608087.483709401334636, 3848519.564509792719036 ], [ 611702.733455132227391, 3853686.268757685087621 ], [ 611663.582473911810666, 3859687.238163992296904 ], [ 614269.324316655285656, 3866277.479381323326379 ] ] ] } },
{ "type": "Feature", "properties": { "drag_region": "Northwest", "NAME": "Franklin", "NAMELSAD": "Franklin" }, "geometry": { "type": "Polygon", "coordinates": [ [ [ 340807.032278450438753, 3906846.360690256115049 ], [ 344104.321828829648439, 3935677.725546562112868 ], [ 400060.061031140969135, 3933594.944575759582222 ], [ 399907.904486556421034, 3904540.918934735935181 ], [ 365235.64286609669216, 3905643.563784966245294 ], [ 340807.032278450438753, 3906846.360690256115049 ] ] ] } },
{ "type": "Feature", "properties": { "drag_region": "Southeast", "NAME": "Elmore", "NAMELSAD": "Elmore" }, "geometry": { "type": "Polygon", "coordinates": [ [ [ 621870.629770476021804, 3574068.471555679570884 ], [ 656165.444253749679774, 3574520.699908767826855 ], [ 668271.249173835618421, 3574546.165739627555013 ], [ 665332.017049205256626, 3566038.395176489371806 ], [ 667722.733776699984446, 3562729.507819302380085 ], [ 667100.985537975793704, 3557770.136575629934669 ], [ 667902.069616721244529, 3545586.935158098116517 ], [ 669273.133925201487727, 3543505.927905693650246 ], [ 667279.932336625643075, 3540532.464333864860237 ], [ 659850.803217056440189, 3541124.952693503350019 ], [ 653150.235629131435417, 3535824.521148389670998 ], [ 645361.853410877753049, 3538805.54176949383691 ], [ 639285.809307941701263, 3539043.444184028543532 ], [ 637229.671743935905397, 3543313.724733795039356 ], [ 632487.350147373392247, 3546232.185779138468206 ], [ 626796.270323211676441, 3539718.581608030479401 ], [ 628168.606440466479398, 3536203.708825663663447 ], [ 624778.88438131660223, 3538563.228960135020316 ], [ 619721.114776515169069, 3537866.921888641547412 ], [ 618719.248571507632732, 3535956.712758948560804 ], [ 618173.627156654139981, 3573761.626325902529061 ], [ 621870.629770476021804, 3574068.471555679570884 ] ] ] } },
{ "type": "Feature", "properties": { "drag_region": "Southwest", "NAME": "Perry", "NAMELSAD": "Perry" }, "geometry": { "type": "Polygon", "coordinates": [ [ [ 413898.479743170377333, 3586001.188585137948394 ], [ 423636.213946104748175, 3586062.20823187334463 ], [ 423621.551314161159098, 3581205.283760075923055 ], [ 451504.159683672478423, 3581731.857635865919292 ], [ 451838.122314938053023, 3569827.780502879526466 ], [ 448805.65356678806711, 3557829.693727708887309 ], [ 449478.148874493315816, 3555448.664048796053976 ], [ 445770.815798742172774, 3552213.039780069608241 ], [ 445767.957502364122774, 3548499.121101493015885 ], [ 442728.898922395484988, 3543169.140602113679051 ], [ 413725.40455612243386, 3542575.564055296592414 ], [ 413648.953390566341113, 3523244.409491411875933 ], [ 404187.465537242766004, 3523190.944835527334362 ], [ 404376.686778525647242, 3561758.789195985533297 ], [ 409089.507748599455226, 3561831.905759650748223 ], [ 409175.864762504119426, 3581164.181547474581748 ], [ 413879.030544172914233, 3581144.241088128648698 ], [ 413898.479743170377333, 3586001.188585137948394 ] ] ] } },
{ "type": "Feature", "properties": { "drag_region": "Northeast", "NAME": "Calhoun", "NAMELSAD": "Calhoun" }, "geometry": { "type": "Polygon", "coordinates": [ [ [ 640911.889873694744892, 3831412.963189165573567 ], [ 647529.511356761795469, 3833952.181155556812882 ], [ 649798.137393206590787, 3839499.987397666089237 ], [ 656112.837821944383904, 3838612.808724125381559 ], [ 656068.987149582244456, 3842708.830802149605006 ], [ 661027.490344981313683, 3844287.547593743074685 ], [ 671006.519900778541341, 3842023.136000088881701 ], [ 670960.867302554310299, 3845738.230543319601566 ], [ 690546.975240577594377, 3844570.04641197854653 ], [ 690238.486013693502173, 3842945.838445852510631 ], [ 690321.612289830343798, 3837134.891516376752406 ], [ 683681.642383188940585, 3837137.569378662854433 ], [ 680715.799240760272369, 3835478.012853350490332 ], [ 680757.520889426930808, 3832334.465625475626439 ], [ 685408.15392467554193, 3832302.026067116763443 ], [ 685474.944194700219668, 3827443.804606778081506 ], [ 680533.72574612905737, 3824137.859717099927366 ], [ 680715.845803159521893, 3810325.629660528618842 ], [ 679082.477678751340136, 3807922.479985533282161 ], [ 671127.810082506621256, 3804869.199559562373906 ], [ 671187.913386782049201, 3799916.029042167589068 ], [ 666188.664814409217797, 3799951.966485923156142 ], [ 666484.150295552914031, 3803194.424189302138984 ], [ 647830.281200058991089, 3803090.448067224118859 ], [ 645150.362887111143209, 3804684.192671421449631 ], [ 644769.848018891760148, 3809729.325845427811146 ], [ 642745.572758831665851, 3812663.506288741715252 ], [ 633755.996135120512918, 3813251.715609081555158 ], [ 633728.400227659498341, 3816585.473144491203129 ], [ 642986.618439332116395, 3822572.742742314003408 ], [ 640911.889873694744892, 3831412.963189165573567 ] ] ] } },
{ "type": "Feature", "properties": { "drag_region": "Southwest", "NAME": "Dallas", "NAMELSAD": "Dallas" }, "geometry": { "type": "Polygon", "coordinates": [ [ [ 413410.354160282120574, 3511517.018219100311399 ], [ 418141.278530697862152, 3511592.472377295605838 ], [ 418217.729696253954899, 3530923.626941180322319 ], [ 447221.224062527006026, 3531517.203487997408956 ], [ 450260.282642495643813, 3536847.18398737674579 ], [ 450263.140938873693813, 3540561.102665953338146 ], [ 453970.474014624836855, 3543796.726934679783881 ], [ 453297.978706919588149, 3546177.756613592617214 ], [ 456330.447455069574062, 3558175.843388763256371 ], [ 456329.248560040723532, 3550843.071002072654665 ], [ 465753.006806862016674, 3550941.222560119815171 ], [ 467445.963243670412339, 3540276.962126842234284 ], [ 466775.14210038719466, 3536848.11238448228687 ], [ 471169.191164084535558, 3527330.149128786288202 ], [ 474547.500280873500742, 3524478.345262050628662 ], [ 472526.773497009126004, 3521713.632231002673507 ], [ 475232.714053146133665, 3518480.213272547349334 ], [ 475238.431622253730893, 3515147.308129178360105 ], [ 472200.402482820325531, 3513809.397125432267785 ], [ 474231.426442292518914, 3511241.382355543319136 ], [ 471193.458250563126057, 3508856.314915829338133 ], [ 471535.530595885764342, 3505809.579842054285109 ], [ 475936.837209336343221, 3502293.144393988884985 ], [ 466467.291841966682114, 3502280.754147661849856 ], [ 466822.594978408596944, 3482665.230849865823984 ], [ 441069.728470879956149, 3482580.138096520211548 ], [ 440060.692024557327386, 3486866.840769068803638 ], [ 435999.835529371222947, 3488588.794622557703406 ], [ 433302.829957594512962, 3493641.799751287791878 ], [ 431609.646915007615462, 3493360.380615312140435 ], [ 427227.633118971716613, 3499467.056290885899216 ], [ 423505.733394714829046, 3499288.574532331433147 ], [ 421154.576193093555048, 3503962.903140703216195 ], [ 416095.769159987743478, 3507220.284530538134277 ], [ 413389.77006291836733, 3506850.94399169459939 ], [ 413410.354160282120574, 3511517.018219100311399 ] ] ] } },
{ "type": "Feature", "properties": { "drag_region": "Southwest", "NAME": "Conecuh", "NAMELSAD": "Conecuh" }, "geometry": { "type": "Polygon", "coordinates": [ [ [ 469260.38034374313429, 3421562.781235551461577 ], [ 469271.942891870625317, 3408137.362121577374637 ], [ 473027.676713359600399, 3398619.832563355565071 ], [ 475756.697593172371853, 3396243.172386740334332 ], [ 488706.066091434273403, 3396175.175786928273737 ], [ 488732.489300978311803, 3386463.439514237456024 ], [ 491120.104372805508319, 3386470.200546414125711 ], [ 492165.954216922691558, 3379046.721104374621063 ], [ 488759.878373149724212, 3376370.991354807280004 ], [ 488805.709881385031622, 3359423.616917720530182 ], [ 482652.707259512913879, 3358266.302235007751733 ], [ 482634.171311904268805, 3367025.533673155587167 ], [ 419757.384381206938997, 3366985.169007588177919 ], [ 422848.902802984172013, 3371448.635536265093833 ], [ 426270.886658386676572, 3373341.197848049458116 ], [ 432101.610335632343777, 3382559.428302668500692 ], [ 438596.997984999208711, 3388447.059691668022424 ], [ 440644.026125097181648, 3388919.05307000130415 ], [ 444405.44586192566203, 3395672.746340515092015 ], [ 447489.282605128071737, 3409188.900482045020908 ], [ 454978.846762727946043, 3413181.336811909452081 ], [ 455661.301128802006133, 3417656.146185053978115 ], [ 461442.339849528041668, 3417655.131068218033761 ], [ 469260.38034374313429, 3421562.781235551461577 ] ] ] } },
{ "type": "Feature", "properties": { "drag_region": "Southwest", "NAME": "Choctaw", "NAMELSAD": "Choctaw" }, "geometry": { "type": "Polygon", "coordinates": [ [ [ 288043.802807921543717, 3456232.733236064203084 ], [ 293740.786811080062762, 3502067.843439942691475 ], [ 340038.278073344030418, 3501846.075431901030242 ], [ 331563.627277854480781, 3499065.89351460756734 ], [ 332473.948225821368396, 3488009.60672859242186 ], [ 329723.891906974953599, 3483559.547230586409569 ], [ 328979.519858250860125, 3476614.377148041967303 ], [ 326585.625924348598346, 3474352.114553770516068 ], [ 321832.162079224013723, 3473447.914206091780216 ], [ 322129.706555417506024, 3469444.798083908390254 ], [ 326168.323983000474982, 3466451.549422991462052 ], [ 326472.597882194444537, 3462924.783880535978824 ], [ 321374.606936661875807, 3462024.026879770681262 ], [ 324735.463782547158189, 3458846.915349472314119 ], [ 320643.47710800904315, 3456984.033348148688674 ], [ 319578.175468115950935, 3452519.031865652650595 ], [ 315791.283671813551337, 3447797.629017098806798 ], [ 319108.277669396367855, 3440143.238027142360806 ], [ 322857.559067570022307, 3441056.850252421572804 ], [ 324488.806840249570087, 3434183.610699087847024 ], [ 288769.850145433098078, 3434506.228525747545063 ], [ 288043.802807921543717, 3456232.733236064203084 ] ] ] } },
{ "type": "Feature", "properties": { "drag_region": "Southwest", "NAME": "Sumter", "NAMELSAD": "Sumter" }, "geometry": { "type": "Polygon", "coordinates": [ [ [ 297244.390277045895346, 3552398.90328723937273 ], [ 299507.565345971030183, 3571135.340641993563622 ], [ 301446.850035029754508, 3591305.493152487557381 ], [ 302205.444359472312499, 3598154.605263811070472 ], [ 317972.82325151108671, 3598442.433549807406962 ], [ 317558.712619473459199, 3591398.18616074277088 ], [ 314529.716262399277184, 3590670.429842876270413 ], [ 317148.516933948034421, 3584734.978812981396914 ], [ 319476.259084323886782, 3582613.662870867177844 ], [ 317431.26898954436183, 3579969.155063307844102 ], [ 321468.029599559959024, 3580401.286115658469498 ], [ 324115.835418439877685, 3576563.216311088763177 ], [ 327147.32656593847787, 3577198.753565181046724 ], [ 326777.35751492367126, 3573868.794862700626254 ], [ 323747.821989163872786, 3573519.066246077418327 ], [ 325694.567467646673322, 3566640.962561435997486 ], [ 322993.206056521856226, 3565716.535493455361575 ], [ 326338.311064041219652, 3563776.949586745817214 ], [ 328708.103392790828366, 3565181.816124262288213 ], [ 328312.763250925985631, 3559280.458786241244525 ], [ 326265.676466902717948, 3556634.15570027846843 ], [ 328593.668886481900699, 3553658.160489425994456 ], [ 336022.754477556329221, 3555587.364250843413174 ], [ 340421.724903132359032, 3557929.015458140987903 ], [ 342762.420026824111119, 3556003.990550690330565 ], [ 347145.707972764736041, 3556634.361460954882205 ], [ 346781.981547717237845, 3553303.894004334695637 ], [ 343415.063693371950649, 3553522.193028501234949 ], [ 347403.752567109535448, 3546822.603409566916525 ], [ 347388.494295093521941, 3544917.949652518611401 ], [ 341659.648338090744801, 3545251.193108565639704 ], [ 337906.936658343824092, 3540331.570659260265529 ], [ 330444.015638021810446, 3536019.918590859510005 ], [ 329032.643999290186912, 3529747.671099555678666 ], [ 336090.552272530563641, 3526061.943648119457066 ], [ 340111.642686116043478, 3522311.969093209132552 ], [ 293814.151423852075823, 3522533.737101250793785 ], [ 297244.390277045895346, 3552398.90328723937273 ] ] ] } },
{ "type": "Feature", "properties": { "drag_region": "Northeast", "NAME": "Randolph", "NAMELSAD": "Randolph" }, "geometry": { "type": "Polygon", "coordinates": [ [ [ 692933.37318132026121, 3777168.295166531577706 ], [ 719949.312650836422108, 3777178.299497806932777 ], [ 724301.648403259110637, 3776200.253675143700093 ], [ 731675.213545365841128, 3734778.914013174828142 ], [ 698182.499066723743454, 3734176.764403574634343 ], [ 692489.910788280540146, 3734006.753447800409049 ], [ 692512.479887124849483, 3758204.406169058289379 ], [ 692933.37318132026121, 3777168.295166531577706 ] ] ] } },
{ "type": "Feature", "properties": { "drag_region": "Northwest", "NAME": "Limestone", "NAMELSAD": "Limestone" }, "geometry": { "type": "Polygon", "coordinates": [ [ [ 455852.859084891038947, 3997749.47147561609745 ], [ 489917.602314122952521, 3996978.978041743393987 ], [ 494831.02491789823398, 3996988.274714212398976 ], [ 494876.425162400235422, 3975934.693675449583679 ], [ 494277.659191775601357, 3948021.655691365711391 ], [ 483736.705498949857429, 3951244.697255694307387 ], [ 465643.095415788819082, 3963057.887562952935696 ], [ 462361.152283379808068, 3967253.377627742942423 ], [ 454812.435395672684535, 3971649.036244782619178 ], [ 451197.782195907318965, 3971086.147852612659335 ], [ 449560.098004002473317, 3972805.304086469113827 ], [ 455481.801739996066317, 3977458.675397616811097 ], [ 455852.859084891038947, 3997749.47147561609745 ] ] ] } },
{ "type": "Feature", "properties": { "drag_region": "Northeast", "NAME": "Marshall", "NAMELSAD": "Marshall" }, "geometry": { "type": "Polygon", "coordinates": [ [ [ 584797.017577543272637, 3926592.130638478323817 ], [ 586466.56554206344299, 3921646.072015399578959 ], [ 592412.722193076624535, 3918817.564369262661785 ], [ 596365.336321553797461, 3919315.488468395080417 ], [ 599305.949331270763651, 3923619.536538103595376 ], [ 604253.817335323430598, 3922697.918562448583543 ], [ 607495.368401546147652, 3930436.250665273983032 ], [ 605176.358683457714505, 3932611.662432862911373 ], [ 621632.742028397973627, 3932735.870642130728811 ], [ 621705.811393357114866, 3924066.906717549543828 ], [ 626317.110202826326713, 3924202.152948925737292 ], [ 627361.260575137799606, 3918018.931099716108292 ], [ 629988.776406917953864, 3919090.962051421403885 ], [ 625421.022621987620369, 3913714.528535746503621 ], [ 625986.347349429503083, 3886949.408936358056962 ], [ 618382.080881330766715, 3886504.734401524532586 ], [ 607860.757029253523797, 3877186.637154242489487 ], [ 597860.570767273427919, 3888840.508256519213319 ], [ 593860.339155805180781, 3894819.535829577594995 ], [ 591522.244036860880442, 3899665.497171822469682 ], [ 581943.170294610084966, 3899811.822286292444915 ], [ 581913.060757818981074, 3907146.612258679699153 ], [ 584797.017577543272637, 3926592.130638478323817 ] ] ] } },
{ "type": "Feature", "properties": { "drag_region": "Southeast", "NAME": "Bullock", "NAMELSAD": "Bullock" }, "geometry": { "type": "Polygon", "coordinates": [ [ [ 676589.817194455186836, 3503267.210740486625582 ], [ 680289.355656157829799, 3505114.776995216496289 ], [ 682387.161152212764136, 3498565.131722907535732 ], [ 722292.187417123117484, 3499353.873367408290505 ], [ 723110.713271733373404, 3489649.400671232491732 ], [ 724803.428886559442617, 3489674.270866045262665 ], [ 723123.234005079022609, 3488792.257574977353215 ], [ 723323.197958190925419, 3475078.099790025968105 ], [ 715189.223199052968994, 3474772.441555013414472 ], [ 715210.182084515108727, 3473248.688924654852599 ], [ 707759.18604096386116, 3472482.197630640584975 ], [ 706788.632158221094869, 3468850.170251251198351 ], [ 702447.71775405027438, 3463270.799435301218182 ], [ 701811.394808587036096, 3459834.071727235801518 ], [ 689249.724391176598147, 3459686.226036516483873 ], [ 689142.282882867497392, 3469304.31230992404744 ], [ 680323.617599239805713, 3469209.485158727504313 ], [ 679215.456893845461309, 3478055.258469080552459 ], [ 669383.526897689676844, 3478435.451616507489234 ], [ 669177.894629078335129, 3500528.561777712777257 ], [ 670169.803177111316472, 3502918.846920238807797 ], [ 676589.817194455186836, 3503267.210740486625582 ] ] ] } },
{ "type": "Feature", "properties": { "drag_region": "Southeast", "NAME": "Russell", "NAMELSAD": "Russell" }, "geometry": { "type": "Polygon", "coordinates": [ [ [ 739187.662593670887873, 3526722.327765839640051 ], [ 748975.693678700597957, 3526965.742011229507625 ], [ 748537.074749836581759, 3533437.075464271008968 ], [ 774505.328171966015361, 3534352.616700928192586 ], [ 774098.689385191886686, 3538156.516405082307756 ], [ 779489.041477266000584, 3538541.889886104036123 ], [ 780281.591102123609744, 3532267.889775896910578 ], [ 783383.91546004533302, 3528896.263016738463193 ], [ 781789.64897438744083, 3523911.153179982211441 ], [ 780216.732140545151196, 3517688.151622967794538 ], [ 786350.847298139822669, 3515136.505450965836644 ], [ 790482.014914608211257, 3511405.352618908975273 ], [ 787846.900242499890737, 3507733.026823765598238 ], [ 783474.622992847696878, 3506315.355840504635125 ], [ 784194.634802394546568, 3504042.186569670215249 ], [ 779494.220529393060133, 3501953.196919225156307 ], [ 775183.778515127953142, 3496919.948465089779347 ], [ 776007.447301904787309, 3488836.282071215100586 ], [ 763131.691696664667688, 3488516.491313450969756 ], [ 756200.353797637508251, 3497928.96977049857378 ], [ 740290.106739595532417, 3497588.797057276125997 ], [ 739471.580884985276498, 3507293.269753451924771 ], [ 739187.662593670887873, 3526722.327765839640051 ] ] ] } },
{ "type": "Feature", "properties": { "drag_region": "Northeast", "NAME": "Shelby", "NAMELSAD": "Shelby" }, "geometry": { "type": "Polygon", "coordinates": [ [ [ 531131.619486606796272, 3747787.407997251022607 ], [ 535478.323356583015993, 3747787.209218803793192 ], [ 536480.740730684949085, 3750168.423465367872268 ], [ 544829.596119416411966, 3757317.367848823778331 ], [ 549506.083149202167988, 3757323.834139408543706 ], [ 549500.978062757989392, 3760466.784264033194631 ], [ 554508.453875228413381, 3761142.906513658817858 ], [ 556832.837765367119573, 3766576.976878447923809 ], [ 559836.037584901088849, 3766679.852481431793422 ], [ 564490.464689943473786, 3772217.664797975216061 ], [ 570493.546059603686444, 3772333.890025453642011 ], [ 574472.079807801987045, 3777969.3535549887456 ], [ 578468.929402831476182, 3778653.801564237102866 ], [ 578457.430589309195057, 3781130.170764681883156 ], [ 581789.637245403369889, 3781146.224956688005477 ], [ 581813.866977898404002, 3776288.729469844140112 ], [ 591482.184418383170851, 3776341.776297595351934 ], [ 591556.218623809167184, 3763959.990886267740279 ], [ 594920.866079331375659, 3759789.777131766546518 ], [ 592594.673158497200347, 3757870.449685336090624 ], [ 593624.358913747943006, 3753400.17361361021176 ], [ 590295.267486335593276, 3751189.591850557364523 ], [ 586614.290859772008844, 3751930.839831633958966 ], [ 586968.317387233488262, 3748313.489230722654611 ], [ 583304.464756090077572, 3745532.09509130846709 ], [ 583986.124140035128221, 3743059.269435542169958 ], [ 579983.900201819604263, 3740467.940478223841637 ], [ 584030.235906284069642, 3734487.700685452669859 ], [ 581363.660303927725181, 3731998.090084555093199 ], [ 579361.728545821970329, 3730369.470630131661892 ], [ 578726.286537115229294, 3722842.599733779672533 ], [ 575374.85411107330583, 3722637.343834333587438 ], [ 569990.06566476484295, 3728330.294379634317011 ], [ 550223.466509044636041, 3728086.664268831256777 ], [ 544862.430358386947773, 3728460.067141207400709 ], [ 544865.237129488610663, 3725983.919364237692207 ], [ 539837.595697998069227, 3727598.528953998349607 ], [ 536485.995391759439372, 3731406.488558854907751 ], [ 536484.157643805956468, 3737977.8695716727525 ], [ 531463.883121179882437, 3738834.895839272532612 ], [ 531131.619486606796272, 3747787.407997251022607 ] ] ] } },
{ "type": "Feature", "properties": { "drag_region": "Southwest", "NAME": "Clarke", "NAMELSAD": "Clarke" }, "geometry": { "type": "Polygon", "coordinates": [ [ [ 338053.714917677920312, 3456745.353418966755271 ], [ 376370.425685068126768, 3456532.393876926507801 ], [ 376293.023536142660305, 3443963.067832745611668 ], [ 380701.442106063244864, 3443079.894927926827222 ], [ 380674.240408493205905, 3438318.86959237139672 ], [ 391884.214239719440229, 3438451.415466505102813 ], [ 390178.160321239440236, 3436840.672574430704117 ], [ 390456.464828687254339, 3423889.356000221800059 ], [ 385694.460247857496142, 3423912.998867421876639 ], [ 385611.52313963562483, 3407916.579063693992794 ], [ 380477.208057722775266, 3403659.5620799632743 ], [ 385909.159828734293114, 3399535.890232254285365 ], [ 384518.851900316542014, 3394496.615511958487332 ], [ 380070.911419278767426, 3392140.50137349544093 ], [ 378715.558016161026899, 3393766.979352936148643 ], [ 372216.824137165094726, 3391140.624240625184029 ], [ 370468.704530742310453, 3384772.359136190265417 ], [ 367751.558383053983562, 3386885.39797538286075 ], [ 364652.772495183511637, 3383193.497307925019413 ], [ 366677.289371604856569, 3379656.176175075117499 ], [ 362244.143116007908247, 3380735.232338732574135 ], [ 364616.146269174059853, 3378051.937876771204174 ], [ 360510.544138776138425, 3377320.21140771638602 ], [ 356699.648688705521636, 3370684.114250569604337 ], [ 352228.937965154997073, 3367577.889359434600919 ], [ 349156.593342428503092, 3368270.28624961944297 ], [ 349546.523008971707895, 3373885.027900030836463 ], [ 345460.196795076131821, 3375634.741775939706713 ], [ 348544.154498756979592, 3376559.864711896982044 ], [ 347907.194279434159398, 3381897.886918732430786 ], [ 353036.5866153112147, 3382616.182243177201599 ], [ 354113.859740190091543, 3389082.483176195062697 ], [ 349671.182774096145295, 3388453.069015398621559 ], [ 352788.092251281370409, 3393854.54455725941807 ], [ 353190.63560583954677, 3401278.698765932582319 ], [ 350492.657376688206568, 3404729.495839018840343 ], [ 342685.330119386781007, 3408132.125310657080263 ], [ 337620.707593159517273, 3412846.788129091728479 ], [ 335989.299065573024563, 3420005.317888859193772 ], [ 336374.197774927015416, 3424477.414695063140243 ], [ 334742.950002247467637, 3431350.654248396866024 ], [ 330993.668604073871393, 3430437.042023117654026 ], [ 327676.674606490996666, 3438091.433013074100018 ], [ 331463.566402793454472, 3442812.835861627943814 ], [ 332528.868042686546687, 3447277.837344123981893 ], [ 336620.854717224603519, 3449140.719345447607338 ], [ 333259.997871339379344, 3452317.830875745974481 ], [ 338357.988816871889867, 3453218.587876511272043 ], [ 338053.714917677920312, 3456745.353418966755271 ] ] ] } },
{ "type": "Feature", "properties": { "drag_region": "Southwest", "NAME": "Marengo", "NAMELSAD": "Marengo" }, "geometry": { "type": "Polygon", "coordinates": [ [ [ 352138.477066786203068, 3508151.697488194797188 ], [ 348117.386653200723231, 3511901.672043105121702 ], [ 341059.478379960346501, 3515587.399494541343302 ], [ 342470.850018691970035, 3521859.64698584517464 ], [ 349933.771039013983682, 3526171.299054245930165 ], [ 353686.48271876090439, 3531090.92150355130434 ], [ 359415.328675763681531, 3530757.678047504276037 ], [ 359430.586947779695038, 3532662.331804552581161 ], [ 363131.797693460539449, 3531776.217770034447312 ], [ 371222.096827088564169, 3531717.673170231748372 ], [ 371188.934469209983945, 3526860.884597983211279 ], [ 390412.933384108881, 3526843.367193195037544 ], [ 390318.316064249316696, 3507512.095019627828151 ], [ 395048.879547157150228, 3507490.105517317075282 ], [ 395028.295449793396983, 3502824.031289911363274 ], [ 390289.973496777296532, 3501703.294268670957536 ], [ 390224.155648125917651, 3488181.353180672973394 ], [ 380744.345202366181184, 3488136.612871446181089 ], [ 380663.409288958413526, 3474138.713448525872082 ], [ 376585.233743832854088, 3472544.211937244981527 ], [ 338268.522976442647632, 3472757.171479285228997 ], [ 334229.905548859678674, 3475750.420140202157199 ], [ 333932.361072666186374, 3479753.536262385547161 ], [ 338685.824917790829204, 3480657.736610064283013 ], [ 341079.718851693032775, 3482919.999204335734248 ], [ 341824.09090041712625, 3489865.169286880176514 ], [ 344574.147219263541047, 3494315.228784886188805 ], [ 343663.826271296711639, 3505371.515570901334286 ], [ 352138.477066786203068, 3508151.697488194797188 ] ] ] } },
{ "type": "Feature", "properties": { "drag_region": "Southwest", "NAME": "Hale", "NAMELSAD": "Hale" }, "geometry": { "type": "Polygon", "coordinates": [ [ [ 376905.076659509330057, 3605556.14521862519905 ], [ 404396.377561756235082, 3605026.17855872772634 ], [ 404319.590641161310486, 3585883.894885660614818 ], [ 399616.424859492515679, 3585903.835345006547868 ], [ 399530.06784558785148, 3566571.559557182714343 ], [ 394817.246875514043495, 3566498.442993517499417 ], [ 394722.642954090726562, 3547261.870806626509875 ], [ 375498.644039191829506, 3547279.38821141468361 ], [ 375531.80639707040973, 3552136.176783663220704 ], [ 367441.50726344238501, 3552194.721383465919644 ], [ 369848.469404196192045, 3558557.545906454324722 ], [ 374906.281753324088641, 3559187.974693243857473 ], [ 373577.648708320397418, 3561863.896773425862193 ], [ 368861.460134162567556, 3561707.788711982313544 ], [ 367534.055879814666696, 3564289.325766667257994 ], [ 373257.754097714612726, 3564247.106337228789926 ], [ 374281.793006659252569, 3566239.897890164516866 ], [ 369907.856914218922611, 3566557.154868602752686 ], [ 369285.380397087777965, 3573323.830038238316774 ], [ 365919.306612902437337, 3573063.960049837827682 ], [ 368307.423203077167273, 3577426.580668162554502 ], [ 362264.416301357210614, 3578617.385199263691902 ], [ 366998.660360661626328, 3582103.488448286894709 ], [ 366030.882896835042629, 3587254.157860365696251 ], [ 368766.012390549352858, 3593519.019777860026807 ], [ 372801.923085074056871, 3594536.772413281723857 ], [ 371476.076861066161655, 3596832.250515857711434 ], [ 374839.243419615144376, 3597855.770834290422499 ], [ 376905.076659509330057, 3605556.14521862519905 ] ] ] } },
{ "type": "Feature", "properties": { "drag_region": "Northwest", "NAME": "Lamar", "NAMELSAD": "Lamar" }, "geometry": { "type": "Polygon", "coordinates": [ [ [ 325643.145025130768772, 3820211.375119069591165 ], [ 329709.709495531395078, 3854936.745741616003215 ], [ 350241.412998073734343, 3854049.553127375431359 ], [ 350210.198626043507829, 3850810.824181563220918 ], [ 353523.235127705323976, 3850684.222006000112742 ], [ 353418.143461662984919, 3839348.835396424401551 ], [ 353346.990779359766748, 3795434.798607451841235 ], [ 323028.345324674679432, 3796902.501109567005187 ], [ 325643.145025130768772, 3820211.375119069591165 ] ] ] } },
{ "type": "Feature", "properties": { "drag_region": "Northwest", "NAME": "Pickens", "NAMELSAD": "Pickens" }, "geometry": { "type": "Polygon", "coordinates": [ [ [ 317640.534521626017522, 3749820.998626713640988 ], [ 320982.147731552366167, 3777025.636385809630156 ], [ 351300.793186237453483, 3775557.933883694466203 ], [ 361301.083874373463914, 3775567.088079759851098 ], [ 360969.810304976708721, 3734421.371311747934669 ], [ 352226.977599336591084, 3730018.570837729610503 ], [ 348842.064958405098878, 3726143.985265447758138 ], [ 343465.888307067274582, 3724575.782741142436862 ], [ 341756.422151936974842, 3721163.559797009918839 ], [ 332042.932697298179846, 3721931.634225634392351 ], [ 329643.541927485901397, 3717195.354153442196548 ], [ 313876.163035447127186, 3716907.525867445860058 ], [ 317640.534521626017522, 3749820.998626713640988 ] ] ] } },
{ "type": "Feature", "properties": { "drag_region": "Northeast", "NAME": "Coosa", "NAMELSAD": "Coosa" }, "geometry": { "type": "Polygon", "coordinates": [ [ [ 589927.439528159913607, 3710606.281032849103212 ], [ 590562.881536866654642, 3718133.151929201092571 ], [ 592564.813294972409494, 3719761.771383624523878 ], [ 637442.175919956061989, 3720273.448394962586462 ], [ 637806.767918226425536, 3681510.668717148713768 ], [ 603511.953434952767566, 3681058.440364060457796 ], [ 595743.893348180688918, 3687777.411467005498707 ], [ 596387.159078841563314, 3693304.501823652070016 ], [ 593694.990302104852162, 3694433.699305774644017 ], [ 590309.190069869160652, 3700512.757525040768087 ], [ 589927.439528159913607, 3710606.281032849103212 ] ] ] } },
{ "type": "Feature", "properties": { "drag_region": "Northwest", "NAME": "Walker", "NAMELSAD": "Walker" }, "geometry": { "type": "Polygon", "coordinates": [ [ [ 404744.793899439275265, 3850160.151415687054396 ], [ 417337.049649164255243, 3849423.739770408719778 ], [ 449490.041004538885318, 3848940.998579644598067 ], [ 453132.436372538038995, 3845221.587809721473604 ], [ 455780.691508013464045, 3839313.607375354506075 ], [ 454783.574960934347473, 3837504.71708601154387 ], [ 462748.950249091489241, 3837405.619526983238757 ], [ 462748.785772070463281, 3834833.898284692317247 ], [ 466732.897661237977445, 3833977.239670659881085 ], [ 467731.127017281425651, 3829215.22953542182222 ], [ 466071.121603059058543, 3826071.435832081362605 ], [ 461086.415694492170587, 3824547.360888091847301 ], [ 459753.456389780971222, 3815023.103284799959511 ], [ 458088.201004993694369, 3811595.026001341175288 ], [ 454760.354889950889628, 3811692.678453980945051 ], [ 454757.451698253222276, 3808454.336495553143322 ], [ 446765.157625953026582, 3806940.900276282802224 ], [ 444426.774675636494067, 3803040.172955545131117 ], [ 446087.613360594667029, 3800465.440563560463488 ], [ 438412.129962984763552, 3795720.04343224549666 ], [ 433745.871897054021247, 3795923.740200671367347 ], [ 433770.771298563282471, 3804019.520246154628694 ], [ 424118.642046509776264, 3805673.283929198049009 ], [ 424157.985811459308024, 3815293.166263329330832 ], [ 414512.448145786009263, 3815718.519389657303691 ], [ 414279.84246255189646, 3835151.018347301520407 ], [ 404655.250063427374698, 3835681.835350951179862 ], [ 404744.793899439275265, 3850160.151415687054396 ] ] ] } },
{ "type": "Feature", "properties": { "drag_region": "Southwest", "NAME": "Washington", "NAMELSAD": "Washington" }, "geometry": { "type": "Polygon", "coordinates": [ [ [ 290010.498661181482021, 3416390.787117176689208 ], [ 325729.45535599795403, 3416068.169290516991168 ], [ 325344.556646643963177, 3411596.072484313044697 ], [ 326975.965174230455887, 3404437.542724545579404 ], [ 332040.58770045771962, 3399722.879906110931188 ], [ 339847.914957759145182, 3396320.250434472691268 ], [ 342545.893186910485383, 3392869.453361386433244 ], [ 342143.349832352309022, 3385445.299152713268995 ], [ 339026.440355167083908, 3380043.823610852472484 ], [ 343469.117321261030156, 3380673.237771648913622 ], [ 342391.844196382153314, 3374206.936838631052524 ], [ 337262.451860505098011, 3373488.641514186281711 ], [ 337899.412079827918205, 3368150.619307350832969 ], [ 334815.454376147070434, 3367225.496371393557638 ], [ 338901.780590042646509, 3365475.782495484687388 ], [ 338511.850923499441706, 3359861.040845073293895 ], [ 339167.519278256746475, 3356522.717178695369512 ], [ 336087.844479524588678, 3356454.087427972815931 ], [ 334388.427717608225066, 3357707.033429137896746 ], [ 330937.845348393253516, 3354500.880269899498671 ], [ 301852.004791772807948, 3354715.104039546567947 ], [ 301813.117627154919319, 3351477.646331650204957 ], [ 292228.901615933631547, 3351597.065945300273597 ], [ 290010.498661181482021, 3416390.787117176689208 ] ] ] } },
{ "type": "Feature", "properties": { "drag_region": "Southeast", "NAME": "Crenshaw", "NAMELSAD": "Crenshaw" }, "geometry": { "type": "Polygon", "coordinates": [ [ [ 612229.992409002850763, 3457557.878404423128814 ], [ 616300.503025994752534, 3457484.276186662260443 ], [ 615908.588068061275408, 3467099.89974204543978 ], [ 625735.273526486940682, 3467158.595495722256601 ], [ 625796.668541403487325, 3457636.244468356017023 ], [ 636309.544277385575697, 3457899.807336316909641 ], [ 638035.895599152543582, 3453913.209321648813784 ], [ 637099.594206546316855, 3443050.097716936841607 ], [ 635775.34729031776078, 3438374.129590719006956 ], [ 640531.987297694780864, 3438505.491304638329893 ], [ 640642.847709068912081, 3424317.573038644623011 ], [ 637618.902754492475651, 3419152.297893283888698 ], [ 641022.628722659894265, 3419273.588576146401465 ], [ 641091.820281649939716, 3410418.241589525248855 ], [ 636327.83509397204034, 3409525.147175510413945 ], [ 636401.166686440934427, 3399527.374888745136559 ], [ 629919.231412293273024, 3399672.344870922155678 ], [ 628544.895966121577658, 3401186.734760456718504 ], [ 628150.849203616031446, 3409277.866723848041147 ], [ 622726.190761951147579, 3404673.18359521497041 ], [ 620339.807570546050556, 3404659.076018676627427 ], [ 617293.602292018593289, 3400642.720854774583131 ], [ 616906.205245524994098, 3409114.989708782173693 ], [ 607365.721632602158934, 3408876.685608847532421 ], [ 607300.057616835110821, 3423254.271323388442397 ], [ 612064.205372927826829, 3423277.166248424444348 ], [ 612378.906472185975872, 3428325.411389380693436 ], [ 612229.992409002850763, 3457557.878404423128814 ] ] ] } },
{ "type": "Feature", "properties": { "drag_region": "Southeast", "NAME": "Dale", "NAMELSAD": "Dale" }, "geometry": { "type": "Polygon", "coordinates": [ [ [ 694167.608958119992167, 3409023.083107856102288 ], [ 698252.074867142364383, 3409164.360101766418666 ], [ 729574.108553951373324, 3409666.199570124037564 ], [ 730107.076656774035655, 3372717.429201928898692 ], [ 723613.720004223403521, 3372721.463125858455896 ], [ 723675.168109694262967, 3368245.896985462866724 ], [ 712358.877010546158999, 3370953.837730306200683 ], [ 706554.188414524076506, 3370501.024392469320446 ], [ 702207.218929143389687, 3362259.268769157584757 ], [ 694681.252568248892203, 3362364.693839375860989 ], [ 694167.608958119992167, 3409023.083107856102288 ] ] ] } },
{ "type": "Feature", "properties": { "drag_region": "Southeast", "NAME": "Lee", "NAMELSAD": "Lee" }, "geometry": { "type": "Polygon", "coordinates": [ [ [ 719164.320037842844613, 3573402.140796906780452 ], [ 747078.647643019095995, 3574098.067471303977072 ], [ 748061.529381930362433, 3575733.603746814187616 ], [ 762511.719691746868193, 3576645.315883228555322 ], [ 765077.080399752012454, 3564875.854976682458073 ], [ 767171.274535435019061, 3560816.285091425757855 ], [ 773032.417481572600082, 3553682.005355555564165 ], [ 774785.761442197603174, 3550093.85961548704654 ], [ 769395.409350123489276, 3549708.486134465318173 ], [ 769802.048136897617951, 3545904.586430311203003 ], [ 743833.794714768184349, 3544989.045193654019386 ], [ 744272.413643632200547, 3538517.711740612518042 ], [ 734484.382558602490462, 3538274.297495222650468 ], [ 734004.66739511070773, 3547984.06796014495194 ], [ 729283.348199556581676, 3547916.013904075138271 ], [ 712998.113377319299616, 3555509.219937771558762 ], [ 709589.99867355148308, 3558610.281808664090931 ], [ 709452.045584506355226, 3569848.653843276202679 ], [ 711113.045956389396451, 3571583.824389137793332 ], [ 717503.739688900415786, 3571760.810349026229233 ], [ 719164.320037842844613, 3573402.140796906780452 ] ] ] } },
{ "type": "Feature", "properties": { "drag_region": "Southeast", "NAME": "Autauga", "NAMELSAD": "Autauga" }, "geometry": { "type": "Polygon", "coordinates": [ [ [ 555381.044371666037478, 3563017.971303492318839 ], [ 574565.910553968045861, 3562765.792133929673582 ], [ 574216.074629042646848, 3567716.903370660729706 ], [ 602473.342196601210162, 3568023.271382740698755 ], [ 602992.647048067883588, 3534980.0275395847857 ], [ 598606.833527398877777, 3534575.885655417107046 ], [ 598285.139851755229756, 3531431.654067726805806 ], [ 594926.233656600117683, 3527701.346072453539819 ], [ 591551.542377362842672, 3527019.45680718543008 ], [ 590526.42455800191965, 3529776.66685137944296 ], [ 583768.207192393951118, 3530988.078764381818473 ], [ 583418.34707796247676, 3534415.045106881298125 ], [ 580045.805630369111896, 3533546.537292315624654 ], [ 577359.978056259336881, 3528586.401492718141526 ], [ 574655.876059831236489, 3529435.813607445918024 ], [ 573968.247196235461161, 3534100.120740989688784 ], [ 568569.611835472169332, 3533135.133362947963178 ], [ 568919.6900098513579, 3527231.822264193557203 ], [ 566562.118950573843904, 3523608.527978484984487 ], [ 564866.469187057809904, 3527224.056872550863773 ], [ 564860.751617950154468, 3530556.962015919853002 ], [ 562154.811061813146807, 3533790.380974375177175 ], [ 564175.537845677579753, 3536555.09400542313233 ], [ 560797.228728888556361, 3539406.89787215879187 ], [ 556403.179665191215463, 3548924.861127854790539 ], [ 557074.00080847449135, 3552353.710870214737952 ], [ 555381.044371666037478, 3563017.971303492318839 ] ] ] } },
{ "type": "Feature", "properties": { "drag_region": "Southeast", "NAME": "Barbour", "NAMELSAD": "Barbour" }, "geometry": { "type": "Polygon", "coordinates": [ [ [ 711503.102354392409325, 3453382.285673193167895 ], [ 712139.425299855647609, 3456819.013381258584559 ], [ 716480.339704026468098, 3462398.384197208564728 ], [ 717450.893586769234389, 3466030.411576597951353 ], [ 724901.889630320481956, 3466796.902870612218976 ], [ 724880.930744858458638, 3468320.655500970780849 ], [ 733014.905503996415064, 3468626.313735983334482 ], [ 732814.941550884395838, 3482340.471520934719592 ], [ 734495.136432364815846, 3483222.484812002629042 ], [ 748712.667875580722466, 3483537.787330412305892 ], [ 755644.005774607881904, 3474125.308873364701867 ], [ 768519.761379848001525, 3474445.099631128832698 ], [ 767646.738279811805114, 3466426.222915526945144 ], [ 766050.770777178928256, 3460776.588278675917536 ], [ 761418.505459388019517, 3453836.015719109214842 ], [ 760473.292928221868351, 3449532.67139320448041 ], [ 761945.436095941578969, 3442984.461397921666503 ], [ 761978.255141151370481, 3441079.666847627609968 ], [ 759918.920111698564142, 3442187.60089415917173 ], [ 754536.479958178009838, 3438667.842782637104392 ], [ 753588.102434494299814, 3434270.172683522570878 ], [ 734530.887829212704673, 3434452.00980015238747 ], [ 734671.842958708759397, 3424738.377644410356879 ], [ 703349.809271899750456, 3424236.538176052737981 ], [ 706359.040305373491719, 3428938.19669381622225 ], [ 705969.488223646301776, 3433124.148834086488932 ], [ 707944.438124689972028, 3438671.530343632213771 ], [ 710956.434184475103393, 3442612.985869063995779 ], [ 709498.529980411054567, 3450690.83634481811896 ], [ 711503.102354392409325, 3453382.285673193167895 ] ] ] } },
{ "type": "Feature", "properties": { "drag_region": "Southwest", "NAME": "Mobile", "NAMELSAD": "Mobile" }, "geometry": { "type": "MultiPolygon", "coordinates": [ [ [ [ 298140.662714076752309, 3230609.937252250500023 ], [ 317512.324091787915677, 3233352.03422878915444 ], [ 317881.215389979304746, 3235728.703361804131418 ], [ 322678.274673676874954, 3231873.731802127789706 ], [ 319544.220042499364354, 3229237.900192544795573 ], [ 316105.256770164822228, 3230795.348107162863016 ], [ 309886.332697272126097, 3230669.24635693570599 ], [ 302960.240685262717307, 3229126.339567246846855 ], [ 298140.662714076752309, 3230609.937252250500023 ] ] ], [ [ [ 289711.016674311948009, 3328132.281122562009841 ], [ 299295.232685533235781, 3328012.8615089119412 ], [ 299334.11985015112441, 3331250.319216808304191 ], [ 328419.960406771569978, 3331036.095447161234915 ], [ 331870.542775986541528, 3334242.24860639963299 ], [ 333569.95953790290514, 3332989.302605234552175 ], [ 336634.281469647132326, 3331248.872458553873003 ], [ 333156.614926269568969, 3324899.145148432813585 ], [ 336541.511497729166877, 3320299.39467664482072 ], [ 334105.945005493122153, 3315940.189692927524447 ], [ 334067.139955183840357, 3311465.244001238141209 ], [ 337807.790092531533446, 3307815.23192254640162 ], [ 332273.422227009665221, 3302435.19345207279548 ], [ 332592.28815831564134, 3299671.082648756913841 ], [ 335991.861218067177106, 3295833.173360078595579 ], [ 331857.20174510567449, 3294154.958381181582808 ], [ 328020.992059787211474, 3287714.689196485094726 ], [ 329670.336909326317254, 3280082.428574954159558 ], [ 324471.8597404693719, 3275750.384641286917031 ], [ 325125.820253578654956, 3272126.013450318016112 ], [ 321976.862287309661042, 3266728.650444303173572 ], [ 322283.582838226284366, 3262821.847532897256315 ], [ 320187.579760220483877, 3259795.271436696872115 ], [ 319708.729268301452976, 3246089.000432219356298 ], [ 316886.544923740206286, 3239832.812073829583824 ], [ 311706.097224783326965, 3239505.092700873501599 ], [ 312087.085454458952881, 3242928.881259991787374 ], [ 305229.323576281312853, 3246811.625380407087505 ], [ 300038.357213990588207, 3245347.032935016322881 ], [ 298339.397510219539981, 3247556.960716117639095 ], [ 292105.903269881207962, 3245537.070845117326826 ], [ 290889.982483597530518, 3286119.155305228661746 ], [ 290230.720391516981181, 3315268.751148560084403 ], [ 289711.016674311948009, 3328132.281122562009841 ] ] ] ] } },
{ "type": "Feature", "properties": { "drag_region": "Northwest", "NAME": "Bibb", "NAMELSAD": "Bibb" }, "geometry": { "type": "Polygon", "coordinates": [ [ [ 431027.26137714413926, 3705163.349890100769699 ], [ 440751.461787039763294, 3705414.774521267972887 ], [ 441451.116106260626111, 3715222.153110239189118 ], [ 444142.209965054120403, 3719500.255389661993831 ], [ 451841.929486227047164, 3719196.78937265323475 ], [ 451855.960227011586539, 3726530.128932460211217 ], [ 456211.016319779562764, 3730522.802206240594387 ], [ 460891.593983021390159, 3729278.936096492223442 ], [ 464572.368047760915942, 3732133.16151907807216 ], [ 467915.928497175744269, 3732036.448768224567175 ], [ 468248.192131748772226, 3723083.93661024607718 ], [ 473268.466654374962673, 3722226.910342646297067 ], [ 473270.304402328387368, 3715655.529329828452319 ], [ 476621.904708567017224, 3711847.569724971894175 ], [ 481649.546140057558659, 3710232.960135211236775 ], [ 482012.14716653135838, 3686615.149619698524475 ], [ 468575.603596048778854, 3686608.68276477092877 ], [ 440692.99522653745953, 3686082.108888980932534 ], [ 440707.657858481048606, 3690939.033360778354108 ], [ 430969.923655546677765, 3690878.013714042957872 ], [ 431027.26137714413926, 3705163.349890100769699 ] ] ] } },
{ "type": "Feature", "properties": { "drag_region": "Southeast", "NAME": "Pike", "NAMELSAD": "Pike" }, "geometry": { "type": "Polygon", "coordinates": [ [ [ 646295.936383972410113, 3461261.453135328833014 ], [ 664949.428758933208883, 3461513.014788316562772 ], [ 664523.739347467315383, 3470842.100212397519499 ], [ 674355.669343623099849, 3470461.907064970582724 ], [ 675463.830049017444253, 3461616.133754617534578 ], [ 684282.495332645135932, 3461710.960905814077705 ], [ 684389.936840954236686, 3452092.874632406514138 ], [ 696951.607258364674635, 3452240.720323125831783 ], [ 694947.034884383203462, 3449549.270994750782847 ], [ 696404.939088447252288, 3441471.420518996659666 ], [ 693392.943028662237339, 3437529.964993564877659 ], [ 691417.993127618450671, 3431982.58348401915282 ], [ 691807.545209345640615, 3427796.631343748886138 ], [ 688798.314175872015767, 3423094.972825985401869 ], [ 684713.848266849643551, 3422953.695832075085491 ], [ 651009.020829246728681, 3422635.234375158324838 ], [ 647605.294861079310067, 3422513.94369229581207 ], [ 650629.239815655746497, 3427679.218837656546384 ], [ 650518.37940428161528, 3441867.137103650253266 ], [ 645761.739396904595196, 3441735.775389730930328 ], [ 647085.98631313315127, 3446411.74351594876498 ], [ 648022.287705739377998, 3457274.855120660737157 ], [ 646295.936383972410113, 3461261.453135328833014 ] ] ] } },
{ "type": "Feature", "properties": { "drag_region": "Southeast", "NAME": "Geneva", "NAMELSAD": "Geneva" }, "geometry": { "type": "Polygon", "coordinates": [ [ [ 650182.484525213367306, 3347076.935967713128775 ], [ 688480.271546303993091, 3347902.481536115519702 ], [ 696006.237907198490575, 3347797.05646589724347 ], [ 717544.698540364159271, 3348641.577171452343464 ], [ 717509.026371287414804, 3326164.404135489836335 ], [ 716482.147730493568815, 3326055.259388446807861 ], [ 665422.203108924324624, 3325108.170050113927573 ], [ 650685.405042933300138, 3325085.638954812660813 ], [ 650182.484525213367306, 3347076.935967713128775 ] ] ] } },
{ "type": "Feature", "properties": { "drag_region": "Southeast", "NAME": "Houston", "NAMELSAD": "Houston" }, "geometry": { "type": "Polygon", "coordinates": [ [ [ 741414.47779665037524, 3363098.250878732185811 ], [ 763973.794072041288018, 3362589.332388165406883 ], [ 772513.024074274580926, 3362829.099382886197418 ], [ 770181.813067253562622, 3359264.283829448278993 ], [ 771974.286266366834752, 3354436.706727772019804 ], [ 771036.595698476303369, 3349276.519662377424538 ], [ 778031.866976936347783, 3340729.508026994299144 ], [ 779123.392131667584181, 3337128.887796029448509 ], [ 781327.186044532572851, 3328880.368160943035036 ], [ 735063.908171204966493, 3327769.730290029197931 ], [ 735099.58034028171096, 3350246.90332599170506 ], [ 713561.119707116042264, 3349402.382620436605066 ], [ 717908.089192496729083, 3357644.138243748340756 ], [ 723712.777788518811576, 3358096.951581585220993 ], [ 735029.068887666915543, 3355389.010836741887033 ], [ 734967.620782196056098, 3359864.576977137476206 ], [ 741460.977434746688232, 3359860.543053207919002 ], [ 741414.47779665037524, 3363098.250878732185811 ] ] ] } },
{ "type": "Feature", "properties": { "drag_region": "Northwest", "NAME": "Marion", "NAMELSAD": "Marion" }, "geometry": { "type": "Polygon", "coordinates": [ [ [ 336905.62429648253601, 3866685.150169251486659 ], [ 340553.689915637020022, 3895796.506534952670336 ], [ 364982.300503283273429, 3894593.70962966280058 ], [ 390078.185002845013514, 3893831.735625213477761 ], [ 389808.332567218574695, 3850395.568116046022624 ], [ 360614.058262614184059, 3851097.239824059884995 ], [ 360719.149928656523116, 3862432.626433635596186 ], [ 357406.113426994648762, 3862559.228609198704362 ], [ 357437.327799024875276, 3865797.957555010914803 ], [ 336905.62429648253601, 3866685.150169251486659 ] ] ] } },
{ "type": "Feature", "properties": { "drag_region": "Northeast", "NAME": "Cleburne", "NAMELSAD": "Cleburne" }, "geometry": { "type": "Polygon", "coordinates": [ [ [ 670257.807086853776127, 3790398.796474826522171 ], [ 675185.152734546340071, 3796837.335666495375335 ], [ 680184.401306919171475, 3796801.398222739808261 ], [ 680124.29800264374353, 3801754.568740134593099 ], [ 688078.965598888462409, 3804807.849166105501354 ], [ 689712.333723296644166, 3807210.998841100838035 ], [ 689530.213666266179644, 3821023.228897672146559 ], [ 694471.432114837341942, 3824329.173787350300699 ], [ 694404.641844812664203, 3829187.395247688982636 ], [ 689754.008809564053081, 3829219.834806047845632 ], [ 689712.287160897394642, 3832363.382033922709525 ], [ 692678.130303326062858, 3834022.938559235073626 ], [ 699318.100209967466071, 3834020.260696948971599 ], [ 699234.973933830624446, 3839831.207626424729824 ], [ 702527.15722488227766, 3841594.000374696217477 ], [ 711470.541531555936672, 3842491.729029488749802 ], [ 712573.268213532632217, 3835648.305158354807645 ], [ 717665.587509662145749, 3808096.17029181541875 ], [ 720969.913154187961482, 3789283.247742285020649 ], [ 716617.577401765272953, 3790261.293564948253334 ], [ 689601.637932249112055, 3790251.289233672898263 ], [ 678260.016060691210441, 3790490.713431861251593 ], [ 676630.849912822479382, 3787232.47033570241183 ], [ 668617.674482485163026, 3787903.977143476251513 ], [ 670257.807086853776127, 3790398.796474826522171 ] ] ] } },
{ "type": "Feature", "properties": { "drag_region": "Northeast", "NAME": "Madison", "NAMELSAD": "Madison" }, "geometry": { "type": "Polygon", "coordinates": [ [ [ 555408.162447977112606, 3992322.49805954284966 ], [ 598647.366151726455428, 3992423.215549550950527 ], [ 603270.767097282339819, 3987406.788281693588942 ], [ 599993.891555226990022, 3987287.859892419073731 ], [ 595128.896066587301902, 3979347.401061619631946 ], [ 597128.416484993533231, 3974692.330431689508259 ], [ 595826.199813024606556, 3973064.111852200236171 ], [ 596193.974551624734886, 3967064.549309893976897 ], [ 594571.080155125004239, 3964005.423146423883736 ], [ 594314.496556741185486, 3952666.958545078523457 ], [ 597300.178361472673714, 3948970.967278788331896 ], [ 599619.188079561106861, 3946795.555511199403554 ], [ 596377.637013338389806, 3939057.223408374004066 ], [ 591429.769009285722859, 3939978.841384029015899 ], [ 588489.15599956875667, 3935674.79331432050094 ], [ 584536.541871091583744, 3935176.869215188082308 ], [ 578590.385220078402199, 3938005.376861324999481 ], [ 576920.837255558231845, 3942951.43548440374434 ], [ 575260.352306648506783, 3946183.118013711180538 ], [ 570979.830675679841079, 3946356.344400634523481 ], [ 566380.071726202731952, 3943577.384917457588017 ], [ 565382.996995375258848, 3946431.972710606642067 ], [ 561101.782964703626931, 3946990.803835773840547 ], [ 558475.815047281910665, 3943935.631647368427366 ], [ 554854.796721854479983, 3943355.879036696162075 ], [ 555453.562692479114048, 3971268.917020780034363 ], [ 555408.162447977112606, 3992322.49805954284966 ] ] ] } },
{ "type": "Feature", "properties": { "drag_region": "Southwest", "NAME": "Wilcox", "NAMELSAD": "Wilcox" }, "geometry": { "type": "Polygon", "coordinates": [ [ [ 387888.494128853897564, 3464621.549582102335989 ], [ 391966.669673979398794, 3466216.051093383226544 ], [ 392047.605587387224659, 3480213.950516303535551 ], [ 401527.416033146902919, 3480258.690825530327857 ], [ 401593.233881798340008, 3493780.631913528311998 ], [ 406331.555834814440459, 3494901.368934768717736 ], [ 409037.554931883816607, 3495270.709473612252623 ], [ 414096.361964989569969, 3492013.328083777334541 ], [ 416447.519166610902175, 3487338.999475405551493 ], [ 420169.418890867731534, 3487517.481233960017562 ], [ 424551.432686903630383, 3481410.805558386258781 ], [ 426244.615729490527883, 3481692.224694361910224 ], [ 428941.621301267296076, 3476639.219565631821752 ], [ 433002.477796453400515, 3474917.265712142921984 ], [ 434011.51424277597107, 3470630.563039594329894 ], [ 464508.30281806003768, 3470720.88627221621573 ], [ 464521.001947309123352, 3461198.836876024026424 ], [ 459433.486219416954555, 3461193.325358607806265 ], [ 459785.272934936103411, 3446625.139771520160139 ], [ 430574.817832743981853, 3446355.729606467299163 ], [ 427858.389206652529538, 3446742.332351322751492 ], [ 392192.308852278976701, 3446408.025297547224909 ], [ 392219.510549849015661, 3451169.050633102655411 ], [ 387811.091979928431101, 3452052.223537921439856 ], [ 387888.494128853897564, 3464621.549582102335989 ] ] ] } },
{ "type": "Feature", "properties": { "drag_region": "Northeast", "NAME": "Blount", "NAMELSAD": "Blount" }, "geometry": { "type": "Polygon", "coordinates": [ [ [ 541389.797523054759949, 3838249.048845662269741 ], [ 545372.638150440412574, 3839965.775373995769769 ], [ 545037.725803842768073, 3843965.990041675977409 ], [ 548686.721086184144951, 3844826.638007715344429 ], [ 554650.991727731423452, 3849311.984444952104241 ], [ 557305.182767362217419, 3848745.510947681032121 ], [ 565568.381995057687163, 3858386.388610502704978 ], [ 565223.613854634924792, 3863052.788210222497582 ], [ 568533.869830960058607, 3863443.932334807701409 ], [ 569850.049065813305788, 3865924.888641186989844 ], [ 574810.58001219725702, 3867276.52070415019989 ], [ 582353.932175843860023, 3882073.857302421703935 ], [ 588298.574137336108834, 3882865.938477694522589 ], [ 592298.805748804355972, 3876886.910904636140913 ], [ 602298.99201078445185, 3865233.039802359417081 ], [ 599693.25016804097686, 3858642.798585028387606 ], [ 599732.401149261393584, 3852641.829178721178323 ], [ 596117.151403530500829, 3847475.124930828809738 ], [ 600428.701088870526291, 3847597.778208474162966 ], [ 598808.606531038996764, 3841586.138771110679954 ], [ 592866.596258833189495, 3835930.006031471304595 ], [ 577272.950175233068876, 3832138.158176864031702 ], [ 576957.433688731165603, 3828041.111355686560273 ], [ 570641.975539666600525, 3828112.685008732602 ], [ 560319.078846211312339, 3836369.61338678561151 ], [ 548695.923268043668941, 3836635.219271042849869 ], [ 542388.026879098149948, 3833487.038710424210876 ], [ 541389.797523054759949, 3838249.048845662269741 ] ] ] } },
{ "type": "Feature", "properties": { "drag_region": "Northwest", "NAME": "Lawrence", "NAMELSAD": "Lawrence" }, "geometry": { "type": "Polygon", "coordinates": [ [ [ 415297.367311868700199, 3936158.271235547494143 ], [ 418293.082950456649996, 3942716.212524896487594 ], [ 423245.548693050164729, 3946598.877683357801288 ], [ 422605.313473377726041, 3950507.56424107355997 ], [ 424912.530386461992748, 3951926.466696923132986 ], [ 425925.374087005737238, 3958400.239775670226663 ], [ 424955.383723331731744, 3962024.401739045511931 ], [ 432505.223707867786288, 3961519.103854045271873 ], [ 436758.71559960686136, 3956456.515030598267913 ], [ 440046.156019984744489, 3957304.75122029427439 ], [ 443660.80921975011006, 3957867.639612464234233 ], [ 451209.526107457233593, 3953471.980995424557477 ], [ 454491.469239866244607, 3949276.49093063455075 ], [ 453787.033217999502085, 3906410.832743959035724 ], [ 415145.210767284152098, 3907104.245594523847103 ], [ 415297.367311868700199, 3936158.271235547494143 ] ] ] } },
{ "type": "Feature", "properties": { "drag_region": "Northwest", "NAME": "Tuscaloosa", "NAMELSAD": "Tuscaloosa" }, "geometry": { "type": "Polygon", "coordinates": [ [ [ 379606.856354815477971, 3777364.83416187344119 ], [ 395603.261360777076334, 3776867.693453856743872 ], [ 395644.933943070820533, 3783344.44987880717963 ], [ 398976.468385648564436, 3783418.825211428105831 ], [ 398996.206595464609563, 3786657.217534252908081 ], [ 418305.37434163648868, 3785701.671439989469945 ], [ 427957.503593689994887, 3784047.907756946049631 ], [ 427932.604192180733662, 3775952.127711462788284 ], [ 432598.862258111475967, 3775748.430943036917597 ], [ 430923.983678448479623, 3772800.338403410278261 ], [ 426924.721409526770003, 3773478.914053399115801 ], [ 426244.901138106069993, 3769480.833015587180853 ], [ 431243.685883317491971, 3767751.544977337587625 ], [ 435903.103301274124533, 3762692.128486977890134 ], [ 435895.867320736404508, 3759453.914737498853356 ], [ 439233.321960622968618, 3758589.860614902339876 ], [ 442563.869436589127872, 3752869.687727848533541 ], [ 451583.356971578905359, 3749431.327220976818353 ], [ 451581.431438137835357, 3746288.424865036271513 ], [ 447900.657373398309574, 3743434.199442450422794 ], [ 443220.079710156482179, 3744678.065552198793739 ], [ 438865.023617388505954, 3740685.392278418410569 ], [ 438850.992876603966579, 3733352.052718611434102 ], [ 431151.273355431039818, 3733655.518735620193183 ], [ 428460.179496637545526, 3729377.41645619738847 ], [ 427760.525177416682709, 3719570.037867226172239 ], [ 418036.324767521058675, 3719318.613236058969051 ], [ 390545.02386527415365, 3719848.57989595644176 ], [ 391223.94830299570458, 3721082.131887354888022 ], [ 379824.976909715973306, 3721070.484218195546418 ], [ 379275.582785418722779, 3736219.117393861524761 ], [ 379606.856354815477971, 3777364.83416187344119 ] ] ] } },
{ "type": "Feature", "properties": { "drag_region": "Southeast", "NAME": "Macon", "NAMELSAD": "Macon" }, "geometry": { "type": "Polygon", "coordinates": [ [ [ 668021.085120810195804, 3528937.261174882762134 ], [ 672710.307764643803239, 3532695.670023312792182 ], [ 680139.436884213006124, 3532103.181663674302399 ], [ 682132.638472788734362, 3535076.645235503092408 ], [ 680761.574164308607578, 3537157.65248790755868 ], [ 689191.269877689890563, 3537344.448628941550851 ], [ 689081.54990609572269, 3547058.655123203061521 ], [ 696830.355498563265428, 3547149.288683106191456 ], [ 698495.049229538301006, 3548788.861052844673395 ], [ 701903.163933306233957, 3545687.799181952141225 ], [ 718188.398755543399602, 3538094.593148255720735 ], [ 722909.717951097525656, 3538162.647204325534403 ], [ 723389.433114589424804, 3528452.876739403232932 ], [ 723673.351405903697014, 3509023.818727015517652 ], [ 683768.325140993343666, 3508235.077082514762878 ], [ 681670.519644938409328, 3514784.722354823723435 ], [ 677970.981183235766366, 3512937.15610009431839 ], [ 671146.580348617397249, 3519632.719541870988905 ], [ 668021.085120810195804, 3528937.261174882762134 ] ] ] } },
{ "type": "Feature", "properties": { "drag_region": "Southeast", "NAME": "Tallapoosa", "NAMELSAD": "Tallapoosa" }, "geometry": { "type": "Polygon", "coordinates": [ [ [ 666238.396190084284171, 3623378.683231378905475 ], [ 669236.463136936188675, 3625122.002157446462661 ], [ 699378.63104971521534, 3625557.827470429707319 ], [ 705071.219328158418648, 3625727.838426203932613 ], [ 705632.1122204271378, 3583724.33271904848516 ], [ 703971.531871484708972, 3582083.002271167933941 ], [ 697580.838138973689638, 3581906.016311279498041 ], [ 695919.837767090648413, 3580170.845765417907387 ], [ 696057.790856135776266, 3568932.47373080579564 ], [ 694393.097125160624273, 3567292.90136106684804 ], [ 686644.291532693197951, 3567202.267801164183766 ], [ 686754.011504287249409, 3557488.061306902673095 ], [ 678324.315790905966423, 3557301.265165868680924 ], [ 677523.231712160515599, 3569484.466583400499076 ], [ 678144.979950884706341, 3574443.837827072944492 ], [ 675754.263223389978521, 3577752.725184259936213 ], [ 678693.495348020340316, 3586260.49574739811942 ], [ 666587.690427934401669, 3586235.029916538391262 ], [ 666238.396190084284171, 3623378.683231378905475 ] ] ] } },
{ "type": "Feature", "properties": { "drag_region": "Northeast", "NAME": "Jackson", "NAMELSAD": "Jackson" }, "geometry": { "type": "Polygon", "coordinates": [ [ [ 614475.519933213712648, 3992719.900246676523238 ], [ 655098.554121329332702, 3992805.002735094632953 ], [ 678692.5561787430197, 3992627.062020836398005 ], [ 681180.405988592770882, 3978939.67676809290424 ], [ 676957.893076770822518, 3975736.273108583409339 ], [ 674118.238393575418741, 3967121.832889041397721 ], [ 671176.304962451569736, 3965939.641761370003223 ], [ 662794.256577950436622, 3952494.843257483560592 ], [ 642880.389160655089654, 3936270.554129438009113 ], [ 637940.749866420170292, 3935746.951594472397119 ], [ 635313.234034640016034, 3934674.920642767101526 ], [ 634269.083662328543141, 3940858.142491976730525 ], [ 629657.784852859331295, 3940722.896260600537062 ], [ 629584.715487900190055, 3949391.860185181722045 ], [ 613128.332142959930934, 3949267.651975913904607 ], [ 610142.650338228442706, 3952963.643242204096168 ], [ 610399.233936612261459, 3964302.107843549456447 ], [ 612022.128333111992106, 3967361.234007019549608 ], [ 611654.353594511863776, 3973360.796549325808883 ], [ 612956.570266480790451, 3974989.015128815080971 ], [ 610957.049848074559122, 3979644.085758745204657 ], [ 615822.045336714247242, 3987584.544589544646442 ], [ 619098.920878769597039, 3987703.472978819161654 ], [ 614475.519933213712648, 3992719.900246676523238 ] ] ] } },
{ "type": "Feature", "properties": { "drag_region": "Southeast", "NAME": "Covington", "NAMELSAD": "Covington" }, "geometry": { "type": "Polygon", "coordinates": [ [ [ 581946.41165632836055, 3389248.032789938151836 ], [ 601028.759233247488737, 3389507.950291521847248 ], [ 610569.242846170323901, 3389746.25439145648852 ], [ 610956.639892663923092, 3381273.985537448897958 ], [ 614002.845171191380359, 3385290.340701350942254 ], [ 616389.228362596477382, 3385304.448277889285237 ], [ 621813.886804261361249, 3389909.131406522355974 ], [ 622207.933566766907461, 3381817.999443131033331 ], [ 623582.269012938602827, 3380303.609553596470505 ], [ 630064.20428708626423, 3380158.639571419451386 ], [ 631109.270867666346021, 3330748.082865954376757 ], [ 611918.629895101417787, 3330625.396447835490108 ], [ 583475.682461250107735, 3330602.542410209774971 ], [ 582103.187536475132219, 3331265.218131727539003 ], [ 582000.223938043811359, 3369443.848357817158103 ], [ 585406.299781816778705, 3372119.578107384499162 ], [ 584360.449937699595466, 3379543.05754942400381 ], [ 581972.83486587239895, 3379536.296517247334123 ], [ 581946.41165632836055, 3389248.032789938151836 ] ] ] } },
{ "type": "Feature", "properties": { "drag_region": "Southwest", "NAME": "Monroe", "NAMELSAD": "Monroe" }, "geometry": { "type": "Polygon", "coordinates": [ [ [ 401557.247814583068248, 3435319.684143424034119 ], [ 426013.354337730444968, 3435521.445323065854609 ], [ 428729.782963821897283, 3435134.84257821040228 ], [ 457940.238066014018841, 3435404.252743263263255 ], [ 457947.639220724580809, 3426834.702740887645632 ], [ 450129.598726509488188, 3422927.052573554217815 ], [ 444348.560005783452652, 3422928.06769039016217 ], [ 443666.105639709392563, 3418453.258317245636135 ], [ 436176.541482109518256, 3414460.821987381204963 ], [ 433092.704738907108549, 3400944.66784585127607 ], [ 429331.285002078628168, 3394190.974575337488204 ], [ 427284.256861980655231, 3393718.981197004206479 ], [ 420788.869212613790296, 3387831.349808004684746 ], [ 414958.145535368123092, 3378613.119353385642171 ], [ 411536.161679965618532, 3376720.557041601277888 ], [ 408444.643258188385516, 3372257.090512924361974 ], [ 402635.288965082901996, 3372281.137746967375278 ], [ 395782.40279958123574, 3368695.517162752803415 ], [ 390323.470899281499442, 3370628.850014755968004 ], [ 384524.770645080425311, 3372567.142982522025704 ], [ 380795.48042720038211, 3377161.117991789244115 ], [ 376350.322946468484588, 3376524.444851994048804 ], [ 374325.806070047139656, 3380061.765984843950719 ], [ 377424.59195791761158, 3383753.666652301792055 ], [ 380141.738105605938472, 3381640.627813109196723 ], [ 381889.857712028722744, 3388008.892917544115335 ], [ 388388.591591024654917, 3390635.248029855079949 ], [ 389743.944994142395444, 3389008.770050414372236 ], [ 394191.885475180170033, 3391364.884188877418637 ], [ 395582.193403597921133, 3396404.158909173216671 ], [ 390150.241632586403284, 3400527.830756882205606 ], [ 395284.556714499252848, 3404784.847740612924099 ], [ 395367.493822721124161, 3420781.267544340807945 ], [ 400129.498403550882358, 3420757.624677140731364 ], [ 399851.193896103068255, 3433708.941251349635422 ], [ 401557.247814583068248, 3435319.684143424034119 ] ] ] } },
{ "type": "Feature", "properties": { "drag_region": "Northeast", "NAME": "Talladega", "NAMELSAD": "Talladega" }, "geometry": { "type": "Polygon", "coordinates": [ [ [ 605149.08478878159076, 3769395.043329142965376 ], [ 611446.190793874906376, 3776292.60305464733392 ], [ 614070.061176981311291, 3782787.395439667161554 ], [ 618417.10488946759142, 3781008.690451524686068 ], [ 622375.922199107008055, 3786468.094877250026911 ], [ 619672.759764191228896, 3791400.557606325950474 ], [ 622998.926486732205376, 3791997.693735359236598 ], [ 623939.502892632503062, 3799339.780121874064207 ], [ 620918.755777630023658, 3802650.037303789053112 ], [ 626583.730229983106256, 3801552.174689557868987 ], [ 635573.306853694375604, 3800963.965369218029082 ], [ 637597.582113754469901, 3798029.784925904124975 ], [ 637978.096981973852962, 3792984.651751897763461 ], [ 640658.015294921584427, 3791390.907147700432688 ], [ 659311.884390415623784, 3791494.883269778452814 ], [ 659016.39890927192755, 3788252.425566399469972 ], [ 654089.053261579247192, 3781813.886374730616808 ], [ 649087.721373374806717, 3781759.81220969883725 ], [ 649139.957105461042374, 3776806.832091267220676 ], [ 647471.998249911936, 3776789.395685011520982 ], [ 647539.094931452767923, 3770312.48888734402135 ], [ 642546.871136044384912, 3768737.99371363222599 ], [ 642308.064356864662841, 3759019.559595195576549 ], [ 629606.964025511406362, 3759094.23433706862852 ], [ 629367.414065004326403, 3747852.65231220331043 ], [ 624348.068170530255884, 3747906.983080094214529 ], [ 624427.675381847424433, 3737811.357764908578247 ], [ 594956.526468900032341, 3737433.142527430318296 ], [ 597623.102071256376803, 3739922.753128327894956 ], [ 593576.766366791911423, 3745902.992921099066734 ], [ 597578.990305007435381, 3748494.321878417395055 ], [ 596897.330921062501147, 3750967.147534183692187 ], [ 600561.183552205795422, 3753748.541673597879708 ], [ 600207.15702474443242, 3757365.892274509184062 ], [ 603888.133651308016852, 3756624.64429343258962 ], [ 607217.225078720366582, 3758835.226056485436857 ], [ 606187.539323469623923, 3763305.502128211315721 ], [ 608513.732244303682819, 3765224.829574641771615 ], [ 605149.08478878159076, 3769395.043329142965376 ] ] ] } },
{ "type": "Feature", "properties": { "drag_region": "Southeast", "NAME": "Henry", "NAMELSAD": "Henry" }, "geometry": { "type": "Polygon", "coordinates": [ [ [ 741714.554834754555486, 3378099.218633496202528 ], [ 741087.131240532035008, 3421523.913331909105182 ], [ 760144.345845813746564, 3421342.07621527928859 ], [ 761092.723369497340173, 3425739.746314393822104 ], [ 766475.163523018010892, 3429259.504425915889442 ], [ 768534.498552470817231, 3428151.57037938432768 ], [ 768663.977619609097019, 3420627.676801406778395 ], [ 775275.85144599841442, 3412454.967105961870402 ], [ 776501.415188362356275, 3401044.499092444311827 ], [ 774210.704130081576295, 3395573.703786560334265 ], [ 774965.018735341611318, 3391490.522820496931672 ], [ 772367.602452180464752, 3383823.940715230070055 ], [ 772813.101112378761172, 3377830.067137650214136 ], [ 764273.871110145468265, 3377590.3001429294236 ], [ 741714.554834754555486, 3378099.218633496202528 ] ] ] } },
{ "type": "Feature", "properties": { "drag_region": "Southwest", "NAME": "Escambia", "NAMELSAD": "Escambia" }, "geometry": { "type": "Polygon", "coordinates": [ [ [ 397577.161707968916744, 3355367.136061321012676 ], [ 403036.093608268653043, 3353433.803209317848086 ], [ 409888.979773770319298, 3357019.42379353241995 ], [ 478575.120997573132627, 3357035.741225056815892 ], [ 478593.656945181777701, 3348276.509786908980459 ], [ 484746.659567053895444, 3349433.824469621758908 ], [ 484803.791657249908894, 3328202.56868061888963 ], [ 486176.28658202488441, 3327539.892959101125598 ], [ 476923.477152696577832, 3327803.521569733973593 ], [ 440601.219364021846559, 3327985.532316384837031 ], [ 397424.600901661324315, 3327946.722640622872859 ], [ 397577.161707968916744, 3355367.136061321012676 ] ] ] } },
{ "type": "Feature", "properties": { "drag_region": "Northwest", "NAME": "Cullman", "NAMELSAD": "Cullman" }, "geometry": { "type": "Polygon", "coordinates": [ [ [ 462349.541922652977519, 3858885.506761792581528 ], [ 465995.844096665969118, 3858785.615977980196476 ], [ 466034.576122098311316, 3894505.595936616882682 ], [ 524163.080074689176399, 3893384.598827084992081 ], [ 526501.17519363341853, 3888538.637484840117395 ], [ 520556.533232141227927, 3887746.55630956729874 ], [ 513013.181068494624924, 3872949.219711295794696 ], [ 508052.650122110673692, 3871597.587648332584649 ], [ 506736.470887257426511, 3869116.631341953296214 ], [ 503426.214910932292696, 3868725.487217368092388 ], [ 503770.983051355055068, 3864059.087617648299783 ], [ 495507.783823659527116, 3854418.209954826626927 ], [ 492853.592784028791357, 3854984.683452097699046 ], [ 486889.322142481512856, 3850499.337014860939234 ], [ 483240.32686014007777, 3849638.689048821572214 ], [ 483575.23920673772227, 3845638.474381141364574 ], [ 479592.398579352069646, 3843921.747852807864547 ], [ 475608.286690184555482, 3844778.406466840300709 ], [ 475608.451167205581442, 3847350.127709131222218 ], [ 467643.075879048439674, 3847449.225268159527332 ], [ 468640.192426127556246, 3849258.115557502489537 ], [ 465991.937290652131196, 3855166.095991869457066 ], [ 462349.541922652977519, 3858885.506761792581528 ] ] ] } }
]
}
