{
"type": "FeatureCollection",
"name": "map",
"crs": { "type": "name", "properties": { "name": "urn:ogc:def:crs:EPSG::32612" } },
"features": [
{ "type": "Feature", "properties": { "drag_region": "Central", "NAME": "Lincoln", "NAMELSAD": "Lincoln" }, "geometry": { "type": "Polygon", "coordinates": [ [ [ 163573.818279183353297, 4672667.957852016203105 ], [ 235029.180577458348125, 4670067.953047242946923 ], [ 233773.021816924330778, 4631238.095664175227284 ], [ 229666.898098325473256, 4631371.722815023735166 ], [ 229356.955758379190229, 4621926.871162190102041 ], [ 206154.580595016363077, 4622726.751663879491389 ], [ 206330.587585089699132, 4627592.362961410544813 ], [ 181973.924902369675692, 4628612.508469031192362 ], [ 180689.441353152040392, 4633250.505569270811975 ], [ 161917.857870542560704, 4634026.646947417408228 ], [ 163573.818279183353297, 4672667.957852016203105 ] ] ] } },
{ "type": "Feature", "properties": { "drag_region": "North", "NAME": "Benewah", "NAMELSAD": "Benewah" }, "geometry": { "type": "Polygon", "coordinates": [ [ [ -1663.950981133450114, 5383157.876897755078971 ], [ 15672.879712332207419, 5381833.736147447489202 ], [ 15794.382451015866536, 5383456.031757953576744 ], [ 21523.909882416766777, 5383605.398704294115305 ], [ 21403.98226801695273, 5381983.084436242468655 ], [ 29530.126702184781607, 5381388.113936420530081 ], [ 29765.481710401356395, 5384632.795095945708454 ], [ 33130.978133631164383, 5386020.353381241671741 ], [ 52340.859984672388237, 5384572.88448900450021 ], [ 49360.330329862066719, 5341054.284868345595896 ], [ 39816.585917401120241, 5341713.575373197905719 ], [ 39929.987284866096161, 5343335.947149328887463 ], [ 11271.858286129594489, 5344929.254551347345114 ], [ 7019.75339323363005, 5350335.250623799860477 ], [ 3111.943861318686686, 5349384.231672286987305 ], [ 850.317420638915792, 5352052.780659785494208 ], [ 1886.443567456029996, 5354853.006106327287853 ], [ -3453.588238677075424, 5356608.364519306458533 ], [ -2584.562185236725782, 5371325.075357467867434 ], [ -1663.950981133450114, 5383157.876897755078971 ] ] ] } },
{ "type": "Feature", "properties": { "drag_region": "North", "NAME": "Boundary", "NAMELSAD": "Boundary" }, "geometry": { "type": "Polygon", "coordinates": [ [ [ 17174.93289920668758, 5610485.613100105896592 ], [ 62043.801640078643686, 5607187.170625641942024 ], [ 89075.040481769581675, 5605414.790921117179096 ], [ 85398.812415153937764, 5550056.824085999280214 ], [ 31061.55861429880315, 5553723.172770251519978 ], [ 33730.821742493702914, 5592296.662997442297637 ], [ 15829.751988977586734, 5593595.708964672870934 ], [ 17174.93289920668758, 5610485.613100105896592 ] ] ] } },
{ "type": "Feature", "properties": { "drag_region": "Central", "NAME": "Custer", "NAMELSAD": "Custer" }, "geometry": { "type": "Polygon", "coordinates": [ [ [ 151012.655555743025616, 4892849.130087153054774 ], [ 152076.568647708103526, 4891269.043954929336905 ], [ 150126.325811533490196, 4886100.380834920331836 ], [ 158158.301744486088865, 4874922.016658295877278 ], [ 162202.994195754639804, 4876077.539416917599738 ], [ 167114.191917952266522, 4871077.786113207228482 ], [ 166434.898036629892886, 4868621.865279896184802 ], [ 169179.199335735407658, 4866110.828162030316889 ], [ 173589.69204043620266, 4869074.201064568944275 ], [ 178753.188232910179067, 4869713.931966988369823 ], [ 180077.560342444980051, 4874055.427624141797423 ], [ 184161.290453563560732, 4876274.204866744577885 ], [ 185469.306524427724071, 4880330.348969327285886 ], [ 183050.199077022611164, 4883776.88072216603905 ], [ 187115.236872238398064, 4885710.976186405867338 ], [ 188128.434944880427793, 4889588.430892201140523 ], [ 193369.735333380289376, 4892624.745680052787066 ], [ 194623.733548287767917, 4895537.31549830455333 ], [ 200069.12066311435774, 4896754.296290575526655 ], [ 199133.117285074666142, 4887424.644178497605026 ], [ 197857.436119945719838, 4883938.677893468178809 ], [ 204322.759080894174986, 4881870.290667159482837 ], [ 208410.417997200565878, 4884581.001852554269135 ], [ 214163.624228242726531, 4870891.714737315662205 ], [ 216663.142194803513121, 4869080.04417403973639 ], [ 228429.970991852285806, 4854808.343184106051922 ], [ 238605.992715335916728, 4851503.85189853515476 ], [ 240824.781605150958057, 4849425.200807532295585 ], [ 246512.400441919453442, 4848478.44509484898299 ], [ 253294.347141143982299, 4845879.456461448222399 ], [ 257680.257266967091709, 4849089.553200050257146 ], [ 260879.941500694374554, 4841258.579713316634297 ], [ 265816.502333123818971, 4833761.905854606069624 ], [ 267272.208496841369197, 4824457.282113802619278 ], [ 259535.542089265130926, 4824775.976072082296014 ], [ 258966.177604822150897, 4805405.925708658061922 ], [ 255803.785403618472628, 4805499.494532659649849 ], [ 256188.004899909778032, 4789348.379817977547646 ], [ 255201.406444031279534, 4785271.172920130193233 ], [ 258894.591378557495773, 4783252.478259327821434 ], [ 261328.828682772233151, 4777547.837950669229031 ], [ 256129.428410576307215, 4777603.792099187150598 ], [ 255441.886783193331212, 4773899.70897127315402 ], [ 248897.514437849167734, 4767888.87847660575062 ], [ 229747.761230529809836, 4757802.490992235951126 ], [ 226649.236369512858801, 4751888.472414020448923 ], [ 225316.366902910755016, 4755372.291015088558197 ], [ 220586.357575103640556, 4761170.507488680072129 ], [ 212999.938533243257552, 4767838.887143738567829 ], [ 210629.22283546149265, 4774325.628686345182359 ], [ 208638.253629126702435, 4775258.122551007196307 ], [ 205301.325992507452611, 4771081.547870359383523 ], [ 201568.597768119187094, 4771889.846088733524084 ], [ 199686.588568614795804, 4775687.549921406432986 ], [ 189247.507028804509901, 4782399.54543074965477 ], [ 188055.503636830835603, 4788754.460919322445989 ], [ 182515.079671018640511, 4787448.508182408288121 ], [ 178576.066870227863546, 4789999.527007330209017 ], [ 170808.329901116259862, 4790707.448715978302062 ], [ 168825.780669469386339, 4784865.213884253054857 ], [ 164526.697866901056841, 4785719.472544373944402 ], [ 162999.782182587427087, 4790470.342187178321183 ], [ 157115.625494678795803, 4794554.352974151261151 ], [ 146454.444386193936225, 4795038.668838714249432 ], [ 146789.942327817319892, 4802290.666473183780909 ], [ 141896.927820998942479, 4802518.982727153226733 ], [ 133831.350888221117202, 4796782.088247731328011 ], [ 132162.872881854127627, 4798106.052703537978232 ], [ 134353.722257632703986, 4801634.722136690281332 ], [ 133359.058490301889833, 4804934.628849230706692 ], [ 128037.570150244646356, 4808159.387623543851078 ], [ 132323.931122732232325, 4813306.122953807935119 ], [ 128775.955564615564072, 4817305.844613569788635 ], [ 131185.617474222264718, 4819483.259127938188612 ], [ 126212.184795658176881, 4823650.448069615289569 ], [ 124170.203462352466886, 4823082.680088062770665 ], [ 119475.961708217175328, 4826954.71280796919018 ], [ 120257.773554447878269, 4831028.847372286953032 ], [ 119145.847469776359503, 4837399.792721286416054 ], [ 110720.19959033485793, 4840992.860285900533199 ], [ 110232.890351024238043, 4842645.103919154033065 ], [ 114225.254024313719128, 4847699.391496096737683 ], [ 116488.618384656860144, 4858202.833125041797757 ], [ 115520.393414838894387, 4861601.984979048371315 ], [ 112141.943905478299712, 4862639.674042521975935 ], [ 110752.881938157210243, 4868837.130299104377627 ], [ 112658.489893608159036, 4872468.703874376602471 ], [ 119302.946739503138815, 4873940.622164840810001 ], [ 121997.558968726734747, 4876385.470936691388488 ], [ 124643.666149353099172, 4883521.797328009270132 ], [ 123883.322719933479675, 4885378.425550535321236 ], [ 128940.919637284896453, 4889618.646139226853848 ], [ 139185.108050152834039, 4883658.721406319178641 ], [ 143073.406519376439974, 4887487.931239730678499 ], [ 151012.655555743025616, 4892849.130087153054774 ] ] ] } },
{ "type": "Feature", "properties": { "drag_region": "South", "NAME": "Jefferson", "NAMELSAD": "Jefferson" }, "geometry": { "type": "Polygon", "coordinates": [ [ [ 456778.050353873986751, 4824400.839882466942072 ], [ 456976.223153645405546, 4834037.817784629762173 ], [ 500098.170554880867712, 4833195.92200578097254 ], [ 499962.963543209596537, 4823559.026310944929719 ], [ 514358.512847959180363, 4823372.871798446401954 ], [ 514130.60435022355523, 4804099.548883262090385 ], [ 513495.259998555295169, 4799240.444871484301984 ], [ 517846.792645068606362, 4800716.911800905130804 ], [ 525879.383293300750665, 4795001.738560565747321 ], [ 529885.117246367968619, 4790478.19918355345726 ], [ 534783.887931149103679, 4788143.963957705534995 ], [ 542309.03406121651642, 4788083.015289916656911 ], [ 542284.591266585281119, 4784839.138854888267815 ], [ 470181.503226519329473, 4785770.39993632864207 ], [ 455695.012455421965569, 4785669.368921759538352 ], [ 456778.050353873986751, 4824400.839882466942072 ] ] ] } },
{ "type": "Feature", "properties": { "drag_region": "Central", "NAME": "Valley", "NAMELSAD": "Valley" }, "geometry": { "type": "Polygon", "coordinates": [ [ [ 13980.190241604446783, 4884320.806739582680166 ], [ 12322.800359542408842, 4894294.768081840127707 ], [ 15061.93251934593718, 4905905.857728531584144 ], [ 11649.678256514234818, 4915034.886989308521152 ], [ 13138.159019938015263, 4924904.947796614840627 ], [ 16259.826996641102596, 4929208.807286613620818 ], [ 17100.160089280208922, 4933467.04875311627984 ], [ 20462.654367691066, 4937181.938784481026232 ], [ 19271.90902472641028, 4940802.565847603604198 ], [ 23039.018506766980863, 4946504.519092050381005 ], [ 19222.654959933701321, 4948950.139500108547509 ], [ 19122.72829795947473, 4951831.066723240539432 ], [ 21180.699039512182935, 4957449.0980165572837 ], [ 24523.810413505227189, 4956566.7940279468894 ], [ 33159.468879464417114, 4963404.655110662803054 ], [ 32994.373521161367535, 4960732.575283523648977 ], [ 109687.157837673599715, 4956653.151067858561873 ], [ 133650.126728462870233, 4955509.847515822388232 ], [ 131311.079603079590015, 4953800.356622000224888 ], [ 130413.84246963802434, 4934332.296169945970178 ], [ 129151.542308872667491, 4925400.943021750077605 ], [ 129830.36240649606043, 4921640.071335380896926 ], [ 126632.91567339123867, 4920066.282483732327819 ], [ 126176.600681100200745, 4916357.696694325655699 ], [ 122314.017675602037343, 4912808.203263085335493 ], [ 114374.768639235451701, 4907447.004415662959218 ], [ 110486.470170011845767, 4903617.79458225145936 ], [ 100242.281757143893628, 4909577.719315159134567 ], [ 95184.684839792476851, 4905337.498726467601955 ], [ 95945.028269212096347, 4903480.870503941550851 ], [ 93298.921088585731923, 4896344.544112623669207 ], [ 90604.308859362135991, 4893899.69534077309072 ], [ 83959.852013467156212, 4892427.77705030888319 ], [ 82054.244058016207418, 4888796.203475036658347 ], [ 83443.306025337296887, 4882598.747218454256654 ], [ 86821.755534697891562, 4881561.058154980652034 ], [ 87789.980504515857319, 4878161.906300974078476 ], [ 85526.616144172716304, 4867658.464672029018402 ], [ 81534.252470883235219, 4862604.177095086313784 ], [ 77006.734225958338357, 4863800.29753143619746 ], [ 76753.054467881607707, 4859029.002470187842846 ], [ 64579.346759262829437, 4851743.125532852485776 ], [ 16724.422186931406031, 4854832.644864710979164 ], [ 14701.568531809534761, 4845474.655428508296609 ], [ 6950.66630232676107, 4845962.603251573629677 ], [ 8171.46832017552515, 4865143.680850984528661 ], [ 13043.309886197253945, 4864930.764131594449282 ], [ 13980.190241604446783, 4884320.806739582680166 ] ] ] } },
{ "type": "Feature", "properties": { "drag_region": "Central", "NAME": "Gem", "NAMELSAD": "Gem" }, "geometry": { "type": "Polygon", "coordinates": [ [ [ -32520.204131006030366, 4824309.860009059309959 ], [ -25056.293266130553093, 4823817.805882818996906 ], [ -22712.449932772840839, 4837656.746036272495985 ], [ -22954.62408723909175, 4842751.901641726493835 ], [ -20982.206946349469945, 4846552.360990863293409 ], [ -19950.046270621009171, 4853576.831956695765257 ], [ -18068.249628070159815, 4856041.889625988900661 ], [ -13065.400568224897142, 4858018.658932892605662 ], [ -10737.214730134117417, 4863043.78516760841012 ], [ -6256.818391751730815, 4861417.438489269465208 ], [ -7193.698747158923652, 4842027.395881282165647 ], [ -12065.540313180652447, 4842240.312600672245026 ], [ -13286.342331029416528, 4823059.23500126041472 ], [ -18166.556699366192333, 4823371.186415310949087 ], [ -21190.695338852587156, 4785236.9914306756109 ], [ -39965.77448313619243, 4786369.161596948280931 ], [ -55847.436449487984646, 4787449.620407745242119 ], [ -54504.047755206818692, 4806821.92799704708159 ], [ -43282.096833321789745, 4805956.243135223165154 ], [ -43062.245890206540935, 4809200.841531960293651 ], [ -39903.216572067991365, 4808891.632722718641162 ], [ -39472.740496750804596, 4815285.389731511473656 ], [ -33154.286153836175799, 4814766.966526499018073 ], [ -32520.204131006030366, 4824309.860009059309959 ] ] ] } },
{ "type": "Feature", "properties": { "drag_region": "Central", "NAME": "Lemhi", "NAMELSAD": "Lemhi" }, "geometry": { "type": "Polygon", "coordinates": [ [ [ 164659.962481175112771, 4920571.709325724281371 ], [ 168522.545486673276173, 4924121.202756964601576 ], [ 168978.860478964314098, 4927829.788546371273696 ], [ 172176.307212069135858, 4929403.577398019842803 ], [ 171497.487114445742918, 4933164.449084389023483 ], [ 172759.787275211099768, 4942095.802232584916055 ], [ 173657.024408652650891, 4961563.862684639170766 ], [ 175996.071534035931109, 4963273.353578461334109 ], [ 177592.806320240342757, 4967312.546862564049661 ], [ 183534.988855796837015, 4973929.218659837730229 ], [ 178708.629333639430115, 4979406.937607849016786 ], [ 175045.674268592585577, 4985504.679274187423289 ], [ 169358.100385765690589, 4990265.944043080322444 ], [ 169737.188746533851372, 4998282.503016523085535 ], [ 176662.609627642290434, 4996141.501495623029768 ], [ 179919.11232826646301, 4993601.09650965128094 ], [ 182405.593044721725164, 4998843.492804973386228 ], [ 188520.960632776812417, 5003733.130531031638384 ], [ 196062.666383150295587, 5002924.772435568273067 ], [ 199460.236792531708488, 4997042.39228615257889 ], [ 203297.311315943690715, 4994776.965013112872839 ], [ 204556.387259205017472, 4991282.639440181665123 ], [ 211453.889506609615637, 4995013.914807448163629 ], [ 212519.412122854409972, 5000515.123349277302623 ], [ 216116.088427464244887, 4999223.333853668533266 ], [ 221537.595518715912476, 5001494.338906214572489 ], [ 227159.480327385943383, 5009114.422304813750088 ], [ 231481.801798899570713, 5012295.493081782013178 ], [ 231070.218792370433221, 5016229.564544014632702 ], [ 233631.606498313572956, 5017375.843324889428914 ], [ 236910.570354027120629, 5015247.290470104664564 ], [ 240374.564749938814202, 5010438.127471992745996 ], [ 239725.1653224604961, 5007976.991781788878143 ], [ 243089.662282834207872, 5008047.001488934271038 ], [ 247203.007518030382926, 5005512.495665810070932 ], [ 244923.326485598197905, 4996514.86430643312633 ], [ 250249.251833353861002, 4996329.085342212580144 ], [ 250378.54436434773379, 4991929.320732233114541 ], [ 248596.288528844626853, 4989124.320704595185816 ], [ 250093.2027668399096, 4983626.346256400458515 ], [ 252278.625744783465052, 4981736.292797562666237 ], [ 251489.242079820396611, 4975074.93027423042804 ], [ 255254.791386642988073, 4969788.681365985423326 ], [ 255424.966297186823795, 4966439.091944187879562 ], [ 261959.767436610680306, 4959250.845207561738789 ], [ 263711.297516587306745, 4952220.976464094594121 ], [ 268465.182235396001488, 4950638.400434479117393 ], [ 267823.157621357648168, 4948174.75121455732733 ], [ 273076.527842258219607, 4944287.862163058482111 ], [ 274031.554007415834349, 4938432.388950890861452 ], [ 273307.391572109539993, 4933200.770149333402514 ], [ 269305.924588492838666, 4932081.002788270823658 ], [ 272140.225881010293961, 4922729.20351830124855 ], [ 279933.066745164222084, 4917436.172226405702531 ], [ 280958.211527966894209, 4913586.239833369851112 ], [ 288457.001529605709948, 4917576.681158410385251 ], [ 297392.132192298653536, 4911797.033695977181196 ], [ 302239.883511822554283, 4901263.449289496056736 ], [ 303542.141599437745754, 4896456.199677161872387 ], [ 300863.060029625834431, 4891940.752238000743091 ], [ 306655.400208563485648, 4884061.400835378095508 ], [ 305148.875629047281109, 4880852.208274620585144 ], [ 306737.072155522240791, 4875752.579711777158082 ], [ 310929.833287909568753, 4871832.138186658732593 ], [ 316020.582880436675623, 4869421.484081245027483 ], [ 319070.302668319316581, 4865151.289232558570802 ], [ 321691.092551639536396, 4867193.057885848917067 ], [ 321330.228555874084122, 4850876.204389930702746 ], [ 306719.984962185786571, 4851597.090925573371351 ], [ 280919.515422273427248, 4852179.861352373845875 ], [ 279463.809258555877022, 4861484.485093177296221 ], [ 274527.248426126432605, 4868981.158951887860894 ], [ 271327.564192399149761, 4876812.132438621483743 ], [ 266941.65406657604035, 4873602.035700019448996 ], [ 260159.707367351540597, 4876201.024333420209587 ], [ 254472.088530583045213, 4877147.780046103522182 ], [ 252253.299640768003883, 4879226.431137106381357 ], [ 242077.277917284372961, 4882530.922422677278519 ], [ 230310.449120235600276, 4896802.623412610962987 ], [ 227810.931153674784582, 4898614.293975886888802 ], [ 222057.72492263262393, 4912303.581091125495732 ], [ 217970.066006326233037, 4909592.869905730709434 ], [ 211504.743045377777889, 4911661.257132039405406 ], [ 212780.424210506753298, 4915147.223417068831623 ], [ 213716.427588546444895, 4924476.875529146753252 ], [ 208271.040473719825968, 4923259.894736875779927 ], [ 207017.042258812376531, 4920347.324918624013662 ], [ 201775.741870312514948, 4917311.01013077236712 ], [ 200762.543797670485219, 4913433.555424977093935 ], [ 196697.506002454698319, 4911499.459960737265646 ], [ 199116.613449859811226, 4908052.928207898512483 ], [ 197808.597378995647887, 4903996.784105315804482 ], [ 193724.867267877067206, 4901778.00686271302402 ], [ 192400.495158342266222, 4897436.511205559596419 ], [ 187236.998965868289815, 4896796.780303140170872 ], [ 182826.506261167494813, 4893833.407400601543486 ], [ 180082.204962061980041, 4896344.444518467411399 ], [ 180761.498843384353677, 4898800.365351778455079 ], [ 175850.301121186726959, 4903800.118655488826334 ], [ 171805.60866991817602, 4902644.595896867103875 ], [ 163773.632736965577351, 4913822.960073491558433 ], [ 165723.875573140190681, 4918991.623193500563502 ], [ 164659.962481175112771, 4920571.709325724281371 ] ] ] } },
{ "type": "Feature", "properties": { "drag_region": "North", "NAME": "Idaho", "NAMELSAD": "Idaho" }, "geometry": { "type": "Polygon", "coordinates": [ [ [ 20611.83947215993976, 5182121.090738117694855 ], [ 25929.082912199977727, 5185956.904280598275363 ], [ 24088.918519089485926, 5191461.863086370751262 ], [ 28971.124604987177008, 5197153.064597665332258 ], [ 33132.775182134842908, 5196759.734393185004592 ], [ 33411.138716709181608, 5200672.397713095881045 ], [ 36499.81145534200914, 5200932.911188462749124 ], [ 42058.874371023521235, 5196610.87755234260112 ], [ 43739.972351930358855, 5200713.22506342548877 ], [ 44443.447073041774274, 5210828.989179374650121 ], [ 46879.099727858054393, 5209796.966859593056142 ], [ 49649.209618011162092, 5217660.236430753022432 ], [ 51652.993209874628519, 5218481.329095921479166 ], [ 64714.390419824594574, 5214148.801361430436373 ], [ 69292.347482330718776, 5211833.988492492586374 ], [ 73310.496762908849632, 5217992.952527698129416 ], [ 80501.847611876932206, 5217433.677170529961586 ], [ 83692.107855736016063, 5219530.452803206630051 ], [ 77874.549158683192218, 5224118.451832206919789 ], [ 72822.93235443890444, 5236042.903949888423085 ], [ 75728.769498316891259, 5233840.706432829611003 ], [ 79925.448805877618724, 5234431.994192831218243 ], [ 85336.077116441651015, 5227954.181481110863388 ], [ 88526.467477430327563, 5225741.121713059023023 ], [ 96778.475982565287268, 5224558.736175177618861 ], [ 102203.998780614318093, 5222504.280262137763202 ], [ 105594.859429771924624, 5228142.990891811437905 ], [ 107059.513078426272841, 5234089.425268865190446 ], [ 114374.331327624822734, 5240743.042114898562431 ], [ 114885.378912376792869, 5244735.298392207361758 ], [ 195317.68492929750937, 5258337.331250903196633 ], [ 198944.841480639326619, 5259416.152444468811154 ], [ 204924.157194565545069, 5257715.115748927928507 ], [ 206110.99831161138718, 5259671.216224358417094 ], [ 213345.1372546304774, 5261557.407688338309526 ], [ 215500.965489098307444, 5260509.506356921978295 ], [ 216091.137529025319964, 5254938.640847716480494 ], [ 212842.853653894271702, 5243315.063079850748181 ], [ 209526.161344781838125, 5243170.234650536440313 ], [ 211172.193839157524053, 5236501.626043006777763 ], [ 207319.723392870364478, 5230451.85122755356133 ], [ 206564.37993401082349, 5219392.157035444863141 ], [ 202869.953893811412854, 5217258.03909470140934 ], [ 204404.625962178426562, 5214322.194042808376253 ], [ 204353.503020277159521, 5206770.096403999254107 ], [ 199060.202246632397873, 5206332.982308468781412 ], [ 198298.495825522841187, 5201680.865214940160513 ], [ 202874.950647167890565, 5198323.930348439142108 ], [ 200134.769813955848804, 5192897.602003019303083 ], [ 201019.975721891765716, 5187695.040478441864252 ], [ 206189.725578689045506, 5184889.46711424831301 ], [ 204319.966343325184425, 5180284.571730205789208 ], [ 207718.003553149203071, 5174975.946035018190742 ], [ 205589.088580046809511, 5170859.68373166769743 ], [ 198618.504281485307729, 5171066.096280091442168 ], [ 193223.150402770872461, 5162794.211221966892481 ], [ 198215.850384797697188, 5155497.312600386328995 ], [ 197735.962373280635802, 5150928.51300929300487 ], [ 192546.42961874694447, 5147619.561734820716083 ], [ 194632.467079756403109, 5144084.543466876260936 ], [ 192749.727421032526763, 5139577.960033224895597 ], [ 186634.35983297743951, 5134688.322307166643441 ], [ 184147.879116522177355, 5129445.926011844538152 ], [ 180891.37641589800478, 5131986.330997816286981 ], [ 173965.955534789565718, 5134127.332518716342747 ], [ 173586.867174021404935, 5126110.773545273579657 ], [ 179274.441056848299922, 5121349.508776380680501 ], [ 182937.396121895144461, 5115251.767110042273998 ], [ 187763.755644052551361, 5109774.048162030987442 ], [ 181821.573108496057102, 5103157.376364757306874 ], [ 180224.838322291645454, 5099118.183080654591322 ], [ 156261.869431502389489, 5100261.486632690764964 ], [ 79569.085114990157308, 5104340.910848355852067 ], [ 79734.180473293206887, 5107012.990675495006144 ], [ 71098.522007334016962, 5100175.129592779092491 ], [ 67755.410633340972709, 5101057.43358138948679 ], [ 65697.439891788264504, 5095439.402288072742522 ], [ 53003.923298911096936, 5096453.461016598157585 ], [ 54841.866911391050962, 5098537.130285171791911 ], [ 51351.578685518550628, 5114294.575756257399917 ], [ 24322.213614592408703, 5116148.328350247815251 ], [ 25530.866988167828822, 5121241.874050138518214 ], [ 33279.775551299586368, 5135083.02479034755379 ], [ 36238.674316190903482, 5137082.829662967473269 ], [ 36882.949953779541829, 5142312.086123627610505 ], [ 44315.081906621715461, 5152155.895272016525269 ], [ 42709.900537225032167, 5157443.393951840698719 ], [ 39398.688023567279743, 5162370.401117818430066 ], [ 39749.608906262517849, 5167428.252911396324635 ], [ 35603.688750045337656, 5172320.62354882247746 ], [ 30316.301242010165879, 5172885.799256106838584 ], [ 27847.222291005331499, 5177569.870693979784846 ], [ 22794.589097139156365, 5177453.804716913029552 ], [ 20611.83947215993976, 5182121.090738117694855 ] ] ] } },
{ "type": "Feature", "properties": { "drag_region": "South", "NAME": "Cassia", "NAMELSAD": "Cassia" }, "geometry": { "type": "Polygon", "coordinates": [ [ [ 302767.55325904203346, 4603742.326810118742287 ], [ 308405.694331450562458, 4604595.441868916153908 ], [ 311995.224907453928608, 4606000.196798536926508 ], [ 316954.445418176008388, 4604304.550935289822519 ], [ 321159.689462187408935, 4606552.871019907295704 ], [ 324277.71780794300139, 4602631.250472559593618 ], [ 331401.725987437414005, 4603932.364008764736354 ], [ 338255.448757958831266, 4615847.81157198548317 ], [ 345116.235299495863728, 4618793.123796272091568 ], [ 346867.027506227896083, 4618264.295517852529883 ], [ 354865.171528926701285, 4620039.990972558036447 ], [ 360275.273045969195664, 4613398.184202839620411 ], [ 365857.461459378711879, 4612866.383816403336823 ], [ 370866.250662497535814, 4612926.605489030480385 ], [ 370758.273255085747223, 4608729.163030672818422 ], [ 384890.434202379314229, 4608189.246372433379292 ], [ 384503.510963925742544, 4579278.10864563472569 ], [ 383647.039640307542868, 4542744.128994230180979 ], [ 315529.408053538645618, 4543517.630100935697556 ], [ 297411.206093629356474, 4544711.420441132970154 ], [ 277493.364322241803166, 4545542.982202356681228 ], [ 279009.660501739184838, 4592586.257364100776613 ], [ 296726.986037700553425, 4591827.266929367557168 ], [ 297415.665757752838545, 4602692.238677584566176 ], [ 302767.55325904203346, 4603742.326810118742287 ] ] ] } },
{ "type": "Feature", "properties": { "drag_region": "Central", "NAME": "Blaine", "NAMELSAD": "Blaine" }, "geometry": { "type": "Polygon", "coordinates": [ [ [ 140460.753946220909711, 4770067.597800204530358 ], [ 148526.330878998734988, 4775804.492279626429081 ], [ 153419.345385817112401, 4775576.176025656983256 ], [ 153083.847444193728734, 4768324.17839118745178 ], [ 163745.028552678588312, 4767839.862526624463499 ], [ 169629.185240587219596, 4763755.85173965152353 ], [ 171156.10092490084935, 4759004.982096847146749 ], [ 175455.183727469178848, 4758150.723436726257205 ], [ 177437.732959116052371, 4763992.958268451504409 ], [ 185205.469928227656055, 4763285.036559803411365 ], [ 189144.48272901843302, 4760734.017734881490469 ], [ 194684.906694830628112, 4762039.970471795648336 ], [ 195876.910086804302409, 4755685.054983222857118 ], [ 206315.991626614588313, 4748973.059473879635334 ], [ 208198.000826118979603, 4745175.355641206726432 ], [ 211930.729050507216016, 4744367.057422832585871 ], [ 215267.656687126494944, 4748543.632103480398655 ], [ 217258.625893461285159, 4747611.138238818384707 ], [ 219629.341591243050061, 4741124.396696211770177 ], [ 227215.760633103433065, 4734456.017041153274477 ], [ 231945.769960910547525, 4728657.800567561760545 ], [ 233278.639427512651309, 4725173.981966493651271 ], [ 238864.381336000165902, 4727376.10205979924649 ], [ 241160.724530261475593, 4726632.436134175397456 ], [ 243178.464033595984802, 4717207.122466735541821 ], [ 246071.296153589326423, 4716828.312700177542865 ], [ 245615.363250002264977, 4702421.400100293569267 ], [ 267715.162389794306364, 4701663.556457377970219 ], [ 267455.855520752840675, 4692504.443423171527684 ], [ 296286.342594829271547, 4691750.22638750821352 ], [ 295823.963604472461157, 4672478.577583503909409 ], [ 276549.062403609510511, 4672967.556646322831511 ], [ 275769.088685250957496, 4643774.530261270701885 ], [ 276102.43746497342363, 4634218.967566858977079 ], [ 280801.645693528291304, 4634095.92865504976362 ], [ 280552.855546972481534, 4624460.728863219730556 ], [ 275847.085027487308253, 4624583.737698199227452 ], [ 275700.637865756871179, 4619050.691550974734128 ], [ 270118.449452347354963, 4619582.491937411017716 ], [ 264708.347935304860584, 4626224.298707129433751 ], [ 256710.203912606055383, 4624448.603252423927188 ], [ 257294.233812271675561, 4644387.235307866707444 ], [ 261986.928004119603429, 4644251.149387825280428 ], [ 263106.104427705635317, 4683175.769163263961673 ], [ 238609.342104174080305, 4683926.622514400631189 ], [ 184948.35238888382446, 4685880.510764741338789 ], [ 185210.40746930957539, 4692368.482359051704407 ], [ 183462.232742190593854, 4692439.35694991517812 ], [ 184063.906950060743839, 4700060.485026406124234 ], [ 172745.890616382181179, 4701295.07254849281162 ], [ 173634.684315169637557, 4708521.881694328971207 ], [ 172065.351182010956109, 4712698.759772929362953 ], [ 175458.106538022868335, 4717238.63226967677474 ], [ 171205.631782231677789, 4719809.095782784745097 ], [ 168456.382981410657521, 4723464.439752957783639 ], [ 169458.399532248091418, 4726480.125010089017451 ], [ 161787.138080755423289, 4730353.243547040969133 ], [ 163871.268055248830933, 4738100.494353489950299 ], [ 161968.38853085518349, 4740957.439164113253355 ], [ 163961.938164924329612, 4746700.896630896255374 ], [ 161998.113956752349623, 4748126.684857564978302 ], [ 160296.706612713693175, 4755373.650926072150469 ], [ 156715.27195093955379, 4752954.003665840253234 ], [ 153306.702527717978228, 4754352.936045972630382 ], [ 148917.607730008545332, 4753313.130021806806326 ], [ 149624.07257027097512, 4756053.385447785258293 ], [ 138591.231868322822265, 4761262.964806804433465 ], [ 138314.625378307828214, 4767493.238263797946274 ], [ 140460.753946220909711, 4770067.597800204530358 ] ] ] } },
{ "type": "Feature", "properties": { "drag_region": "Central", "NAME": "Gooding", "NAMELSAD": "Gooding" }, "geometry": { "type": "Polygon", "coordinates": [ [ [ 106487.580078102342668, 4675723.895593743771315 ], [ 146449.005336650589015, 4673983.531976658850908 ], [ 144793.044928009796422, 4635342.221072060056031 ], [ 142739.881888274045195, 4635430.229566880501807 ], [ 142075.641867282742169, 4613092.139951870776713 ], [ 131600.609487498004455, 4616225.195706068538129 ], [ 125964.293452931786305, 4615425.905274007469416 ], [ 123274.714252252641018, 4621093.158231378532946 ], [ 122602.485418978598318, 4625713.1384381307289 ], [ 116495.710357767573441, 4627334.198998670093715 ], [ 116438.501102152033127, 4632404.715266413986683 ], [ 119612.437769448486506, 4637420.225011108443141 ], [ 115212.196287523416686, 4643841.364966922439635 ], [ 108747.57588126596238, 4643766.60903759393841 ], [ 104952.103020734837628, 4644237.054480823688209 ], [ 106487.580078102342668, 4675723.895593743771315 ] ] ] } },
{ "type": "Feature", "properties": { "drag_region": "South", "NAME": "Oneida", "NAMELSAD": "Oneida" }, "geometry": { "type": "Polygon", "coordinates": [ [ [ 419973.462237736966927, 4577196.535698079504073 ], [ 448368.406073903490324, 4576777.175772905349731 ], [ 448556.089308584050741, 4586411.601159256882966 ], [ 461550.307801709685009, 4586170.346434799022973 ], [ 461720.362724972132128, 4595804.840074161067605 ], [ 471157.601925046707038, 4595644.524017108604312 ], [ 474304.965395600942429, 4589487.364415192045271 ], [ 478152.387777294439729, 4590095.416789687238634 ], [ 478334.232798600045498, 4582650.520162168890238 ], [ 475311.061081555264536, 4578308.214473242871463 ], [ 475566.570857765676919, 4575728.112650103867054 ], [ 479698.507033253437839, 4575092.502013140358031 ], [ 480933.920391264429782, 4578604.233951205387712 ], [ 486846.427622225484811, 4578519.065167088992894 ], [ 489422.756995521311183, 4572282.170846535824239 ], [ 492071.87441443890566, 4571197.234147157520056 ], [ 496444.889259240881074, 4565893.764308539219201 ], [ 496349.091854491562117, 4558262.926857193931937 ], [ 493089.137598297849763, 4558399.98040976934135 ], [ 492840.149115341540892, 4539227.863179529085755 ], [ 488379.741729708272032, 4539191.696909229271114 ], [ 486008.157119534094818, 4539701.338639363646507 ], [ 419116.99091411876725, 4540662.556046674959362 ], [ 419973.462237736966927, 4577196.535698079504073 ] ] ] } },
{ "type": "Feature", "properties": { "drag_region": "Central", "NAME": "Boise", "NAMELSAD": "Boise" }, "geometry": { "type": "Polygon", "coordinates": [ [ [ -1036.855292746651685, 4818565.217417359352112 ], [ 11594.261305072897812, 4817765.318180244415998 ], [ 13617.114960194769083, 4827123.307616447098553 ], [ 61472.039532526192488, 4824033.788284588605165 ], [ 73645.747241144970758, 4831319.665221923962235 ], [ 73899.426999221701408, 4836090.960283172316849 ], [ 78426.94524414659827, 4834894.839846822433174 ], [ 78914.254483457218157, 4833242.596213568933308 ], [ 87339.90236289871973, 4829649.528648954816163 ], [ 88451.828447570238495, 4823278.583299955353141 ], [ 87670.016601339535555, 4819204.448735637590289 ], [ 92364.258355474827113, 4815332.416015731170774 ], [ 94406.239688780537108, 4815900.183997283689678 ], [ 99379.672367344639497, 4811732.995055606588721 ], [ 96970.010457737924298, 4809555.580541238188744 ], [ 100517.986015854607103, 4805555.858881476335227 ], [ 96231.625043367006583, 4800409.123551212251186 ], [ 101553.113383424264612, 4797184.364776899106801 ], [ 102547.777150755078765, 4793884.45806435868144 ], [ 100356.927774976502405, 4790355.788631206378341 ], [ 96659.183945983502781, 4791492.445629275403917 ], [ 94261.009060914599104, 4789697.334421127103269 ], [ 89026.947519805602496, 4794740.830724842846394 ], [ 87240.68166282956372, 4805067.145825303159654 ], [ 82199.543076478032162, 4807907.676685876213014 ], [ 84614.870724505715771, 4804435.292960656806827 ], [ 76658.168241429928457, 4790015.404440735466778 ], [ 70254.044645873451373, 4789107.603042688220739 ], [ 59095.325215044926153, 4785879.675955389626324 ], [ 55949.559689091547625, 4781266.520287116989493 ], [ 54752.7792143333063, 4775302.501270776614547 ], [ 51318.935236936813453, 4776066.760952887125313 ], [ 47527.105691421922529, 4770439.463798305951059 ], [ 48287.496647215361008, 4768482.44874338246882 ], [ 42104.396704639977543, 4761746.920538019388914 ], [ 35932.924656071554637, 4760472.207327963784337 ], [ 30716.416678528912598, 4755700.107284247875214 ], [ 27149.950211186805973, 4754376.937775217927992 ], [ 19035.839502505521523, 4754859.093350972980261 ], [ 14075.026085751858773, 4759372.983563692308962 ], [ -4060.993932233046507, 4780431.022432724945247 ], [ -1036.855292746651685, 4818565.217417359352112 ] ] ] } },
{ "type": "Feature", "properties": { "drag_region": "South", "NAME": "Bonneville", "NAMELSAD": "Bonneville" }, "geometry": { "type": "Polygon", "coordinates": [ [ [ 488648.237105795065872, 4768951.292203313671052 ], [ 560751.325145861017518, 4768020.031121873296797 ], [ 578991.849743920960464, 4767430.408609928563237 ], [ 591444.169017968815751, 4767382.090979221276939 ], [ 594318.203488635248505, 4758692.142108242958784 ], [ 599538.046177239972167, 4758967.260570428334177 ], [ 606784.876666358788498, 4756000.982237630523741 ], [ 607654.001450075535104, 4753901.540327766910195 ], [ 607625.786361221340485, 4700381.314877199940383 ], [ 563171.409194389474578, 4700644.44428834784776 ], [ 563376.214188674814068, 4729741.437711168080568 ], [ 544447.064631518675014, 4729901.424618535675108 ], [ 544539.209917925298214, 4739250.931777153164148 ], [ 526509.768141596461646, 4739548.227214188314974 ], [ 526860.176318274112418, 4744314.815982916392386 ], [ 521919.840644098236226, 4744378.369081749580801 ], [ 521942.563978704158217, 4746095.661173820495605 ], [ 488240.449171109590679, 4746625.88952147308737 ], [ 488648.237105795065872, 4768951.292203313671052 ] ] ] } },
{ "type": "Feature", "properties": { "drag_region": "North", "NAME": "Shoshone", "NAMELSAD": "Shoshone" }, "geometry": { "type": "Polygon", "coordinates": [ [ [ 88921.694760804472025, 5447469.283334934152663 ], [ 98433.660904475662392, 5432190.755009259097278 ], [ 102334.14967135770712, 5429931.524626512080431 ], [ 103957.315203402366024, 5421397.621928727254272 ], [ 106144.342762991087511, 5421836.254376912489533 ], [ 107749.587595761695411, 5417233.729598010890186 ], [ 111108.068089526379481, 5414728.066226121969521 ], [ 110201.671612894511782, 5408747.971204251982272 ], [ 113117.705417894641869, 5403301.574647132307291 ], [ 109424.185291562636849, 5400460.784095594659448 ], [ 108685.744981207652017, 5397248.708073576912284 ], [ 111627.249306540645193, 5396590.441857291385531 ], [ 112648.809943602886051, 5391068.303983131423593 ], [ 116934.065997440076899, 5390140.525525161996484 ], [ 115997.467599466675892, 5388089.17785729188472 ], [ 110001.197108928230591, 5387684.346327006816864 ], [ 106544.671362076885998, 5384446.61703582201153 ], [ 109533.324976809322834, 5384455.705514522269368 ], [ 121766.611326485814061, 5375392.29308439604938 ], [ 123363.736181977321394, 5370127.450095359236002 ], [ 131800.693045966501813, 5365333.661895793862641 ], [ 138262.846550121670589, 5364013.563702153973281 ], [ 140490.73396474000765, 5359964.978040031157434 ], [ 139747.187575944757555, 5356367.965351331047714 ], [ 142701.140071341593284, 5355535.605468337424099 ], [ 143868.441739434667397, 5351929.91067030094564 ], [ 147066.316680205927696, 5350512.402816607616842 ], [ 151418.949069124180824, 5345110.999099821783602 ], [ 156185.882255272357725, 5337012.223754822276533 ], [ 157525.664545369916596, 5331200.386627785861492 ], [ 161079.299144198477734, 5331113.230898661538959 ], [ 163864.566168891207781, 5326665.223617441020906 ], [ 98037.703550788981374, 5330458.129560651257634 ], [ 59804.341152963119384, 5333036.993108099326491 ], [ 68080.776237290061545, 5453381.938943362794816 ], [ 72695.359729552350473, 5457953.980906378477812 ], [ 75687.743810686806682, 5458516.362179737538099 ], [ 80680.487682617327664, 5452905.355180101469159 ], [ 83979.729652612935752, 5454026.821587756276131 ], [ 88921.694760804472025, 5447469.283334934152663 ] ] ] } },
{ "type": "Feature", "properties": { "drag_region": "Central", "NAME": "Jerome", "NAMELSAD": "Jerome" }, "geometry": { "type": "Polygon", "coordinates": [ [ [ 157228.396680728939828, 4622460.633810929954052 ], [ 178053.143203074170742, 4621596.483937962912023 ], [ 179337.626752291806042, 4616958.48683772329241 ], [ 203694.289435011800379, 4615938.341330102644861 ], [ 203518.282444938493427, 4611072.730032571591437 ], [ 212916.768273578432854, 4610739.306876262649894 ], [ 212032.411061035061721, 4585267.058505021966994 ], [ 206394.269988626532722, 4584413.943446224555373 ], [ 203161.39256406162167, 4584815.852360920980573 ], [ 195653.326484340650495, 4581363.799823690205812 ], [ 191677.65981161117088, 4585619.904909885488451 ], [ 186488.170597298711073, 4588874.196792348288 ], [ 179472.189651982451323, 4590580.12607186473906 ], [ 176050.947389902721625, 4593582.404062396846712 ], [ 168696.231566833681427, 4594071.010713594965637 ], [ 162667.685376790876035, 4598048.051511137746274 ], [ 156564.156659737636801, 4600122.544195920228958 ], [ 157228.396680728939828, 4622460.633810929954052 ] ] ] } },
{ "type": "Feature", "properties": { "drag_region": "North", "NAME": "Kootenai", "NAMELSAD": "Kootenai" }, "geometry": { "type": "Polygon", "coordinates": [ [ [ 2623.613559413286566, 5463098.596119178459048 ], [ 33143.136542844695214, 5460780.70226017665118 ], [ 33255.022695505635056, 5462307.616160911507905 ], [ 42890.674240088141232, 5461609.628836972638965 ], [ 42085.099317210719164, 5450348.379976214841008 ], [ 54964.935214838238608, 5449538.15364514105022 ], [ 51311.944128180613916, 5396570.883030842989683 ], [ 32102.062277139390062, 5398018.351923080161214 ], [ 28736.565853909582074, 5396630.793637784197927 ], [ 28501.210845693007286, 5393386.112478259019554 ], [ 20375.06641152517841, 5393981.082978080958128 ], [ 20494.994025924992457, 5395603.397246132604778 ], [ 14765.466594524092216, 5395454.030299792066216 ], [ 14643.963855840433098, 5393831.734689285978675 ], [ -2692.866837625224434, 5395155.875439593568444 ], [ 2623.613559413286566, 5463098.596119178459048 ] ] ] } },
{ "type": "Feature", "properties": { "drag_region": "Central", "NAME": "Elmore", "NAMELSAD": "Elmore" }, "geometry": { "type": "Polygon", "coordinates": [ [ [ -3489.138224593960331, 4685994.773861162364483 ], [ 19884.468695547999232, 4684658.403292455710471 ], [ 23347.565054692138801, 4737696.601806516759098 ], [ 31461.675763373423251, 4737214.446230761706829 ], [ 35028.142230715529877, 4738537.61573979165405 ], [ 40244.650208258171915, 4743309.715783507563174 ], [ 46416.122256826594821, 4744584.428993563167751 ], [ 52599.222199401978287, 4751319.957198926247656 ], [ 51838.831243608539808, 4753276.972253849729896 ], [ 55630.660789123430732, 4758904.26940843090415 ], [ 59064.504766519923578, 4758140.009726320393384 ], [ 60261.285241278164904, 4764104.02874266076833 ], [ 63407.050767231543432, 4768717.184410933405161 ], [ 74565.770198060068651, 4771945.111498231999576 ], [ 80969.893793616545736, 4772852.912896279245615 ], [ 88926.596276692333049, 4787272.801416200585663 ], [ 86511.268628664649441, 4790745.185141419991851 ], [ 91552.407215016180999, 4787904.654280846938491 ], [ 93338.673071992219775, 4777578.33918038662523 ], [ 98572.734613101216382, 4772534.842876670882106 ], [ 100970.90949817012006, 4774329.954084819182754 ], [ 104668.653327163119684, 4773193.297086750157177 ], [ 106337.131333530109259, 4771869.332630943506956 ], [ 104191.002765617027762, 4769294.973094536922872 ], [ 104467.609255632021814, 4763064.699637543410063 ], [ 101680.79157086093619, 4759278.393376981839538 ], [ 99528.914118159897043, 4750775.078763209283352 ], [ 101968.294772633220418, 4747308.776176101528108 ], [ 99711.582151311144116, 4742636.172597384080291 ], [ 99418.874788537723362, 4736624.759097646921873 ], [ 95573.696908655445441, 4735186.945424723438919 ], [ 93068.93193466005323, 4690068.725766997784376 ], [ 91533.45487729254819, 4658581.884654077701271 ], [ 95328.927737823672942, 4658111.439210847951472 ], [ 94563.909966366118169, 4642177.555731211788952 ], [ 60492.610839629822294, 4643895.690985336899757 ], [ 60982.687438004926662, 4653151.053874455392361 ], [ 62150.957447714099544, 4652993.562043924815953 ], [ 62625.065999338097754, 4661962.714579282328486 ], [ 57619.376462109023123, 4661750.892659017816186 ], [ 55368.329803545129835, 4663594.49761254619807 ], [ 49186.075268960892572, 4663356.811649154871702 ], [ 47831.881154688584502, 4665441.139216538518667 ], [ 41873.658657031410257, 4663953.483319124206901 ], [ 35716.95423311534978, 4664205.046076965518296 ], [ 34177.485171334221377, 4668122.014147556386888 ], [ 29764.016909227517317, 4667992.729977855458856 ], [ 22658.067719551778282, 4672045.719735708087683 ], [ 19522.386753651357139, 4668688.10291426256299 ], [ 19932.822410103850416, 4665695.323117011226714 ], [ 16164.962646362822852, 4666589.708817917853594 ], [ 13184.752643753119628, 4670790.730003522709012 ], [ 5761.85043792273791, 4674307.196958525106311 ], [ 6200.868656203136197, 4676674.83382123708725 ], [ 1329.59282440818788, 4678604.148870592005551 ], [ 2437.687204231726355, 4682271.248664995655417 ], [ -3489.138224593960331, 4685994.773861162364483 ] ] ] } },
{ "type": "Feature", "properties": { "drag_region": "South", "NAME": "Fremont", "NAMELSAD": "Fremont" }, "geometry": { "type": "Polygon", "coordinates": [ [ [ 527112.734565611346625, 4855278.274103892967105 ], [ 536887.44388675969094, 4855148.267595367506146 ], [ 537008.574499093811028, 4864785.291314613074064 ], [ 546768.981857227510773, 4864669.755665393546224 ], [ 546821.936093794298358, 4869440.606791398487985 ], [ 551124.870477888500318, 4869394.237255544401705 ], [ 551848.056879217503592, 4883796.444593077525496 ], [ 556714.003652754123323, 4883747.720045406371355 ], [ 556804.228822951554321, 4893098.890812748111784 ], [ 570523.700968046090566, 4892980.853105771355331 ], [ 570647.804577766801231, 4909393.428142784163356 ], [ 573224.677908640122041, 4910901.280438489280641 ], [ 582331.470948472735472, 4908361.225798708386719 ], [ 578093.590224979328923, 4914494.409936921671033 ], [ 582705.218953212606721, 4923818.299165192991495 ], [ 581586.560819903388619, 4927069.39807447232306 ], [ 586989.620080277207308, 4927230.542042442597449 ], [ 589854.001811373629607, 4931797.178851041011512 ], [ 594103.497366630355828, 4928725.15974266640842 ], [ 602031.724201624048874, 4917533.650380306877196 ], [ 601450.648491555359215, 4913432.002779433503747 ], [ 608278.687357283663005, 4907786.307596039958298 ], [ 609982.634255956974812, 4903107.802054417319596 ], [ 615974.12013888976071, 4900906.839723896235228 ], [ 615680.290720984572545, 4887548.098378146998584 ], [ 615942.504395722411573, 4846423.327695490792394 ], [ 610758.92418589501176, 4844710.907174971885979 ], [ 604703.462028141599149, 4840714.545690414495766 ], [ 600675.343145828112029, 4842537.78278592415154 ], [ 594902.835321393911727, 4839312.850668081082404 ], [ 591458.38738327275496, 4842475.339723400771618 ], [ 587700.725900184479542, 4839725.423275702632964 ], [ 585676.868839935632423, 4838399.707906142808497 ], [ 581364.923771341098472, 4840331.585250589065254 ], [ 577037.021079012891278, 4839403.900292234495282 ], [ 574992.880470769596286, 4835409.883681369014084 ], [ 563747.902769411448389, 4835495.234372681006789 ], [ 563761.589498008368537, 4837117.243797165341675 ], [ 552519.346058120136149, 4837221.643818566575646 ], [ 552552.228450764669105, 4840465.679180465638638 ], [ 541315.467258901335299, 4840589.133079686202109 ], [ 541373.07685868977569, 4845455.223896558396518 ], [ 526977.527553940191865, 4845641.378409056924284 ], [ 527112.734565611346625, 4855278.274103892967105 ] ] ] } },
{ "type": "Feature", "properties": { "drag_region": "North", "NAME": "Bonner", "NAMELSAD": "Bonner" }, "geometry": { "type": "Polygon", "coordinates": [ [ [ 5028.028347446277621, 5489340.622360156849027 ], [ 8413.287153338416829, 5525464.387918915599585 ], [ 11748.302070941877901, 5567546.253577250055969 ], [ 12869.111557076903409, 5578308.149013066664338 ], [ 30770.181310593019589, 5577009.103045836091042 ], [ 28100.918182398119825, 5538435.612818645313382 ], [ 82438.171983253254439, 5534769.264134393073618 ], [ 80073.748403789286385, 5503004.208643806166947 ], [ 78596.009832501687924, 5476453.692529153078794 ], [ 73654.044724310151651, 5483011.230781975202262 ], [ 70354.802754314543563, 5481889.764374320395291 ], [ 65362.058882384022581, 5487500.771373956464231 ], [ 62369.674801249566372, 5486938.390100597403944 ], [ 57755.091308987277444, 5482366.348137581720948 ], [ 56776.285190968352254, 5468241.639939650893211 ], [ 43896.44929334083281, 5469051.866270724684 ], [ 44702.024216218254878, 5480313.115131482481956 ], [ 35066.372671635748702, 5481011.102455421350896 ], [ 34954.48651897480886, 5479484.188554686494172 ], [ 4434.963535543400212, 5481802.08241368830204 ], [ 5028.028347446277621, 5489340.622360156849027 ] ] ] } },
{ "type": "Feature", "properties": { "drag_region": "Central", "NAME": "Camas", "NAMELSAD": "Camas" }, "geometry": { "type": "Polygon", "coordinates": [ [ [ 117223.978101345768664, 4765357.435592356137931 ], [ 128256.818803293921519, 4760147.856233336962759 ], [ 127550.35396303149173, 4757407.600807358510792 ], [ 131939.448760740924627, 4758447.406831524334848 ], [ 135348.018183962500188, 4757048.4744513919577 ], [ 138929.452845736639574, 4759468.121711623854935 ], [ 140630.860189775296021, 4752221.155643116682768 ], [ 142594.684397947276011, 4750795.36741644795984 ], [ 140601.134763878129888, 4745051.909949664957821 ], [ 142504.014288271777332, 4742194.965139041654766 ], [ 140419.884313778369687, 4734447.7143325926736 ], [ 148091.145765271037817, 4730574.595795640721917 ], [ 147089.12921443360392, 4727558.910538509488106 ], [ 149838.378015254624188, 4723903.566568336449564 ], [ 154090.852771045814734, 4721333.103055228479207 ], [ 150698.097415033902507, 4716793.230558481067419 ], [ 152267.430548192583956, 4712616.352479880675673 ], [ 151378.636849405127577, 4705389.543334044516087 ], [ 162696.653183083690237, 4704154.955811957828701 ], [ 162094.978975213540252, 4696533.827735466882586 ], [ 163843.153702332521789, 4696462.953144603408873 ], [ 163581.098621906770859, 4689974.981550293043256 ], [ 145786.726038922031876, 4690621.098104725591838 ], [ 105825.30078037380008, 4692361.461721810512245 ], [ 108330.065754369192291, 4737479.681379536166787 ], [ 112175.243634251470212, 4738917.495052459649742 ], [ 112467.950997024890967, 4744928.908552196808159 ], [ 114724.663618346967269, 4749601.512130914255977 ], [ 112285.282963873643894, 4753067.81471802201122 ], [ 114437.16041657468304, 4761571.129331794567406 ], [ 117223.978101345768664, 4765357.435592356137931 ] ] ] } },
{ "type": "Feature", "properties": { "drag_region": "South", "NAME": "Minidoka", "NAMELSAD": "Minidoka" }, "geometry": { "type": "Polygon", "coordinates": [ [ [ 311411.64878000918543, 4656259.813564660958946 ], [ 325215.538114732073154, 4655793.356219280511141 ], [ 325525.480454678356182, 4665238.207872114144266 ], [ 329631.604173277213704, 4665104.580721265636384 ], [ 330887.762933811231051, 4703934.438104333356023 ], [ 355384.525257342786063, 4703183.584753196686506 ], [ 354265.348833756754175, 4664258.964977758005261 ], [ 349572.654641908826306, 4664395.050897799432278 ], [ 348988.624742243206128, 4644456.418842356652021 ], [ 347237.832535511173774, 4644985.247120776213706 ], [ 340377.045993974141311, 4642039.934896489605308 ], [ 333523.323223452724051, 4630124.487333268858492 ], [ 326399.315043958311435, 4628823.373797063715756 ], [ 323281.286698202718981, 4632744.994344411417842 ], [ 319076.042654191318434, 4630496.674259793944657 ], [ 314116.822143469238654, 4632192.320123041048646 ], [ 310527.291567465814296, 4630787.565193420276046 ], [ 311411.64878000918543, 4656259.813564660958946 ] ] ] } },
{ "type": "Feature", "properties": { "drag_region": "South", "NAME": "Bannock", "NAMELSAD": "Bannock" }, "geometry": { "type": "Polygon", "coordinates": [ [ [ 507625.168757269973867, 4675709.301605155691504 ], [ 508458.293288646265864, 4672168.506139829754829 ], [ 505507.524580218421761, 4670297.831343461759388 ], [ 506059.763477018044796, 4667714.535921349190176 ], [ 502244.444025141652673, 4667096.764258532784879 ], [ 500413.184978149365634, 4661682.918115327134728 ], [ 502662.423154842399526, 4654496.579443112947047 ], [ 500547.932587573770434, 4650040.614341060630977 ], [ 501075.804793799645267, 4645644.501022258773446 ], [ 503644.462246945302468, 4639885.695788709446788 ], [ 507786.47536805307027, 4641931.669450156390667 ], [ 514839.92474968242459, 4641847.044917452149093 ], [ 516842.761118113005068, 4636958.66983025893569 ], [ 516794.784015760058537, 4632666.010127483867109 ], [ 519126.310958524642047, 4630541.485100285150111 ], [ 519014.846091949439142, 4620239.257651761174202 ], [ 521627.342203732230701, 4616300.0966208986938 ], [ 522133.532610436435789, 4608185.910113991238177 ], [ 520656.95205806416925, 4608201.308506199158728 ], [ 520174.276992952101864, 4590462.418932334519923 ], [ 513068.709964367037173, 4590540.932995817624032 ], [ 513106.195869493822102, 4593784.06713130325079 ], [ 501564.942198456672486, 4593926.993548394180834 ], [ 498915.824779539078008, 4595011.930247772485018 ], [ 496339.495406243251637, 4601248.824568325653672 ], [ 490426.988175282196607, 4601333.99335244204849 ], [ 489191.574817271204665, 4597822.261414377018809 ], [ 485059.638641783443745, 4598457.872051340527833 ], [ 484804.128865573031362, 4601037.973874479532242 ], [ 487827.300582617812324, 4605380.279563405551016 ], [ 487645.455561312206555, 4612825.176190923899412 ], [ 483798.033179618709255, 4612217.12381642870605 ], [ 480650.669709064473864, 4618374.28341834526509 ], [ 477701.536970596003812, 4618423.008214835077524 ], [ 478117.53278679336654, 4625667.864203907549381 ], [ 480480.628602860961109, 4626010.445950488559902 ], [ 481205.08862737758318, 4634300.008986225351691 ], [ 477968.47458420926705, 4634353.560689438134432 ], [ 478022.911024483270012, 4637596.952759620733559 ], [ 474828.969090604456142, 4640036.881579166278243 ], [ 474898.157757573702838, 4644043.466037393547595 ], [ 471666.039234158059116, 4644100.055869753472507 ], [ 471779.502632169460412, 4650491.570141064934433 ], [ 470311.716573222831357, 4650517.796979231759906 ], [ 470262.509999590518419, 4664069.483189102262259 ], [ 464823.77197954285657, 4670945.585434676147997 ], [ 460071.633499395975377, 4667505.882725516334176 ], [ 455372.627357734076213, 4666931.353924298658967 ], [ 452374.905305980064441, 4663652.30346570815891 ], [ 451601.014046155207325, 4668726.678872960619628 ], [ 452273.618599869485479, 4672912.111787612549961 ], [ 455203.685314850707073, 4673042.862288097850978 ], [ 459367.943962747754995, 4676395.296678411774337 ], [ 507625.168757269973867, 4675709.301605155691504 ] ] ] } },
{ "type": "Feature", "properties": { "drag_region": "South", "NAME": "Teton", "NAMELSAD": "Teton" }, "geometry": { "type": "Polygon", "coordinates": [ [ [ 594690.669697681907564, 4817729.26763607095927 ], [ 598448.331180770182982, 4820479.184083769097924 ], [ 601892.779118891339749, 4817316.69502844940871 ], [ 607665.286943325540051, 4820541.627146292477846 ], [ 611693.405825639143586, 4818718.390050782822073 ], [ 617748.867983392439783, 4822714.751535340212286 ], [ 622932.448193219956011, 4824427.1720558591187 ], [ 622913.098594353999943, 4790842.478079437278211 ], [ 623191.77537902793847, 4770806.844519262202084 ], [ 622322.650595311075449, 4772906.28642912581563 ], [ 615075.820106192375533, 4775872.564761923626065 ], [ 609855.977417587651871, 4775597.446299738250673 ], [ 606981.942946921219118, 4784287.395170716568828 ], [ 594529.62367287336383, 4784335.712801423855126 ], [ 594690.669697681907564, 4817729.26763607095927 ] ] ] } },
{ "type": "Feature", "properties": { "drag_region": "Central", "NAME": "Payette", "NAMELSAD": "Payette" }, "geometry": { "type": "Polygon", "coordinates": [ [ [ -78639.743586138545652, 4826425.049011494033039 ], [ -43055.931156549209845, 4823769.824569869786501 ], [ -43690.013179379355279, 4814226.931087309494615 ], [ -50008.467522293984075, 4814745.354292321950197 ], [ -50438.943597611170844, 4808351.597283529117703 ], [ -53597.972915749720414, 4808660.80609276983887 ], [ -53817.823858864969225, 4805416.207696033641696 ], [ -65039.774780749998172, 4806281.892557857558131 ], [ -66383.163475031164126, 4786909.584968554787338 ], [ -77753.144400890465477, 4786172.023599409498274 ], [ -81103.16268667440454, 4788041.095996557734907 ], [ -82321.127697234114748, 4791293.679737735539675 ], [ -85777.68947349723021, 4791638.449291443452239 ], [ -85432.782799440043163, 4796410.028972202911973 ], [ -87451.64184197569557, 4796556.326354337856174 ], [ -87167.414618609196623, 4800469.025825744494796 ], [ -83150.601477989999694, 4807948.540604523383081 ], [ -82566.390907412758679, 4812031.297756208106875 ], [ -85509.144399121651077, 4815314.480203012935817 ], [ -85504.849184432430775, 4819343.529108905233443 ], [ -81938.655432539308094, 4820715.538679166696966 ], [ -78639.743586138545652, 4826425.049011494033039 ] ] ] } },
{ "type": "Feature", "properties": { "drag_region": "South", "NAME": "Clark", "NAMELSAD": "Clark" }, "geometry": { "type": "Polygon", "coordinates": [ [ [ 432581.766165360808372, 4877688.168392619118094 ], [ 447192.009759049105924, 4876967.28185697644949 ], [ 447552.873754814558197, 4893284.135352894663811 ], [ 445950.592104240378831, 4898379.703071380034089 ], [ 450386.034935768519063, 4905155.413364992477 ], [ 455284.344772109296173, 4907246.216987141408026 ], [ 460092.196009751700331, 4905046.610266456380486 ], [ 469507.255267460306641, 4904671.40815837495029 ], [ 472604.846755014033988, 4902322.851202570833266 ], [ 474923.397296601266135, 4904189.767121626995504 ], [ 481712.448443460918497, 4900443.93880323972553 ], [ 484068.522923151613213, 4904699.617177822627127 ], [ 484735.55076806031866, 4910510.962039542384446 ], [ 487301.929571639164351, 4910469.031327491626143 ], [ 489920.907316403521691, 4913767.940925126895308 ], [ 494470.954220560321119, 4913029.742420207709074 ], [ 497842.897612465196289, 4909639.354868633672595 ], [ 501846.058422548638191, 4910346.026561538688838 ], [ 504098.812080632487778, 4908215.413766769692302 ], [ 510125.003902259515598, 4910999.748357454314828 ], [ 512961.037130714568775, 4909723.875502905808389 ], [ 516695.946231489011552, 4912065.348132745362818 ], [ 522975.493019518849906, 4912758.914337309077382 ], [ 526620.327910150866956, 4906708.855501238256693 ], [ 535212.588703726534732, 4910445.222898030653596 ], [ 536083.610526863252744, 4912250.830199086107314 ], [ 542915.352826216490939, 4910954.91145100351423 ], [ 542791.249216495780274, 4894542.336413990706205 ], [ 529071.777071401244029, 4894660.374120967462659 ], [ 528981.551901203813031, 4885309.203353625722229 ], [ 524115.605127667193301, 4885357.927901296876371 ], [ 523392.418726338131819, 4870955.72056376375258 ], [ 519089.484342243988067, 4871002.09009961783886 ], [ 519036.530105677200481, 4866231.238973612897098 ], [ 509276.122747543442529, 4866346.774622832424939 ], [ 509154.992135209322441, 4856709.750903586857021 ], [ 456258.335412825632375, 4857681.653190961107612 ], [ 456060.162613054155372, 4848044.675288798287511 ], [ 432165.892595799930859, 4848674.28651107288897 ], [ 432581.766165360808372, 4877688.168392619118094 ] ] ] } },
{ "type": "Feature", "properties": { "drag_region": "South", "NAME": "Power", "NAMELSAD": "Power" }, "geometry": { "type": "Polygon", "coordinates": [ [ [ 414352.463386783609167, 4687474.227905634790659 ], [ 413693.56028067227453, 4659903.30874714627862 ], [ 429236.301884868065827, 4659645.742289016023278 ], [ 431028.148017440107651, 4661134.374280423857272 ], [ 435009.671177015523426, 4669258.450475981459022 ], [ 435783.562436840380542, 4664184.075068728998303 ], [ 438781.284488594392315, 4667463.12552731949836 ], [ 443480.290630256291479, 4668037.654328537173569 ], [ 448232.429110403172672, 4671477.357037696987391 ], [ 453671.16713045083452, 4664601.254792123101652 ], [ 453720.373704083147459, 4651049.568582252599299 ], [ 455188.159763029776514, 4651023.341744085773826 ], [ 455074.696365018375218, 4644631.8274727743119 ], [ 458306.81488843401894, 4644575.237640414386988 ], [ 458237.626221464830451, 4640568.653182187117636 ], [ 461431.568155343644321, 4638128.724362641572952 ], [ 461377.131715069641359, 4634885.332292458973825 ], [ 464613.745758237899281, 4634831.780589246191084 ], [ 463889.285733721335419, 4626542.217553509399295 ], [ 461526.189917653682642, 4626199.635806928388774 ], [ 461110.194101456319913, 4618954.779817855916917 ], [ 454622.087639850215055, 4619066.371078418567777 ], [ 454452.032716587767936, 4609431.877439056523144 ], [ 441457.814223462133668, 4609673.132163514383137 ], [ 441270.130988781573251, 4600038.706777162849903 ], [ 412875.187152615049854, 4600458.066702337004244 ], [ 413262.110391068621539, 4629369.204429135657847 ], [ 399129.949443775112741, 4629909.121087375096977 ], [ 399237.926851186901331, 4634106.563545732758939 ], [ 394229.137648068019189, 4634046.341873105615377 ], [ 394375.58480979851447, 4639579.388020330108702 ], [ 399081.355329283629544, 4639456.379185350611806 ], [ 399330.145475839497522, 4649091.57897718064487 ], [ 394630.93724728457164, 4649214.617888989858329 ], [ 394297.588467562105507, 4658770.180583401583135 ], [ 395077.562185920658521, 4687963.206968453712761 ], [ 414352.463386783609167, 4687474.227905634790659 ] ] ] } },
{ "type": "Feature", "properties": { "drag_region": "North", "NAME": "Lewis", "NAMELSAD": "Lewis" }, "geometry": { "type": "Polygon", "coordinates": [ [ [ 44184.001999702413741, 5258990.008575116284192 ], [ 48462.861020870266657, 5252660.266910424456 ], [ 57012.453328667725145, 5252090.798253748565912 ], [ 58918.719491620540794, 5247364.931360381655395 ], [ 63970.336295864828571, 5235440.479242700152099 ], [ 69787.894992917659692, 5230852.480213699862361 ], [ 66597.634749058575835, 5228755.704581023193896 ], [ 59406.283900090485986, 5229314.979938191361725 ], [ 55388.13461951235513, 5223156.015902985818684 ], [ 50810.177557006238203, 5225470.828771923668683 ], [ 37748.780347056272149, 5229803.356506414711475 ], [ 35744.996755192805722, 5228982.263841246254742 ], [ 32974.886865039698023, 5221118.994270086288452 ], [ 30539.234210223417904, 5222151.016589867882431 ], [ 29835.759489112002484, 5212035.25247391872108 ], [ 28154.661508205164864, 5207932.90496283583343 ], [ 22595.598592523652769, 5212254.938598955981433 ], [ 19506.925853890825238, 5211994.425123589113355 ], [ 19228.562319316486537, 5208081.761803678236902 ], [ 15066.911742168820638, 5208475.092008158564568 ], [ 16996.392015436074871, 5235291.059665997512639 ], [ 18420.911135402908258, 5235764.063281772658229 ], [ 16593.792980085003364, 5245104.853258098475635 ], [ 33996.306484947788704, 5243870.220732954330742 ], [ 35851.95334166642715, 5246618.224022231064737 ], [ 43248.330908534167975, 5245247.607948832213879 ], [ 44076.177052789244044, 5253340.663578988052905 ], [ 40608.871154901389673, 5259330.623620640486479 ], [ 44184.001999702413741, 5258990.008575116284192 ] ] ] } },
{ "type": "Feature", "properties": { "drag_region": "North", "NAME": "Nez Perce", "NAMELSAD": "Nez Perce" }, "geometry": { "type": "Polygon", "coordinates": [ [ [ -12297.529230144755275, 5260013.061915526166558 ], [ -11309.298980998522893, 5272895.75541814416647 ], [ 13183.417434211638465, 5271161.165292418561876 ], [ 15193.650148073786113, 5276003.786280937492847 ], [ 21300.939490098033275, 5280264.341327627189457 ], [ 33929.756607331561099, 5279278.115083202719688 ], [ 33474.250658016935631, 5264734.182163035497069 ], [ 39551.627787544675812, 5264604.334617782384157 ], [ 39297.885641327004123, 5260882.428063314408064 ], [ 35722.754796525980055, 5261223.043108838610351 ], [ 39190.060694413834426, 5255233.083067186176777 ], [ 38362.214550158758357, 5247140.027437030337751 ], [ 30965.836983291017532, 5248510.643510429188609 ], [ 29110.190126572379086, 5245762.640221152454615 ], [ 11707.676621709593746, 5246997.272746296599507 ], [ 13534.79477702749864, 5237656.482769970782101 ], [ 12110.275657060665253, 5237183.479154195636511 ], [ 10180.79538379341102, 5210367.51149635668844 ], [ 5298.589297895719938, 5204676.309985062107444 ], [ 7138.753691006211739, 5199171.351179289631546 ], [ 1821.510250966173771, 5195335.537636809051037 ], [ -2806.653328582535323, 5200951.378502218984067 ], [ -6499.918294764887833, 5211492.13117606099695 ], [ -8890.360702577054326, 5220595.620047894306481 ], [ -10753.575902749500528, 5221791.597014631144702 ], [ -5373.692856022629712, 5230312.353760611265898 ], [ -8410.468906930014782, 5234379.058997629210353 ], [ -7957.037982206449669, 5240391.050778659060597 ], [ -9778.87497586140671, 5245711.534820700064301 ], [ -14103.626483674168412, 5250936.649018752388656 ], [ -12297.529230144755275, 5260013.061915526166558 ] ] ] } },
{ "type": "Feature", "properties": { "drag_region": "Central", "NAME": "Twin Falls", "NAMELSAD": "Twin Falls" }, "geometry": { "type": "Polygon", "coordinates": [ [ [ 107996.790026729155215, 4516281.382083877921104 ], [ 112844.261426770463004, 4617987.612129788845778 ], [ 119308.88183302791731, 4618062.368059117347002 ], [ 123709.12331495298713, 4611641.228103303350508 ], [ 120535.186647656533751, 4606625.71835860889405 ], [ 120592.395903272074065, 4601555.202090865001082 ], [ 126699.170964483098942, 4599934.141530325636268 ], [ 127371.399797757141641, 4595314.161323573440313 ], [ 130060.978998436286929, 4589646.908366202376783 ], [ 135697.295033002505079, 4590446.198798263445497 ], [ 146172.327412787242793, 4587313.14304406568408 ], [ 152275.856129840482026, 4585238.650359283201396 ], [ 158304.402319883287419, 4581261.609561740420759 ], [ 165659.118142952327617, 4580773.002910542301834 ], [ 169080.360405032057315, 4577770.724920010194182 ], [ 176096.341350348317064, 4576064.795640493743122 ], [ 181285.830564660776872, 4572810.503758030943573 ], [ 185261.497237390256487, 4568554.398671835660934 ], [ 192769.563317111227661, 4572006.451209066435695 ], [ 196002.440741676138714, 4571604.542294370010495 ], [ 190650.553240386943799, 4570554.454161835834384 ], [ 189961.873520334658679, 4559689.482413618825376 ], [ 172244.547984373348299, 4560448.472848352044821 ], [ 170728.251804875966627, 4513405.197686607949436 ], [ 144562.279311032383703, 4514457.412070910446346 ], [ 127354.226265076882555, 4516062.534427450969815 ], [ 107996.790026729155215, 4516281.382083877921104 ] ] ] } },
{ "type": "Feature", "properties": { "drag_region": "South", "NAME": "Butte", "NAMELSAD": "Butte" }, "geometry": { "type": "Polygon", "coordinates": [ [ [ 382588.362596171034966, 4852574.226526033133268 ], [ 408388.832136083394289, 4851991.456099232658744 ], [ 407972.958566522516776, 4822977.57421768642962 ], [ 431867.228583776741289, 4822347.96299541182816 ], [ 430784.190685324778315, 4783616.492034704424441 ], [ 430594.976320518937428, 4774361.819546305574477 ], [ 421016.922660049924161, 4774182.511125536635518 ], [ 420806.503958012617659, 4764546.306257905438542 ], [ 411222.487409294059034, 4764762.238309294916689 ], [ 409923.742960322357249, 4746464.499888519756496 ], [ 376142.606562082713936, 4747335.878282928839326 ], [ 376401.913431124179624, 4756494.991317135281861 ], [ 354302.114291332138237, 4757252.834960050880909 ], [ 354758.047194919199683, 4771659.747559934854507 ], [ 351865.215074925858062, 4772038.557326492853463 ], [ 349847.475571591348853, 4781463.870993932709098 ], [ 347551.132377330039162, 4782207.536919556558132 ], [ 341965.390468842524569, 4780005.416826250962913 ], [ 345063.915329859475605, 4785919.435404466465116 ], [ 364213.668537178833503, 4796005.82288883626461 ], [ 370758.040882522996981, 4802016.65338350366801 ], [ 371445.582509905972984, 4805720.736511417664587 ], [ 376644.98278210189892, 4805664.782362899743021 ], [ 374210.745477887161542, 4811369.422671558335423 ], [ 370517.560543360945303, 4813388.117332360707223 ], [ 371504.158999239443801, 4817465.324230208061635 ], [ 371119.939502948138397, 4833616.438944890163839 ], [ 374282.331704151816666, 4833522.870120888575912 ], [ 374851.696188594796695, 4852892.920484312810004 ], [ 382588.362596171034966, 4852574.226526033133268 ] ] ] } },
{ "type": "Feature", "properties": { "drag_region": "North", "NAME": "Clearwater", "NAMELSAD": "Clearwater" }, "geometry": { "type": "Polygon", "coordinates": [ [ [ 49390.027911849647353, 5286186.162578822113574 ], [ 58997.772701994610543, 5285430.834541406482458 ], [ 61314.660611803737993, 5319500.958662397228181 ], [ 99548.023009629599983, 5316922.095114949159324 ], [ 165374.885627731826389, 5313129.189171738922596 ], [ 167761.595994062168756, 5311573.527908915653825 ], [ 166327.394035213364987, 5304851.719279251992702 ], [ 170425.086308379977709, 5299001.650192330591381 ], [ 179469.18186160796904, 5293011.621063028462231 ], [ 177571.687689188373042, 5287841.106828973628581 ], [ 179139.803126041748328, 5286139.417710574343801 ], [ 186209.25370488644694, 5290300.779785359278321 ], [ 190167.979132098465925, 5286769.068657867610455 ], [ 188349.465795229043579, 5283122.684633056633174 ], [ 191987.627012621815084, 5278459.8256452139467 ], [ 111555.320995701098582, 5264857.792786518111825 ], [ 111044.273410949128447, 5260865.536509209312499 ], [ 103729.455161750578554, 5254211.919663175940514 ], [ 102264.801513096230337, 5248265.485286122187972 ], [ 98873.940863938623806, 5242626.774656448513269 ], [ 93448.418065889592981, 5244681.230569488368928 ], [ 85196.409560754633276, 5245863.61610736977309 ], [ 82006.019199765956728, 5248076.675875421613455 ], [ 76595.390889201924438, 5254554.48858714196831 ], [ 72398.711581641196972, 5253963.200827140361071 ], [ 69492.874437763210153, 5256165.398344199173152 ], [ 67586.608274810394505, 5260891.26523756608367 ], [ 59037.015967012943293, 5261460.733894241973758 ], [ 54758.156945845090377, 5267790.475558933801949 ], [ 55011.899092062762065, 5271512.382113401778042 ], [ 48934.521962535021885, 5271642.229658654890954 ], [ 49390.027911849647353, 5286186.162578822113574 ] ] ] } },
{ "type": "Feature", "properties": { "drag_region": "Central", "NAME": "Adams", "NAMELSAD": "Adams" }, "geometry": { "type": "Polygon", "coordinates": [ [ [ -54396.835414218978258, 4960652.248274840414524 ], [ -53613.049025424261345, 4963665.519509396515787 ], [ -49670.913233827654039, 4967220.749140579253435 ], [ -45279.856408495135838, 4981199.939728937111795 ], [ -18250.491337568993913, 4979346.18713494669646 ], [ -14760.203111696493579, 4963588.741663861088455 ], [ -16598.146724176447606, 4961505.072395287454128 ], [ -3904.630131299287314, 4960491.013666762039065 ], [ -3804.703469325060723, 4957610.086443630047143 ], [ 11.660077508218819, 4955164.466035571880639 ], [ -3755.449404532351764, 4949462.512791125103831 ], [ -2564.704061567696044, 4945841.885728002525866 ], [ -5927.198339978553122, 4942126.995696637779474 ], [ -6767.531432617659448, 4937868.754230135120451 ], [ -9889.199409320746781, 4933564.894740136340261 ], [ -11377.680172744527226, 4923694.833932830020785 ], [ -7965.425909912824864, 4914565.804672053083777 ], [ -10704.558069716353202, 4902954.71502536162734 ], [ -9047.168187654315261, 4892980.7536831041798 ], [ -13527.564526036701864, 4894607.100361442193389 ], [ -15855.750364127481589, 4889581.974126726388931 ], [ -20858.599423972744262, 4887605.204819823615253 ], [ -29427.687794582772767, 4888167.396231832914054 ], [ -38783.47169222109369, 4894066.937295925803483 ], [ -37850.296690442279214, 4907808.82947054784745 ], [ -43831.004408634296851, 4908218.197643050923944 ], [ -45176.520308386738179, 4913584.838056471198797 ], [ -43819.883878550637746, 4933148.014905522577465 ], [ -65643.260823301883647, 4934988.996089180000126 ], [ -62571.349258713278687, 4938027.475683906115592 ], [ -59551.546339550142875, 4944332.279497316107154 ], [ -61132.968715805473039, 4950010.604568250477314 ], [ -59931.490250781440409, 4954816.021232425235212 ], [ -54396.835414218978258, 4960652.248274840414524 ] ] ] } },
{ "type": "Feature", "properties": { "drag_region": "South", "NAME": "Bear Lake", "NAMELSAD": "Bear Lake" }, "geometry": { "type": "Polygon", "coordinates": [ [ [ 619806.166348462225869, 4597648.102536609396338 ], [ 619774.3629312699195, 4540798.809374912641943 ], [ 581724.889098889543675, 4540635.924811774864793 ], [ 581176.80028578278143, 4548365.362997307442129 ], [ 574073.754728853120469, 4551750.195026038214564 ], [ 575293.662457567290403, 4556511.100607358850539 ], [ 573523.584427558118477, 4557858.906897159293294 ], [ 572084.235907244030386, 4563783.423259721137583 ], [ 573004.065636078245007, 4568069.272531460039318 ], [ 577468.34193949890323, 4571472.501024917699397 ], [ 575405.111017958610319, 4572726.46453433483839 ], [ 575138.27078219212126, 4576925.492233980447054 ], [ 578114.269661421072669, 4579767.216483421623707 ], [ 574302.245867608580738, 4584181.100013115443289 ], [ 574321.120409960392863, 4586851.953499380499125 ], [ 576104.083009359543212, 4588461.247887761332095 ], [ 571496.747500563156791, 4604043.50047680363059 ], [ 574458.898947171750478, 4606311.364740157499909 ], [ 593601.022370840073563, 4606201.98367730807513 ], [ 600654.946857301867567, 4601977.769427779130638 ], [ 603912.381886514136568, 4607595.793086265213788 ], [ 605375.479276775149629, 4604157.698634684085846 ], [ 604463.003998515661806, 4593762.658594759181142 ], [ 609772.194465402862988, 4593177.68463892582804 ], [ 618625.707966366782784, 4596218.032112018205225 ], [ 619806.166348462225869, 4597648.102536609396338 ] ] ] } },
{ "type": "Feature", "properties": { "drag_region": "South", "NAME": "Franklin", "NAMELSAD": "Franklin" }, "geometry": { "type": "Polygon", "coordinates": [ [ [ 514928.055226980533917, 4569365.947613941505551 ], [ 526469.30889801774174, 4569223.021196850575507 ], [ 526431.822992890956812, 4565979.88706136494875 ], [ 533537.390021475963295, 4565901.37299788184464 ], [ 534020.065086588030681, 4583640.262571746483445 ], [ 558235.237756033893675, 4583331.743817696347833 ], [ 558216.363213682197966, 4580660.890331431291997 ], [ 562028.387007494689897, 4576247.006801737472415 ], [ 559052.388128265738487, 4573405.282552296295762 ], [ 559319.228364032227546, 4569206.254852650687099 ], [ 561382.459285572520457, 4567952.291343233548105 ], [ 556918.182982151862234, 4564549.062849775888026 ], [ 555998.353253317647614, 4560263.213578036986291 ], [ 557437.701773631735705, 4554338.697215475142002 ], [ 559207.77980364090763, 4552990.890925674699247 ], [ 557987.872074926737696, 4548229.985344354063272 ], [ 565090.917631856398657, 4544845.153315623290837 ], [ 565639.006444963044487, 4537115.715130090713501 ], [ 515696.329927883169148, 4537396.576646313071251 ], [ 515945.31841083947802, 4556568.693876553326845 ], [ 519205.272667033190373, 4556431.640323977917433 ], [ 519301.070071782509331, 4564062.477775323204696 ], [ 514928.055226980533917, 4569365.947613941505551 ] ] ] } },
{ "type": "Feature", "properties": { "drag_region": "North", "NAME": "Latah", "NAMELSAD": "Latah" }, "geometry": { "type": "Polygon", "coordinates": [ [ [ -4168.764642029927927, 5348131.26854863204062 ], [ 1171.267164103177493, 5346375.91013565286994 ], [ 135.141017286063288, 5343575.684689111076295 ], [ 2396.767457965834183, 5340907.135701612569392 ], [ 6304.576989880777546, 5341858.154653125442564 ], [ 10556.681882776741986, 5336452.158580672927201 ], [ 39214.810881513243658, 5334858.85117865446955 ], [ 39101.409514048267738, 5333236.479402523487806 ], [ 48645.153926509214216, 5332577.188897671177983 ], [ 45664.157791860008729, 5288772.697374304756522 ], [ 23427.595884481517714, 5290514.251656144857407 ], [ 17320.306542457270552, 5286253.696609455160797 ], [ 15310.073828595122905, 5281411.075620936229825 ], [ -9182.642586615038454, 5283145.665746661834419 ], [ -4168.764642029927927, 5348131.26854863204062 ] ] ] } },
{ "type": "Feature", "properties": { "drag_region": "Central", "NAME": "Owyhee", "NAMELSAD": "Owyhee" }, "geometry": { "type": "Polygon", "coordinates": [ [ [ -82236.277041796114645, 4723968.711221604607999 ], [ -77420.136025998959667, 4722180.312376049347222 ], [ -76806.08384490890603, 4718586.728574112057686 ], [ -73590.028878956960398, 4714711.061157001182437 ], [ -65961.078799806753523, 4711389.407773529179394 ], [ -63461.704488485687762, 4705460.678387170657516 ], [ -63834.080842041163123, 4700116.56519241258502 ], [ -56007.305458358649048, 4690851.318082880228758 ], [ -51872.222038039690233, 4687214.919013723731041 ], [ -48861.549588906564168, 4679822.718636830337346 ], [ -43442.748879321894492, 4677736.633543604053557 ], [ -36427.798191253779805, 4677659.556468047201633 ], [ -33091.1697654651216, 4670447.920852456241846 ], [ -33945.2463388346805, 4666286.760936175473034 ], [ -30086.794757860232494, 4662493.719310024753213 ], [ -27464.641892402010853, 4657632.04461161699146 ], [ -24884.101237568465876, 4656702.508702318184078 ], [ -18957.275808742779191, 4652978.983506151475012 ], [ -20065.370188566317665, 4649311.883711747825146 ], [ -15194.094356771369348, 4647382.568662392906845 ], [ -15633.112575051767635, 4645014.931799680925906 ], [ -8210.210369221385918, 4641498.464844678528607 ], [ -5230.000366611682693, 4637297.443659073673189 ], [ -1462.14060287065513, 4636403.057958167046309 ], [ -1872.576259323148406, 4639395.837755418382585 ], [ 1263.104706577272736, 4642753.454576863907278 ], [ 8369.053896253011771, 4638700.46481901127845 ], [ 12782.522158359715831, 4638829.748988712206483 ], [ 14321.991220140844234, 4634912.780918121337891 ], [ 20478.695644056904712, 4634661.218160280026495 ], [ 26436.918141714078956, 4636148.874057694338262 ], [ 27791.112255986387026, 4634064.546490310691297 ], [ 33973.366790570624289, 4634302.232453702017665 ], [ 36224.413449134517577, 4632458.627500173635781 ], [ 41230.102986363592208, 4632670.449420438148081 ], [ 40755.994434739593999, 4623701.296885080635548 ], [ 39587.724425030421116, 4623858.788715611211956 ], [ 39097.647826655316749, 4614603.425826492719352 ], [ 73168.946953391612624, 4612885.290572367608547 ], [ 69086.493324807859608, 4527112.944006092846394 ], [ 46189.836292410924216, 4528231.819831986911595 ], [ -40944.76403745826974, 4533169.805862853303552 ], [ -94752.520105973861064, 4537141.707064773887396 ], [ -95638.069218779317453, 4537300.128813991323113 ], [ -82236.277041796114645, 4723968.711221604607999 ] ] ] } },
{ "type": "Feature", "properties": { "drag_region": "South", "NAME": "Madison", "NAMELSAD": "Madison" }, "geometry": { "type": "Polygon", "coordinates": [ [ [ 533227.309978882432915, 4818140.405677361413836 ], [ 544464.071170745766722, 4818016.951778140850365 ], [ 544431.188778101350181, 4814772.916416241787374 ], [ 555673.432217989466153, 4814668.516394840553403 ], [ 555659.745489392546006, 4813046.506970356218517 ], [ 566904.723190750693902, 4812961.156279044225812 ], [ 568948.863798993988894, 4816955.17288990970701 ], [ 573276.766491322312504, 4817882.857848264276981 ], [ 577588.711559916846454, 4815950.980503818020225 ], [ 579612.568620165577158, 4817276.695873377844691 ], [ 579451.522595357033424, 4783883.141038730740547 ], [ 561210.997997296974063, 4784472.763550675474107 ], [ 561235.440791928209364, 4787716.639985703863204 ], [ 553710.294661860796623, 4787777.588653492741287 ], [ 548811.523977079661563, 4790111.823879340663552 ], [ 544805.79002401244361, 4794635.363256352953613 ], [ 536773.199375780299306, 4800350.536496692337096 ], [ 532421.666729266988114, 4798874.069567271508276 ], [ 533057.011080935248174, 4803733.173579049296677 ], [ 533227.309978882432915, 4818140.405677361413836 ] ] ] } },
{ "type": "Feature", "properties": { "drag_region": "South", "NAME": "Bingham", "NAMELSAD": "Bingham" }, "geometry": { "type": "Polygon", "coordinates": [ [ [ 426429.338840678334236, 4678011.962814826518297 ], [ 427550.620937146479264, 4724854.530777319334447 ], [ 432501.270261309691705, 4724737.369418573565781 ], [ 433800.014710281393491, 4743035.107839348725975 ], [ 443384.031258999952115, 4742819.175787959247828 ], [ 443594.449961037258618, 4752455.380655590444803 ], [ 453172.503621506271884, 4752634.689076359383762 ], [ 453361.717986312112771, 4761889.361564758233726 ], [ 467848.208757409476675, 4761990.392579327337444 ], [ 467440.420822724001482, 4739664.989897486753762 ], [ 501142.535630318569019, 4739134.761549834161997 ], [ 501119.812295712647028, 4737417.469457763247192 ], [ 506060.147969888523221, 4737353.916358930058777 ], [ 505709.739793210872449, 4732587.327590201981366 ], [ 523739.181569539709017, 4732290.03215316683054 ], [ 523647.036283133144025, 4722940.5249945493415 ], [ 542576.185840289341286, 4722780.53808718174696 ], [ 542371.380846003885381, 4693683.544664361514151 ], [ 503769.604448136349674, 4694349.727275856770575 ], [ 455512.379653614130802, 4695035.722349112853408 ], [ 451348.12100571708288, 4691683.287958798930049 ], [ 448418.054290735861287, 4691552.537458313629031 ], [ 447745.449737021583132, 4687367.104543661698699 ], [ 443763.926577446167357, 4679243.028348104096949 ], [ 441972.080444874125533, 4677754.396356696262956 ], [ 426429.338840678334236, 4678011.962814826518297 ] ] ] } },
{ "type": "Feature", "properties": { "drag_region": "Central", "NAME": "Washington", "NAMELSAD": "Washington" }, "geometry": { "type": "Polygon", "coordinates": [ [ [ -74370.021380211110227, 4919163.458168774843216 ], [ -52546.644435459864326, 4917322.476985117420554 ], [ -53903.280865295964759, 4897759.300136066973209 ], [ -52557.764965543523431, 4892392.659722646698356 ], [ -46577.057247351505794, 4891983.291550142690539 ], [ -47510.23224913032027, 4878241.399375520646572 ], [ -38154.448351491999347, 4872341.858311427757144 ], [ -29585.359980881970841, 4871779.666899418458343 ], [ -31467.156623432820197, 4869314.609230125322938 ], [ -32499.317299161280971, 4862290.13826429285109 ], [ -34471.734440050902776, 4858489.678915156051517 ], [ -34229.560285584651865, 4853394.523309702053666 ], [ -36573.403618942364119, 4839555.583156248554587 ], [ -44037.314483817841392, 4840047.63728248886764 ], [ -79621.126913407177199, 4842702.861724114045501 ], [ -79695.122651442477945, 4845681.886281473562121 ], [ -84741.888158775866032, 4847678.36237757652998 ], [ -84946.537945400632452, 4852778.04136941768229 ], [ -90764.090370532940142, 4852053.922890106216073 ], [ -94931.153661563585047, 4858024.88406209461391 ], [ -100553.77883457246935, 4856047.65419396944344 ], [ -104202.411016669531818, 4861123.229359099641442 ], [ -101328.8609942754847, 4864840.230666963383555 ], [ -105117.75945575744845, 4871751.778276450932026 ], [ -102568.930975704628509, 4875012.688771985471249 ], [ -102944.963971001794562, 4881376.561189392581582 ], [ -97460.330181117809843, 4885566.61124068684876 ], [ -94133.744365737249609, 4891649.802952842786908 ], [ -91159.6186457540025, 4900735.296143554151058 ], [ -86514.695430706255138, 4909312.516352532431483 ], [ -77079.632857473101467, 4913317.178980818018317 ], [ -74370.021380211110227, 4919163.458168774843216 ] ] ] } },
{ "type": "Feature", "properties": { "drag_region": "Central", "NAME": "Ada", "NAMELSAD": "Ada" }, "geometry": { "type": "Polygon", "coordinates": [ [ [ -36629.39863502017397, 4766816.796223361045122 ], [ -17854.319490736568696, 4765684.626057089306414 ], [ 281.700527248336584, 4744626.587188056670129 ], [ 5242.513944001999334, 4740112.696975337341428 ], [ 1779.417584857859765, 4687074.498461276292801 ], [ -21594.189335284099798, 4688410.869029982946813 ], [ -24174.729990117644775, 4689340.404939281754196 ], [ -26796.882855575866415, 4694202.079637689515948 ], [ -30655.334436550314422, 4697995.12126384023577 ], [ -29801.257863180755521, 4702156.281180121004581 ], [ -33137.886288969413727, 4709367.916795711964369 ], [ -40152.836977037528413, 4709444.993871268816292 ], [ -39204.010548027566983, 4728168.210614713840187 ], [ -36009.146964810483041, 4727956.824380189180374 ], [ -34723.688615913721151, 4747424.175919611006975 ], [ -37909.220023843852687, 4747635.623983755707741 ], [ -36629.39863502017397, 4766816.796223361045122 ] ] ] } },
{ "type": "Feature", "properties": { "drag_region": "Central", "NAME": "Canyon", "NAMELSAD": "Canyon" }, "geometry": { "type": "Polygon", "coordinates": [ [ [ -86544.431499766651541, 4783542.864961741492152 ], [ -84525.572457230999134, 4783396.567579606547952 ], [ -84870.479131288186181, 4778624.987898847088218 ], [ -81413.917355025070719, 4778280.218345139175653 ], [ -80195.952344465360511, 4775027.634603961370885 ], [ -76845.934058681421448, 4773158.562206813134253 ], [ -65475.953132822120097, 4773896.123575958423316 ], [ -49594.29116647032788, 4772815.664765161462128 ], [ -50874.112555294006597, 4753634.492525556124747 ], [ -47688.581147363875061, 4753423.044461411423981 ], [ -48974.039496260636952, 4733955.69292198959738 ], [ -52168.903079477720894, 4734167.079156514257193 ], [ -53117.729508487682324, 4715443.862413069233298 ], [ -58536.530218072352, 4717529.947506295517087 ], [ -61547.202667205478065, 4724922.147883188910782 ], [ -65682.28608752443688, 4728558.546952345408499 ], [ -73509.061471206950955, 4737823.794061877764761 ], [ -73136.685117651475593, 4743167.907256635837257 ], [ -75636.059428972541355, 4749096.636642994359136 ], [ -83265.00950812274823, 4752418.290026466362178 ], [ -86481.064474074693862, 4756293.957443577237427 ], [ -87095.116655164747499, 4759887.541245514526963 ], [ -91911.257670961902477, 4761675.940091069787741 ], [ -90873.100902136764489, 4775895.344829847104847 ], [ -89884.329990053607617, 4781483.647273631766438 ], [ -86544.431499766651541, 4783542.864961741492152 ] ] ] } },
{ "type": "Feature", "properties": { "drag_region": "South", "NAME": "Caribou", "NAMELSAD": "Caribou" }, "geometry": { "type": "Polygon", "coordinates": [ [ [ 526702.613423008588143, 4677892.436303595080972 ], [ 565304.389820876065642, 4677226.253692099824548 ], [ 609758.766987708047964, 4676963.124280951917171 ], [ 609741.542242954485118, 4644051.863179503940046 ], [ 609434.615331750479527, 4620872.073487817309797 ], [ 608254.156949655036442, 4619442.003063226118684 ], [ 599400.643448691116646, 4616401.655590133741498 ], [ 594091.452981803915463, 4616986.6295459670946 ], [ 595003.928260063403286, 4627381.669585891999304 ], [ 593540.830869802390225, 4630819.764037473127246 ], [ 590283.395840590121225, 4625201.740378987044096 ], [ 583229.471354128327221, 4629425.954628515988588 ], [ 564087.347930460004136, 4629535.335691365413368 ], [ 561125.196483851410449, 4627267.471428011544049 ], [ 565732.531992647796869, 4611685.218838969245553 ], [ 563949.56939324864652, 4610075.924450588412583 ], [ 541210.977276175050065, 4610369.044812430627644 ], [ 540704.786869470844977, 4618483.231319338083267 ], [ 538092.29075768799521, 4622422.392350200563669 ], [ 538203.755624263198115, 4632724.619798724539578 ], [ 535872.228681498672813, 4634849.144825923256576 ], [ 535920.205783851561137, 4639141.804528698325157 ], [ 533917.369415421038866, 4644030.17961589153856 ], [ 526863.920033791684546, 4644114.804148595780134 ], [ 522721.906912683858536, 4642068.830487148836255 ], [ 520153.249459538201336, 4647827.635720698162913 ], [ 519625.377253312326502, 4652223.749039500020444 ], [ 521739.867820580955595, 4656679.714141552336514 ], [ 519490.629643887921702, 4663866.052813766524196 ], [ 521321.888690880208742, 4669279.898956972174346 ], [ 525137.208142756600864, 4669897.670619788579643 ], [ 524584.969245956977829, 4672480.966041901148856 ], [ 527535.73795438488014, 4674351.640838269144297 ], [ 526702.613423008588143, 4677892.436303595080972 ] ] ] } }
]
}
