{
"type": "FeatureCollection",
"name": "map",
"crs": { "type": "name", "properties": { "name": "urn:ogc:def:crs:EPSG::32612" } },
"features": [
{ "type": "Feature", "properties": { "drag_region": "East", "NAME": "Natrona", "NAMELSAD": "Natrona" }, "geometry": { "type": "Polygon", "coordinates": [ [ [ 908898.126071503269486, 4770302.48365930467844 ], [ 943146.327881648670882, 4771722.355591693893075 ], [ 943186.518661853857338, 4770863.601472320966423 ], [ 996883.215934414416552, 4773591.766488845460117 ], [ 1026768.979341846657917, 4775488.350887632928789 ], [ 1027200.759805747540668, 4773119.969637381844223 ], [ 1031744.437794069061056, 4696018.72815469186753 ], [ 1031456.330207806779072, 4695906.118265860714018 ], [ 1033687.671638837666251, 4657642.695988313294947 ], [ 988518.526346087572165, 4654877.279586037620902 ], [ 913199.674438805202954, 4651780.226891822181642 ], [ 911324.903015028452501, 4690407.306328401900828 ], [ 914852.451225632801652, 4690457.314388146623969 ], [ 913246.637934724451043, 4729002.643522765487432 ], [ 912078.699432811466977, 4728953.929038245230913 ], [ 910481.04856191878207, 4767214.453845905140042 ], [ 908898.126071503269486, 4770302.48365930467844 ] ] ] } },
{ "type": "Feature", "properties": { "drag_region": "East", "NAME": "Converse", "NAMELSAD": "Converse" }, "geometry": { "type": "Polygon", "coordinates": [ [ [ 1086366.725978188216686, 4776536.028726768679917 ], [ 1091005.149726911913604, 4776908.426523420028389 ], [ 1117993.176373994909227, 4778677.72606572508812 ], [ 1167027.795694664120674, 4782285.501577707007527 ], [ 1181533.976245885714889, 4783432.892460878007114 ], [ 1187309.585932048037648, 4704413.46267242077738 ], [ 1187938.585440260358155, 4703883.525199607945979 ], [ 1189337.50602714647539, 4684605.618430336937308 ], [ 1156964.612370479851961, 4681953.116456269286573 ], [ 1158569.836488229222596, 4662600.786598718725145 ], [ 1154434.652741355355829, 4662322.710332410410047 ], [ 1152478.284250534605235, 4656057.475768293254077 ], [ 1153199.365701450966299, 4649683.4198580654338 ], [ 1151934.890886870212853, 4646340.611552555114031 ], [ 1139507.554080579895526, 4645432.510822092182934 ], [ 1132293.740879944525659, 4646695.761167116463184 ], [ 1131778.606260906904936, 4654806.898620122112334 ], [ 1135030.363786902278662, 4655014.322568359784782 ], [ 1136128.203415039926767, 4661025.526617556810379 ], [ 1093285.418275179108605, 4658690.373827449046075 ], [ 1091054.076844148337841, 4696953.796104996465147 ], [ 1091342.184430410619825, 4697066.405993827618659 ], [ 1086798.506442089099437, 4774167.647476517595351 ], [ 1086366.725978188216686, 4776536.028726768679917 ] ] ] } },
{ "type": "Feature", "properties": { "drag_region": "Central", "NAME": "Park", "NAMELSAD": "Park" }, "geometry": { "type": "Polygon", "coordinates": [ [ [ 452359.260077606712002, 5187934.319602634757757 ], [ 472726.554093076381832, 5188051.151727120392025 ], [ 478954.023432746937033, 5186925.481154416687787 ], [ 503001.587832720775623, 5187248.658055858686566 ], [ 506107.704991783306468, 5188035.843152326531708 ], [ 518842.321042938099708, 5187671.600542740896344 ], [ 525906.643082630238496, 5188508.740711618214846 ], [ 550519.529293575906195, 5188635.406826911494136 ], [ 605387.600524509209208, 5190162.362116844393313 ], [ 608515.056326053920202, 5189568.012818696908653 ], [ 643310.687344345147721, 5190495.138614411465824 ], [ 643730.677728145732544, 5176180.661032972857356 ], [ 645998.884419415728189, 5176247.53745099902153 ], [ 647150.165754733374342, 5137313.508218109607697 ], [ 648576.387942530680448, 5137355.708078345283866 ], [ 649734.64339598803781, 5098232.805160240270197 ], [ 651743.368918085237965, 5098292.394833722151816 ], [ 652039.036265192436986, 5088368.847056032158434 ], [ 632493.709926197305322, 5087911.471514363773167 ], [ 633047.289771442301571, 5077995.817665817216039 ], [ 622973.552891718340106, 5077733.492097090929747 ], [ 623502.793263076106086, 5068199.232794258743525 ], [ 609091.022131335339509, 5067850.54193788766861 ], [ 609024.875573891331442, 5058207.102055546827614 ], [ 591426.774700041045435, 5057347.88844224344939 ], [ 587032.674174176645465, 5060505.09030014462769 ], [ 584347.254600562038831, 5065034.174299986101687 ], [ 578160.184542590286583, 5072075.743196309544146 ], [ 575298.903313982766122, 5070973.617382943630219 ], [ 571236.04931255185511, 5072619.579838793724775 ], [ 566104.600688810343854, 5069382.608912101015449 ], [ 562458.553877280093729, 5063119.498281496576965 ], [ 563072.303282496053725, 5060838.881061112508178 ], [ 557620.076746112317778, 5058844.455148216336966 ], [ 553337.515996876289137, 5055631.025109839625657 ], [ 548110.201407060958445, 5057751.403553032316267 ], [ 547783.31290758959949, 5060514.352423971518874 ], [ 550654.700803165440448, 5061509.011261433362961 ], [ 550320.078255031490698, 5064748.927886199206114 ], [ 546798.747618169290945, 5069184.995664726942778 ], [ 547620.808470025658607, 5072250.149175452068448 ], [ 536395.006086568697356, 5071626.935697792097926 ], [ 533446.610900032916106, 5077412.7846848545596 ], [ 531713.497783427708782, 5077965.228743965737522 ], [ 531583.04060918930918, 5089319.650155550800264 ], [ 525800.766189623973332, 5092786.494875563308597 ], [ 527189.568888878100552, 5097095.677388402633369 ], [ 523910.793554439966101, 5108894.006853726692498 ], [ 519579.781337410386186, 5112476.674521122127771 ], [ 517230.806624499091413, 5118752.468011118471622 ], [ 511745.482485828746576, 5124810.548632347024977 ], [ 513373.363575309922453, 5134558.530038120225072 ], [ 511919.903203995141666, 5137695.006199005059898 ], [ 505064.218109244073275, 5139357.076794124208391 ], [ 505046.826555735256989, 5141647.242528406903148 ], [ 482252.504769134626258, 5141418.781776398420334 ], [ 482214.737598615640309, 5150674.944789003580809 ], [ 451485.431079730391502, 5150622.546521400101483 ], [ 451216.937659406277817, 5172952.597443224862218 ], [ 451510.547716569970362, 5187839.406967447139323 ], [ 452359.260077606712002, 5187934.319602634757757 ] ] ] } },
{ "type": "Feature", "properties": { "drag_region": "West", "NAME": "Lincoln", "NAMELSAD": "Lincoln" }, "geometry": { "type": "Polygon", "coordinates": [ [ [ 267133.097904298338108, 4623375.864336356520653 ], [ 267440.024815502343699, 4646555.654028043150902 ], [ 267474.57095413521165, 4712379.886892080307007 ], [ 286102.609963392023928, 4712204.868687832728028 ], [ 286121.89190594170941, 4703523.309908174909651 ], [ 305356.782889696129132, 4703593.239005379378796 ], [ 305417.92615572741488, 4691477.398906373418868 ], [ 304542.054035375302192, 4691473.039520961232483 ], [ 304730.786789269826841, 4652932.849288294091821 ], [ 301794.761495931248646, 4652919.142907707951963 ], [ 301829.166579907468986, 4645192.308997480198741 ], [ 304474.546292805403937, 4645204.5861213831231 ], [ 304614.326776754169259, 4616205.93764201272279 ], [ 308746.572685377963353, 4616227.029702213592827 ], [ 308848.912604580225889, 4597245.064507206901908 ], [ 336374.327696077350993, 4597351.775971775874496 ], [ 349108.38318570581032, 4596813.991722751408815 ], [ 349404.51073201111285, 4570106.403790505602956 ], [ 350027.448933243227657, 4567537.684890939854085 ], [ 350555.481896915764082, 4519943.832223622128367 ], [ 305972.204174961952958, 4519684.761977610178292 ], [ 267374.534836609789636, 4519696.337395342066884 ], [ 267101.294487106089946, 4566526.571174659766257 ], [ 267133.097904298338108, 4623375.864336356520653 ] ] ] } },
{ "type": "Feature", "properties": { "drag_region": "West", "NAME": "Sublette", "NAMELSAD": "Sublette" }, "geometry": { "type": "Polygon", "coordinates": [ [ [ 333505.697855939972214, 4713162.110780187882483 ], [ 333413.212372121168301, 4731479.060651471838355 ], [ 352339.3946839554701, 4731601.193094020709395 ], [ 352263.700175081379712, 4741236.905717920511961 ], [ 375524.392718274029903, 4741459.818388549610972 ], [ 375996.063830482307822, 4751102.314162255264819 ], [ 399807.208120907656848, 4751225.209426801651716 ], [ 399968.166946913814172, 4740444.405679574236274 ], [ 404912.084474245202728, 4740519.961462552659214 ], [ 404682.287340758368373, 4736603.835935022681952 ], [ 406755.588721009320579, 4734346.211922232992947 ], [ 405088.083664005040191, 4729262.301731245592237 ], [ 407190.972833959385753, 4725287.537123301066458 ], [ 408759.038954357150942, 4718441.925391093827784 ], [ 413815.448659870657139, 4712799.532752462662756 ], [ 417134.781815295573324, 4706653.268828356638551 ], [ 417225.364387402660213, 4701406.276484513655305 ], [ 421323.862264863564633, 4701287.36827349383384 ], [ 429957.900277237640694, 4693525.934149030596018 ], [ 431994.947268937947229, 4694233.124236597679555 ], [ 435982.131764847435988, 4685245.053734924644232 ], [ 445529.154945889953524, 4677710.900293342769146 ], [ 443534.24211919947993, 4674805.668148877099156 ], [ 446764.568879583501257, 4674874.014373778365552 ], [ 452126.646241699927486, 4671554.823949891142547 ], [ 451938.216845474555157, 4666778.499671495519578 ], [ 456938.676208796794526, 4666795.296622470021248 ], [ 457891.537844049511477, 4637897.473143553361297 ], [ 459956.074612873722799, 4638040.163814693689346 ], [ 460390.419727310421877, 4619152.653784452006221 ], [ 419241.129144579172134, 4618328.518782089464366 ], [ 377196.154885918367654, 4618498.703596565872431 ], [ 364462.099396289908327, 4619036.487845590338111 ], [ 336936.684304792783223, 4618929.776381021365523 ], [ 336834.344385590520687, 4637911.741576028056443 ], [ 332702.098476966726594, 4637890.649515827186406 ], [ 332562.317993017961271, 4666889.297995197586715 ], [ 329916.93828012002632, 4666877.020871294662356 ], [ 329882.533196143805981, 4674603.854781522415578 ], [ 332818.558489482384175, 4674617.561162108555436 ], [ 332629.825735587859526, 4713157.751394775696099 ], [ 333505.697855939972214, 4713162.110780187882483 ] ] ] } },
{ "type": "Feature", "properties": { "drag_region": "East", "NAME": "Albany", "NAMELSAD": "Albany" }, "geometry": { "type": "Polygon", "coordinates": [ [ [ 1088375.667362148873508, 4581917.281778507865965 ], [ 1130923.122369868215173, 4584235.262368370778859 ], [ 1129825.282741730799899, 4578224.058319173753262 ], [ 1126573.525215735659003, 4578016.634370936080813 ], [ 1127088.659834773279727, 4569905.496917930431664 ], [ 1134302.473035408649594, 4568642.246572906151414 ], [ 1146729.809841698501259, 4569550.34730336908251 ], [ 1147994.284656279254705, 4572893.15560887940228 ], [ 1147273.203205363359302, 4579267.211519107222557 ], [ 1149229.571696184109896, 4585532.446083224378526 ], [ 1153364.755443057511002, 4585810.522349532693624 ], [ 1156819.195226022973657, 4547793.816365448758006 ], [ 1159434.741813405416906, 4499752.631228229030967 ], [ 1163410.109025469515473, 4439727.199570813216269 ], [ 1164572.395770544651896, 4426673.159524125978351 ], [ 1126825.747194484807551, 4424097.270859146490693 ], [ 1087554.884172218851745, 4421920.008821602910757 ], [ 1076671.900241428986192, 4421518.870780423283577 ], [ 1074000.381442182697356, 4465486.345030755735934 ], [ 1095313.639820453245193, 4466670.63293379265815 ], [ 1094060.177748990710825, 4483351.154849381186068 ], [ 1090693.202083179727197, 4541936.927640334703028 ], [ 1090308.036237422842532, 4543446.458903197199106 ], [ 1088375.667362148873508, 4581917.281778507865965 ] ] ] } },
{ "type": "Feature", "properties": { "drag_region": "East", "NAME": "Platte", "NAMELSAD": "Platte" }, "geometry": { "type": "Polygon", "coordinates": [ [ [ 1214871.062082778662443, 4636187.050838381052017 ], [ 1234311.21631295629777, 4637622.957943877205253 ], [ 1242234.904929749900475, 4531397.57809420209378 ], [ 1190173.378914209315553, 4528124.327885459177196 ], [ 1187557.832326826639473, 4576165.513022678904235 ], [ 1184103.392543861409649, 4614182.219006762839854 ], [ 1182498.168426112039015, 4633534.548864313401282 ], [ 1214871.062082778662443, 4636187.050838381052017 ] ] ] } },
{ "type": "Feature", "properties": { "drag_region": "Central", "NAME": "Crook", "NAMELSAD": "Crook" }, "geometry": { "type": "Polygon", "coordinates": [ [ [ 1089293.207070253556594, 5216120.049713106825948 ], [ 1136833.972330512478948, 5219595.704191165044904 ], [ 1169375.230039862915874, 5222216.62439928483218 ], [ 1170832.130789889954031, 5208594.534085330553353 ], [ 1177418.266874697059393, 5131484.747735422104597 ], [ 1151872.109559184173122, 5129462.673011631704867 ], [ 1095673.745406903559342, 5124581.377356155775487 ], [ 1095359.213106211740524, 5124942.367013880982995 ], [ 1092273.310040450189263, 5163571.122278194874525 ], [ 1090174.904160746140406, 5192391.128987357951701 ], [ 1091033.722754491260275, 5192357.920839236117899 ], [ 1089293.207070253556594, 5216120.049713106825948 ] ] ] } },
{ "type": "Feature", "properties": { "drag_region": "East", "NAME": "Goshen", "NAMELSAD": "Goshen" }, "geometry": { "type": "Polygon", "coordinates": [ [ [ 1269556.985198602313176, 4636546.408763875253499 ], [ 1319020.632881514029577, 4640736.763714298605919 ], [ 1328524.796829145634547, 4524380.684497683309019 ], [ 1278506.049501395085827, 4520512.546972665935755 ], [ 1277480.673815395915881, 4530321.028914200142026 ], [ 1269556.985198602313176, 4636546.408763875253499 ] ] ] } },
{ "type": "Feature", "properties": { "drag_region": "Central", "NAME": "Johnson", "NAMELSAD": "Johnson" }, "geometry": { "type": "Polygon", "coordinates": [ [ [ 839556.441500264685601, 5129846.604207971133292 ], [ 904570.562724811723456, 5132686.281988518312573 ], [ 914231.076690043555573, 5133795.349708036519587 ], [ 947570.67094528384041, 5135943.839970389381051 ], [ 947292.482046433724463, 5131137.490945073775947 ], [ 949671.871121169999242, 5092107.495239869691432 ], [ 952590.551619594218209, 5053494.684941996820271 ], [ 951724.526280998252332, 5053442.366158109158278 ], [ 953906.291132813086733, 5017180.859853657893836 ], [ 949267.867384089389816, 5016808.462057006545365 ], [ 919382.103976657148451, 5014911.877658219076693 ], [ 865685.406704096589237, 5012183.712641694582999 ], [ 863708.265113083878532, 5048142.924435719847679 ], [ 862553.533833136316389, 5048088.715243427082896 ], [ 860727.949121749727055, 5086925.280579368583858 ], [ 859293.025063197826967, 5086857.773643773049116 ], [ 858467.753870041109622, 5104415.753465309739113 ], [ 854908.811128510627896, 5106926.884505804628134 ], [ 857090.118051583645865, 5109324.051251471973956 ], [ 853784.569193663075566, 5112612.469662339426577 ], [ 853254.949028444709256, 5117847.584705325774848 ], [ 850157.087598994723521, 5116748.103625643067062 ], [ 845171.462645093910396, 5119389.419665506109595 ], [ 845841.77806219807826, 5123531.540004078298807 ], [ 839556.441500264685601, 5129846.604207971133292 ] ] ] } },
{ "type": "Feature", "properties": { "drag_region": "West", "NAME": "Sweetwater", "NAMELSAD": "Sweetwater" }, "geometry": { "type": "Polygon", "coordinates": [ [ [ 411518.887204633792862, 4569258.31259906757623 ], [ 453563.861463294597343, 4569088.127784591168165 ], [ 494713.152046025847085, 4569912.26278695371002 ], [ 544452.020514169125818, 4571135.027480538934469 ], [ 620253.550075627979822, 4573631.431007853709161 ], [ 621039.692397747887298, 4554360.464065778069198 ], [ 622524.212716240552254, 4554421.078920906409621 ], [ 624173.686058276682161, 4506614.633591508492827 ], [ 589215.583209426375106, 4504900.333930333144963 ], [ 590223.405266187735833, 4476569.711667067371309 ], [ 591123.683931192266755, 4476601.713346316479146 ], [ 592686.717013943940401, 4432533.584226485341787 ], [ 570653.273020558641292, 4431597.360682441852987 ], [ 497593.179873881745152, 4429600.199774038977921 ], [ 456540.293431024299935, 4428606.504781966097653 ], [ 413372.296758179087192, 4427914.542589031159878 ], [ 412965.985915843746625, 4492388.153099938295782 ], [ 412437.9529521712102, 4539982.0057672560215 ], [ 411815.014750939095393, 4542550.72466682177037 ], [ 411518.887204633792862, 4569258.31259906757623 ] ] ] } },
{ "type": "Feature", "properties": { "drag_region": "West", "NAME": "Teton", "NAMELSAD": "Teton" }, "geometry": { "type": "Polygon", "coordinates": [ [ [ 262365.000210036756471, 4950931.781287647783756 ], [ 293094.306728922063485, 4950984.179555251263082 ], [ 293132.073899441049434, 4941728.016542646102607 ], [ 315926.395686041680165, 4941956.477294654585421 ], [ 315943.787239550496452, 4939666.311560371890664 ], [ 322799.472334301564842, 4938004.240965252742171 ], [ 324252.932705616345629, 4934867.764804367907345 ], [ 322625.051616135169752, 4925119.783398594707251 ], [ 328110.375754805514589, 4919061.702777366153896 ], [ 330459.350467716809362, 4912785.909287369810045 ], [ 334790.362684746389277, 4909203.241619974374771 ], [ 338069.13801918446552, 4897404.912154650315642 ], [ 336680.335319930338301, 4893095.72964181099087 ], [ 342462.609739495674148, 4889628.884921798482537 ], [ 342593.066913734073751, 4878274.463510213419795 ], [ 343127.730178714264184, 4856809.870133119635284 ], [ 343572.176969572668895, 4817978.620771383866668 ], [ 343100.505857364390977, 4808336.124997678212821 ], [ 319839.813314171740785, 4808113.21232704911381 ], [ 319915.507823045831174, 4798477.499703149311244 ], [ 300989.325511211529374, 4798355.367260600440204 ], [ 301020.66772899904754, 4792154.25748832244426 ], [ 281785.776745244627818, 4792084.328391117975116 ], [ 281766.494802694884129, 4800765.887170775793493 ], [ 263138.455793438130058, 4800940.905375023372471 ], [ 263149.349488412961364, 4821548.159063001163304 ], [ 262870.672703739139251, 4841583.792623176239431 ], [ 262890.022302604978904, 4875168.48659959807992 ], [ 262627.808627867139876, 4916293.25728225428611 ], [ 262921.638045772328041, 4929651.998628003522754 ], [ 262365.000210036756471, 4950931.781287647783756 ] ] ] } },
{ "type": "Feature", "properties": { "drag_region": "Central", "NAME": "Sheridan", "NAMELSAD": "Sheridan" }, "geometry": { "type": "Polygon", "coordinates": [ [ [ 786494.366465705330484, 5201962.081637668423355 ], [ 847602.556545894127339, 5204491.997291467152536 ], [ 851581.507282434613444, 5204300.692343650385737 ], [ 916384.264134179218672, 5207479.623522515408695 ], [ 935057.030637065763585, 5208601.099615980871022 ], [ 936840.355882899137214, 5193479.972268745303154 ], [ 937866.371711563086137, 5176779.781519771553576 ], [ 939413.038211522158235, 5160878.044384659267962 ], [ 906073.443956281873398, 5158729.554122306406498 ], [ 896412.929991050041281, 5157620.486402788199484 ], [ 831398.808766503003426, 5154780.808622241020203 ], [ 830093.465884718694724, 5158451.767665849067271 ], [ 822876.174698263523169, 5160334.421899506822228 ], [ 818067.392712173867039, 5166055.235016908496618 ], [ 810811.397843174752779, 5169191.341579041443765 ], [ 806615.897477924008854, 5167297.854653554968536 ], [ 805961.356506699463353, 5169374.030502907000482 ], [ 800777.917040925472975, 5170789.529717908240855 ], [ 799988.288280943059362, 5176301.620243712328374 ], [ 793605.306665310170501, 5179490.399639080278575 ], [ 794673.576821670518257, 5181252.503483012318611 ], [ 791027.841714047011919, 5187322.811747391708195 ], [ 791711.669229506165721, 5191650.110157309100032 ], [ 789018.32150827627629, 5195273.294434159994125 ], [ 788529.64729077834636, 5200606.503348401747644 ], [ 786494.366465705330484, 5201962.081637668423355 ] ] ] } },
{ "type": "Feature", "properties": { "drag_region": "East", "NAME": "Niobrara", "NAMELSAD": "Niobrara" }, "geometry": { "type": "Polygon", "coordinates": [ [ [ 1234096.592828615335748, 4799041.748565519228578 ], [ 1302270.893147419206798, 4804887.744455344043672 ], [ 1304479.130699325585738, 4782006.064188402146101 ], [ 1310803.924522965447977, 4705840.736590897664428 ], [ 1261340.276840053731576, 4701650.381640474312007 ], [ 1241900.122609876096249, 4700214.474534978158772 ], [ 1240501.202022990211844, 4719492.381304249167442 ], [ 1239872.202514777658507, 4720022.318777061998844 ], [ 1234096.592828615335748, 4799041.748565519228578 ] ] ] } },
{ "type": "Feature", "properties": { "drag_region": "West", "NAME": "Uinta", "NAMELSAD": "Uinta" }, "geometry": { "type": "Polygon", "coordinates": [ [ [ 266377.366454076603986, 4430764.887105205096304 ], [ 266696.618646674673073, 4467196.3326669735834 ], [ 305294.287985026836395, 4467184.757249241694808 ], [ 349877.565706980647519, 4467443.827495253644884 ], [ 350283.876549315988086, 4402970.21698434650898 ], [ 334588.593534085666761, 4402530.104870676063001 ], [ 294436.998054163181223, 4402384.195802255533636 ], [ 266361.921345793874934, 4402536.594817055389285 ], [ 266377.366454076603986, 4430764.887105205096304 ] ] ] } },
{ "type": "Feature", "properties": { "drag_region": "Central", "NAME": "Washakie", "NAMELSAD": "Washakie" }, "geometry": { "type": "Polygon", "coordinates": [ [ [ 720407.00328124104999, 5076454.475651838816702 ], [ 786699.451002521556802, 5078670.639973387122154 ], [ 834059.12614066794049, 5080541.479097543284297 ], [ 835884.710852054529823, 5041704.913761601783335 ], [ 837039.442132002091967, 5041759.122953894548118 ], [ 838976.392942809616216, 5006658.66527924221009 ], [ 799794.83980287972372, 5005034.908786506392062 ], [ 799133.472353053977713, 5021160.090205673128366 ], [ 789290.577652966952883, 5020763.110789746046066 ], [ 788908.706590948277153, 5030400.125708085484803 ], [ 769537.102463237708434, 5029755.650420680642128 ], [ 769189.714466009521857, 5039201.836018646135926 ], [ 751581.536176313180476, 5038577.142487243749201 ], [ 750605.166600554133765, 5041791.765560771338642 ], [ 740801.847126044449396, 5041274.283820281736553 ], [ 740596.703715106938034, 5047571.742026401683688 ], [ 730796.245797820971347, 5047259.57519465405494 ], [ 730775.074704397353344, 5057191.880989962257445 ], [ 725885.115183215937577, 5056945.589317400939763 ], [ 725585.469294531969354, 5066773.609649828635156 ], [ 720702.670628348249011, 5066530.927874148823321 ], [ 720407.00328124104999, 5076454.475651838816702 ] ] ] } },
{ "type": "Feature", "properties": { "drag_region": "West", "NAME": "Fremont", "NAMELSAD": "Fremont" }, "geometry": { "type": "Polygon", "coordinates": [ [ [ 415501.503879993048031, 4826488.953931573778391 ], [ 417234.616996598255355, 4825936.50987246260047 ], [ 420183.012183134036604, 4820150.660885400138795 ], [ 431408.814566590997856, 4820773.874363060109317 ], [ 430586.753714734630194, 4817708.720852334983647 ], [ 434108.084351596829947, 4813272.653073807246983 ], [ 434442.706899730779696, 4810032.73644904140383 ], [ 431571.319004154938739, 4809038.077611579559743 ], [ 431898.207503626297694, 4806275.128740640357137 ], [ 437125.522093441628385, 4804154.750297447666526 ], [ 441408.082842677657027, 4807368.180335824377835 ], [ 446860.309379061392974, 4809362.606248720549047 ], [ 446246.559973845432978, 4811643.223469104617834 ], [ 449892.606785375683103, 4817906.334099709056318 ], [ 455024.055409117194358, 4821143.305026401765645 ], [ 459086.90941054810537, 4819497.342570551671088 ], [ 461948.190639155625831, 4820599.468383917585015 ], [ 468135.26069712737808, 4813557.899487594142556 ], [ 470820.680270741984714, 4809028.81548775266856 ], [ 475214.780796606384683, 4805871.613629851490259 ], [ 481683.588473326351959, 4800470.147071887739003 ], [ 487042.044815481000114, 4793427.146359355188906 ], [ 487237.716683420178015, 4784553.968669810332358 ], [ 506351.929959866625722, 4785002.458709385246038 ], [ 506392.298138766142074, 4783380.48075012024492 ], [ 515951.77281681628665, 4783625.19150832016021 ], [ 516037.10711250215536, 4780381.233920065686107 ], [ 525891.073891425039619, 4780647.623885083012283 ], [ 525736.108203098876402, 4775773.652020940557122 ], [ 535594.487263633869588, 4776149.49652854166925 ], [ 535689.099187226267532, 4772905.545179835520685 ], [ 545264.762716902187094, 4773191.576937241479754 ], [ 545363.947922430699691, 4769947.623646005056798 ], [ 554944.283539180411026, 4770247.294900108128786 ], [ 554996.167764907004312, 4768625.314988134428859 ], [ 569805.813263967866078, 4769115.295102069154382 ], [ 569763.405622044578195, 4770355.642727619037032 ], [ 615048.147356055211276, 4772247.8801707373932 ], [ 614919.211536289192736, 4775396.553155997768044 ], [ 619852.562866073800251, 4775600.437716344371438 ], [ 621435.48535648919642, 4772512.40790294483304 ], [ 623033.136227381881326, 4734251.883095284923911 ], [ 624201.074729294981807, 4734300.59757980518043 ], [ 625806.888020203216001, 4695755.268445186316967 ], [ 622279.33980959886685, 4695705.260385441593826 ], [ 624154.111233375733718, 4657078.18094886187464 ], [ 625630.497230497654527, 4657138.552664293907583 ], [ 626415.36786226183176, 4637962.619035840965807 ], [ 550613.838300802977756, 4635466.215508526191115 ], [ 500874.96983265975723, 4634243.450814940966666 ], [ 500440.624718223058153, 4653130.960845182649791 ], [ 498376.087949398846831, 4652988.270174042321742 ], [ 497423.22631414612988, 4681886.093652958981693 ], [ 492422.766950823890511, 4681869.296701984480023 ], [ 492611.19634704926284, 4686645.620980380102992 ], [ 487249.118984932836611, 4689964.811404267325997 ], [ 484018.792224548815284, 4689896.465179366059601 ], [ 486013.705051239288878, 4692801.697323831729591 ], [ 476466.681870196771342, 4700335.850765413604677 ], [ 472479.497374287282582, 4709323.92126708664 ], [ 470442.450382586976048, 4708616.731179519556463 ], [ 461808.412370212899987, 4716378.165303982794285 ], [ 457709.914492751995567, 4716497.07351500261575 ], [ 457619.331920644908678, 4721744.065858845598996 ], [ 454299.998765219992492, 4727890.329782951623201 ], [ 449243.589059706486296, 4733532.722421582788229 ], [ 447675.522939308721106, 4740378.334153790026903 ], [ 445572.633769354375545, 4744353.098761734552681 ], [ 447240.138826358655933, 4749437.008952721953392 ], [ 445166.837446107703727, 4751694.632965511642396 ], [ 445396.634579594538081, 4755610.758493041619658 ], [ 440452.717052263149526, 4755535.202710063196719 ], [ 440291.758226256992202, 4766316.006457290612161 ], [ 416480.613935831643175, 4766193.111192744225264 ], [ 416036.167144973238464, 4805024.36055447999388 ], [ 415501.503879993048031, 4826488.953931573778391 ] ] ] } },
{ "type": "Feature", "properties": { "drag_region": "Central", "NAME": "Weston", "NAMELSAD": "Weston" }, "geometry": { "type": "Polygon", "coordinates": [ [ [ 1099032.549339766614139, 5089581.815819387324154 ], [ 1155230.913492047227919, 5094463.111474863253534 ], [ 1180777.070807560347021, 5096485.186198653653264 ], [ 1187121.963671749457717, 5021279.826614731922746 ], [ 1118947.663352945819497, 5015433.830724907107651 ], [ 1104441.482801724225283, 5014286.439841736108065 ], [ 1104117.174846879206598, 5014742.882272588089108 ], [ 1100424.397251090500504, 5066275.886983359232545 ], [ 1099032.549339766614139, 5089581.815819387324154 ] ] ] } },
{ "type": "Feature", "properties": { "drag_region": "Central", "NAME": "Big Horn", "NAMELSAD": "Big Horn" }, "geometry": { "type": "Polygon", "coordinates": [ [ [ 702438.70168542698957, 5190255.512140300124884 ], [ 731862.64844854362309, 5191092.163598151877522 ], [ 758447.556196311255917, 5192242.368449345231056 ], [ 760482.837021384271793, 5190886.790160078555346 ], [ 760971.511238882201724, 5185553.581245836801827 ], [ 763664.858960112091154, 5181930.396968985907733 ], [ 762981.031444652937353, 5177603.098559068515897 ], [ 766626.76655227644369, 5171532.790294689126313 ], [ 765558.496395916095935, 5169770.686450757086277 ], [ 771941.478011548984796, 5166581.907055389136076 ], [ 772731.106771531398408, 5161069.816529585048556 ], [ 777914.546237305388786, 5159654.317314583808184 ], [ 778569.087208529934287, 5157578.141465231776237 ], [ 782764.587573780678213, 5159471.628390718251467 ], [ 790020.582442779792473, 5156335.52182858530432 ], [ 794829.364428869448602, 5150614.70871118362993 ], [ 802046.655615324620157, 5148732.054477525874972 ], [ 803351.998497108928859, 5145061.095433917827904 ], [ 809637.335059042321518, 5138746.03123002499342 ], [ 808967.019641938153654, 5134603.910891452804208 ], [ 813952.644595838966779, 5131962.594851589761674 ], [ 817050.506025288952515, 5133062.075931272469461 ], [ 817580.126190507318825, 5127826.96088828612119 ], [ 820885.675048427889124, 5124538.542477418668568 ], [ 818704.368125354871154, 5122141.375731751322746 ], [ 822263.31086688535288, 5119630.244691256433725 ], [ 823088.582060042070225, 5102072.264869719743729 ], [ 777163.830980447586626, 5100268.932681159116328 ], [ 708862.657737069879659, 5097993.178686128929257 ], [ 707704.402283612522297, 5137116.081604233942926 ], [ 706278.180095815216191, 5137073.881743998266757 ], [ 705126.898760497570038, 5176007.91097688768059 ], [ 702858.692069227574393, 5175941.034558861516416 ], [ 702438.70168542698957, 5190255.512140300124884 ] ] ] } },
{ "type": "Feature", "properties": { "drag_region": "Central", "NAME": "Hot Springs", "NAMELSAD": "Hot Springs" }, "geometry": { "type": "Polygon", "coordinates": [ [ [ 635215.502916872268543, 5024389.855411102063954 ], [ 652813.60379072255455, 5025249.069024405442178 ], [ 652879.750348166562617, 5034892.508906746283174 ], [ 667291.521479907329194, 5035241.199763117358088 ], [ 666762.281108549563214, 5044775.459065949544311 ], [ 676836.017988273524679, 5045037.784634675830603 ], [ 676282.43814302852843, 5054953.438483222387731 ], [ 695827.764482023660094, 5055410.814024890772998 ], [ 700710.563148207380436, 5055653.495800570584834 ], [ 701010.20903689134866, 5045825.47546814288944 ], [ 705900.168558072764426, 5046071.767140704207122 ], [ 705921.33965149638243, 5036139.461345396004617 ], [ 715721.797568782349117, 5036451.628177143633366 ], [ 715926.940979719860479, 5030154.16997102368623 ], [ 725730.260454229544848, 5030671.651711513288319 ], [ 726706.630029988591559, 5027457.028637985698879 ], [ 744314.80831968493294, 5028081.722169388085604 ], [ 744662.196316913119517, 5018635.536571422591805 ], [ 764033.800444623688236, 5019280.01185882743448 ], [ 764415.671506642363966, 5009642.996940487995744 ], [ 774258.566206729388796, 5010039.976356415078044 ], [ 775048.869476321153343, 4990766.121951987966895 ], [ 729764.127742310520262, 4988873.884508869610727 ], [ 729806.535384233808145, 4987633.536883319728076 ], [ 714996.889885172829963, 4987143.556769385002553 ], [ 714945.005659446353093, 4988765.536681358702481 ], [ 705364.670042696525343, 4988465.865427255630493 ], [ 705265.484837168012746, 4991709.818718492053449 ], [ 695689.821307492209598, 4991423.786961086094379 ], [ 695595.209383899811655, 4994667.738309792242944 ], [ 685736.830323364818469, 4994291.893802191130817 ], [ 685891.796011690865271, 4999165.865666333585978 ], [ 676037.829232768039219, 4998899.475701316259801 ], [ 675952.494937082170509, 5002143.433289570733905 ], [ 666393.020259032025933, 5001898.722531370818615 ], [ 666352.652080132509582, 5003520.700490635819733 ], [ 647238.438803686061874, 5003072.210451060906053 ], [ 647042.766935746883973, 5011945.388140605762601 ], [ 641684.310593592235819, 5018988.388853138312697 ], [ 635215.502916872268543, 5024389.855411102063954 ] ] ] } },
{ "type": "Feature", "properties": { "drag_region": "East", "NAME": "Laramie", "NAMELSAD": "Laramie" }, "geometry": { "type": "Polygon", "coordinates": [ [ [ 1214685.7029289661441, 4473385.122057324275374 ], [ 1266747.228944506729022, 4476658.372266067191958 ], [ 1267772.604630505666137, 4466849.890324532985687 ], [ 1317791.351958256447688, 4470718.027849550358951 ], [ 1322826.270258961478248, 4408097.32507496420294 ], [ 1285352.828014351660386, 4405294.08654938172549 ], [ 1247924.715246845269576, 4402111.963640434667468 ], [ 1219823.356886105146259, 4400305.650353221222758 ], [ 1218661.070141030009836, 4413359.690399908460677 ], [ 1214685.7029289661441, 4473385.122057324275374 ] ] ] } },
{ "type": "Feature", "properties": { "drag_region": "East", "NAME": "Carbon", "NAMELSAD": "Carbon" }, "geometry": { "type": "Polygon", "coordinates": [ [ [ 914563.598474648897536, 4532733.338578241877258 ], [ 912992.585520764812827, 4571180.239148770458996 ], [ 986835.051430925144814, 4574216.920127553865314 ], [ 1032299.526855816482566, 4576999.508730074390769 ], [ 1034231.895731090568006, 4538528.68585476372391 ], [ 1034617.06157684745267, 4537019.154591901227832 ], [ 1037984.037242658203468, 4478433.381800947710872 ], [ 1039237.499314120854251, 4461752.859885359182954 ], [ 1017924.240935850422829, 4460568.571982322260737 ], [ 1020595.759735096478835, 4416601.097731989808381 ], [ 975278.646992844063789, 4414690.591050558723509 ], [ 936628.9320675508352, 4412956.795543205924332 ], [ 886210.623090844950639, 4410906.458738949149847 ], [ 884647.590008093276992, 4454974.587858780287206 ], [ 883747.311343088746071, 4454942.586179531179368 ], [ 882739.489286327385344, 4483273.208442796953022 ], [ 917697.592135177692398, 4484987.508103972300887 ], [ 916048.118793141562492, 4532793.953433370217681 ], [ 914563.598474648897536, 4532733.338578241877258 ] ] ] } },
{ "type": "Feature", "properties": { "drag_region": "Central", "NAME": "Campbell", "NAMELSAD": "Campbell" }, "geometry": { "type": "Polygon", "coordinates": [ [ [ 976685.847553608822636, 5192027.425270580686629 ], [ 990789.276892006048001, 5193581.656186572276056 ], [ 1051610.649484739173204, 5197752.513311416842043 ], [ 1053351.165168976876885, 5173990.384437546133995 ], [ 1052492.346575231757015, 5174023.592585667967796 ], [ 1054590.752454936038703, 5145203.585876504890621 ], [ 1057676.655520697589964, 5106574.830612190999091 ], [ 1057991.187821389175951, 5106213.840954465791583 ], [ 1059383.035732713062316, 5082907.912118437699974 ], [ 1063075.81332850176841, 5031374.907407666556537 ], [ 1063400.121283346787095, 5030918.464976814575493 ], [ 1014365.501962677459233, 5027310.689464832656085 ], [ 987377.475315594463609, 5025541.389922527596354 ], [ 985195.710463779629208, 5061802.896226978860795 ], [ 986061.735802375595085, 5061855.215010866522789 ], [ 983143.055303951376118, 5100468.02530873939395 ], [ 980763.666229215101339, 5139498.021013943478465 ], [ 981041.855128065217286, 5144304.370039259083569 ], [ 979495.188628106145188, 5160206.107174371369183 ], [ 978469.172799442196265, 5176906.297923345118761 ], [ 976685.847553608822636, 5192027.425270580686629 ] ] ] } }
]
}
