{
"type": "FeatureCollection",
"name": "map",
"crs": { "type": "name", "properties": { "name": "urn:ogc:def:crs:EPSG::32614" } },
"features": [
{ "type": "Feature", "properties": { "drag_region": "Northwest", "NAME": "Blaine", "NAMELSAD": "Blaine" }, "geometry": { "type": "Polygon", "coordinates": [ [ [ 449880.567916357947979, 4041978.45441084401682 ], [ 488296.879008067015093, 4042207.028068683110178 ], [ 488912.658296402951237, 4006287.152668392751366 ], [ 488692.377084952488076, 3993421.492919050622731 ], [ 479278.29555632249685, 3993350.57247122284025 ], [ 479412.793020657205489, 3974104.265702872537076 ], [ 450459.139791630965192, 3973949.293208449613303 ], [ 449880.567916357947979, 4041978.45441084401682 ] ] ] } },
{ "type": "Feature", "properties": { "drag_region": "Southwest", "NAME": "Comanche", "NAMELSAD": "Comanche" }, "geometry": { "type": "Polygon", "coordinates": [ [ [ 429571.623121883312706, 3782114.149913981556892 ], [ 496506.922828875598498, 3782379.422656163573265 ], [ 497009.292192206485197, 3763138.451684190891683 ], [ 492405.967753766220994, 3763098.009982123970985 ], [ 492570.673670593299903, 3743759.433201410807669 ], [ 483014.61948588269297, 3743778.41010881587863 ], [ 483050.885942005552351, 3738920.079291608184576 ], [ 478446.902503998600878, 3737267.362533319741488 ], [ 458993.676771620637737, 3737152.27395308483392 ], [ 459008.982454172102734, 3734008.730741816572845 ], [ 449444.086239298223518, 3733967.088273731060326 ], [ 444831.981106837745756, 3732331.116905841045082 ], [ 444794.353670920594595, 3743571.625609836541116 ], [ 429638.246326031570788, 3743533.196894840337336 ], [ 429571.623121883312706, 3782114.149913981556892 ] ] ] } },
{ "type": "Feature", "properties": { "drag_region": "Southwest", "NAME": "Beckham", "NAMELSAD": "Beckham" }, "geometry": { "type": "Polygon", "coordinates": [ [ [ 284232.319036531436723, 3866358.980998035520315 ], [ 322681.765039805613924, 3865957.167250423692167 ], [ 322738.479412744753063, 3875675.256146668922156 ], [ 341942.443740674003493, 3875583.677360460162163 ], [ 342109.393476488941815, 3832043.168722295667976 ], [ 337856.750882094667759, 3831869.033868562895805 ], [ 334910.141874091059435, 3831214.672461461741477 ], [ 303515.169757243013009, 3832265.084712015464902 ], [ 303439.462275113968644, 3822642.747609607409686 ], [ 283794.979582924686838, 3822913.61833962937817 ], [ 284232.319036531436723, 3866358.980998035520315 ] ] ] } },
{ "type": "Feature", "properties": { "drag_region": "Northwest", "NAME": "Kingfisher", "NAMELSAD": "Kingfisher" }, "geometry": { "type": "Polygon", "coordinates": [ [ [ 496101.928802397276741, 4042838.143637006636709 ], [ 544204.809812095481902, 4043362.688305539544672 ], [ 544866.452886236249469, 3994669.800496289506555 ], [ 496497.426879282749724, 3994052.608487374149263 ], [ 496717.708090733212885, 4006918.268236716277897 ], [ 496101.928802397276741, 4042838.143637006636709 ] ] ] } },
{ "type": "Feature", "properties": { "drag_region": "Southwest", "NAME": "Custer", "NAMELSAD": "Custer" }, "geometry": { "type": "Polygon", "coordinates": [ [ [ 363924.864443958038464, 3922219.099273001775146 ], [ 431046.618038535176311, 3922216.501883276738226 ], [ 431155.042011993064079, 3893252.034116362221539 ], [ 432131.000686846033204, 3893255.729189003817737 ], [ 431842.250336874800269, 3883631.697028005030006 ], [ 364754.958267850684933, 3883723.449505555909127 ], [ 364772.90407676162431, 3888582.46294755442068 ], [ 363814.568665235885419, 3893349.899322832003236 ], [ 363924.864443958038464, 3922219.099273001775146 ] ] ] } },
{ "type": "Feature", "properties": { "drag_region": "Southwest", "NAME": "Greer", "NAMELSAD": "Greer" }, "geometry": { "type": "Polygon", "coordinates": [ [ [ 299085.940043388400227, 3809681.242609145119786 ], [ 308580.337165468721651, 3809506.392963747028261 ], [ 308656.044647597824223, 3819128.730066155083477 ], [ 340051.016764445812441, 3818078.317815601360053 ], [ 342997.625772449420765, 3818732.67922270251438 ], [ 346584.521261492860503, 3815765.339704130310565 ], [ 346900.207215097965673, 3812620.284063263330609 ], [ 350166.540685442858376, 3810608.288252559956163 ], [ 349803.38064329046756, 3799844.212380233220756 ], [ 352746.284054380725138, 3797548.511106268037111 ], [ 352068.129602796165273, 3790215.077545527834445 ], [ 357635.931736918282695, 3786198.59076050017029 ], [ 357305.086541457450949, 3785151.498698479495943 ], [ 342861.307944163796492, 3785294.058934910688549 ], [ 343169.651722858659923, 3780339.003319797106087 ], [ 340214.003445952315815, 3780446.628767014015466 ], [ 341507.402724367799237, 3775582.583672528155148 ], [ 319160.366200982010923, 3775608.180473789572716 ], [ 319181.822160596610047, 3778847.178216363769025 ], [ 314265.705755228293128, 3780500.663814885076135 ], [ 314336.090560898883268, 3790313.07785769039765 ], [ 313421.976768449065275, 3799942.225543129257858 ], [ 299000.369087075116113, 3800058.951287614181638 ], [ 299085.940043388400227, 3809681.242609145119786 ] ] ] } },
{ "type": "Feature", "properties": { "drag_region": "Northeast", "NAME": "Cherokee", "NAMELSAD": "Cherokee" }, "geometry": { "type": "Polygon", "coordinates": [ [ [ 967197.982625688659027, 4040342.391674852930009 ], [ 975283.334132755757309, 4040661.685089739970863 ], [ 974894.344655440072529, 4050387.522011142224073 ], [ 1003652.339237338048406, 4051490.919457550160587 ], [ 1004900.825837225303985, 4022596.178669886663556 ], [ 1004252.481636601500213, 4022568.276429770514369 ], [ 1005499.150684906286187, 3993483.482373629231006 ], [ 976229.063733245478943, 3992281.179932480212301 ], [ 975792.611370465136133, 4011554.243009613826871 ], [ 963134.018622641335241, 4011157.173561646603048 ], [ 966493.364996365853585, 4016728.891509307082742 ], [ 961451.190682651358657, 4021214.107707230839878 ], [ 961196.522804330219515, 4027888.200594231951982 ], [ 965862.18634592636954, 4033033.062165034003556 ], [ 967197.982625688659027, 4040342.391674852930009 ] ] ] } },
{ "type": "Feature", "properties": { "drag_region": "Southwest", "NAME": "Grady", "NAMELSAD": "Grady" }, "geometry": { "type": "Polygon", "coordinates": [ [ [ 512169.33355941157788, 3851133.625490537378937 ], [ 519342.025773287867196, 3851201.906045243144035 ], [ 525247.887080915737897, 3847736.765131902415305 ], [ 525865.746165966964327, 3850983.114479561336339 ], [ 528174.018060069647618, 3848625.750844550784677 ], [ 539942.768662636401132, 3846474.598442256450653 ], [ 541882.357958177337423, 3847927.859829511959106 ], [ 544849.439200198859908, 3845487.510378684848547 ], [ 551030.517445945413783, 3846902.491301171947271 ], [ 552326.069106928538531, 3774306.961818668060005 ], [ 513525.591142846969888, 3773874.773976975586265 ], [ 513023.221779516083188, 3793115.744948948267847 ], [ 512998.813350918120705, 3831798.759344153106213 ], [ 512169.33355941157788, 3851133.625490537378937 ] ] ] } },
{ "type": "Feature", "properties": { "drag_region": "Southeast", "NAME": "Carter", "NAMELSAD": "Carter" }, "geometry": { "type": "Polygon", "coordinates": [ [ [ 681210.073689499753527, 3691689.183158372528851 ], [ 680196.104325799969956, 3739984.568440481089056 ], [ 699638.136678484734148, 3740281.289348849561065 ], [ 699873.929034805274568, 3725799.939896694384515 ], [ 727600.411927117151208, 3726196.565189312212169 ], [ 729673.396491241874173, 3721471.007590070832521 ], [ 738259.705641713459045, 3721641.704681028146297 ], [ 738619.428009225986898, 3703920.067383443005383 ], [ 735641.59004957776051, 3703860.217728941701353 ], [ 735534.205245673307218, 3692611.169505373574793 ], [ 681210.073689499753527, 3691689.183158372528851 ] ] ] } },
{ "type": "Feature", "properties": { "drag_region": "Southeast", "NAME": "Pushmataha", "NAMELSAD": "Pushmataha" }, "geometry": { "type": "Polygon", "coordinates": [ [ [ 906296.751557754003443, 3762007.878224247135222 ], [ 920787.973458394757472, 3762497.819851152133197 ], [ 920454.539349188678898, 3772125.508701086044312 ], [ 973102.318735702428967, 3774101.613590624649078 ], [ 973882.530421182280406, 3754746.438777822069824 ], [ 963985.596620989148505, 3754449.154949433170259 ], [ 965127.709748311317526, 3725179.949776412919164 ], [ 955534.605982610373758, 3724811.804091220255941 ], [ 955236.507741445093416, 3715158.111026412341744 ], [ 897958.451758138020523, 3713173.261761585250497 ], [ 896727.159878170699812, 3751964.911630419548601 ], [ 906617.469352106447332, 3752285.52510570641607 ], [ 906296.751557754003443, 3762007.878224247135222 ] ] ] } },
{ "type": "Feature", "properties": { "drag_region": "Northeast", "NAME": "Creek", "NAMELSAD": "Creek" }, "geometry": { "type": "Polygon", "coordinates": [ [ [ 803663.607457446167246, 4045924.382831579539925 ], [ 803977.176177479559556, 4046313.540819821879268 ], [ 832722.516163746709935, 4046875.539859073236585 ], [ 832987.557046013884246, 4037343.866544826421887 ], [ 857238.394707458559424, 4037955.720602289773524 ], [ 857651.929307559039444, 4013734.147465152665973 ], [ 843386.802291201311164, 4013312.690599332563579 ], [ 844080.646968142827973, 3989102.708539695478976 ], [ 805072.138757671695203, 3988073.322804025374353 ], [ 803663.607457446167246, 4045924.382831579539925 ] ] ] } },
{ "type": "Feature", "properties": { "drag_region": "Northwest", "NAME": "Alfalfa", "NAMELSAD": "Alfalfa" }, "geometry": { "type": "Polygon", "coordinates": [ [ [ 458660.032073811104055, 4148148.136468974407762 ], [ 497305.02296488097636, 4148325.202484359499067 ], [ 498498.665335575060453, 4088960.970181449316442 ], [ 459906.06581673322944, 4088784.05616093473509 ], [ 460157.206119938113261, 4103269.94387766905129 ], [ 459329.207956903788727, 4141861.493184681981802 ], [ 458660.032073811104055, 4148148.136468974407762 ] ] ] } },
{ "type": "Feature", "properties": { "drag_region": "Southwest", "NAME": "Cotton", "NAMELSAD": "Cotton" }, "geometry": { "type": "Polygon", "coordinates": [ [ [ 448150.059203760814853, 3717071.464761710725725 ], [ 452762.164336221292615, 3718707.436129600740969 ], [ 462327.060551095171832, 3718749.078597685787827 ], [ 462311.754868543706834, 3721892.621808954514563 ], [ 481764.980600921669975, 3722007.710389188956469 ], [ 486368.964038928621449, 3723660.427147477865219 ], [ 486332.697582805762067, 3728518.757964685093611 ], [ 495888.751767516369, 3728499.781057280022651 ], [ 496231.206553448573686, 3688014.362038541585207 ], [ 493608.594052248634398, 3684944.235422059427947 ], [ 486972.384533161530271, 3686988.351374509278685 ], [ 482008.039161610300653, 3686952.760734204668552 ], [ 475703.257133546401747, 3689578.585508815012872 ], [ 470124.297548780217767, 3681448.528564119245857 ], [ 464506.861959363683127, 3679037.16340915299952 ], [ 456519.101520482217893, 3688144.830355433747172 ], [ 452874.087808582582511, 3689463.802707826253027 ], [ 452799.069975992082618, 3709086.427931414917111 ], [ 448177.103184124920517, 3708974.60338027542457 ], [ 448150.059203760814853, 3717071.464761710725725 ] ] ] } },
{ "type": "Feature", "properties": { "drag_region": "Northeast", "NAME": "Wagoner", "NAMELSAD": "Wagoner" }, "geometry": { "type": "Polygon", "coordinates": [ [ [ 900692.192158520105295, 4050687.79703050525859 ], [ 913288.906855706940405, 4051117.580012997146696 ], [ 915017.408968103118241, 4047932.57715868530795 ], [ 918265.507139981375076, 4047569.594719056971371 ], [ 919707.009343726676889, 4043420.576808805577457 ], [ 918154.443851830088533, 4041551.973909716121852 ], [ 950820.06403230689466, 4042670.258044349495322 ], [ 949484.267752544605173, 4035360.928534530568868 ], [ 944818.604210948455147, 4030216.066963728517294 ], [ 945073.272089269594289, 4023541.97407672740519 ], [ 950115.446402984089218, 4019056.757878803648055 ], [ 946756.100029259570874, 4013485.03993114316836 ], [ 937956.432634581928141, 4014203.536719216499478 ], [ 932859.932155749294907, 4011437.792076589073986 ], [ 927650.614623686880805, 4011725.976255698129535 ], [ 919926.620289531885646, 4009637.614629966206849 ], [ 917741.189375959453173, 4007079.480811421759427 ], [ 913111.239094516844489, 4009400.90913047734648 ], [ 911873.049460962414742, 4017089.346371700055897 ], [ 896636.696879431721754, 4016484.607366371434182 ], [ 896475.203336433158256, 4021441.595353141892701 ], [ 901660.145269090891816, 4021612.134953596163541 ], [ 900692.192158520105295, 4050687.79703050525859 ] ] ] } },
{ "type": "Feature", "properties": { "drag_region": "Southwest", "NAME": "Cleveland", "NAMELSAD": "Cleveland" }, "geometry": { "type": "Polygon", "coordinates": [ [ [ 572188.549665860948153, 3859561.45451814122498 ], [ 620119.746337425429374, 3860333.410960495937616 ], [ 621048.37166086002253, 3810594.187254581600428 ], [ 610195.5320145834703, 3812305.331649295520037 ], [ 608851.472661323612556, 3814188.239607227034867 ], [ 602950.810212117736228, 3814183.653497356455773 ], [ 601183.754426675150171, 3821969.544251851271838 ], [ 601432.586851823027246, 3826738.978644703049213 ], [ 597161.307068678434007, 3827717.823323179967701 ], [ 596415.483356493990868, 3833424.192528413143009 ], [ 582199.465396826388314, 3843881.525423016864806 ], [ 582434.771418095799163, 3850174.787082054186612 ], [ 577189.788395764306188, 3851720.175814542919397 ], [ 572247.418029673863202, 3855178.545573947019875 ], [ 572188.549665860948153, 3859561.45451814122498 ] ] ] } },
{ "type": "Feature", "properties": { "drag_region": "Southeast", "NAME": "Murray", "NAMELSAD": "Murray" }, "geometry": { "type": "Polygon", "coordinates": [ [ [ 707620.957439814461395, 3748767.92340452875942 ], [ 726734.191044848994352, 3749099.340036055073142 ], [ 725325.653475784230977, 3754029.614102816674858 ], [ 721232.193013595300727, 3761866.309195861686021 ], [ 726497.562045601429418, 3761961.816804687958211 ], [ 726467.714763258583844, 3763581.551640309859067 ], [ 745880.898098620120436, 3763959.764194580260664 ], [ 745980.625659556942992, 3759100.350234493613243 ], [ 755528.056014550151303, 3759301.109791673254222 ], [ 755737.209709215327166, 3749582.138135739602149 ], [ 750793.665736543829553, 3749477.188151131384075 ], [ 751194.261241062777117, 3730325.691972476430237 ], [ 737656.217252571601421, 3729957.641645750030875 ], [ 735583.232688446878456, 3734683.199244991410524 ], [ 707856.749796135001816, 3734286.57395237358287 ], [ 707620.957439814461395, 3748767.92340452875942 ] ] ] } },
{ "type": "Feature", "properties": { "drag_region": "Northeast", "NAME": "Okmulgee", "NAMELSAD": "Okmulgee" }, "geometry": { "type": "Polygon", "coordinates": [ [ [ 853978.298369185300544, 3971663.718765663914382 ], [ 853009.580976435914636, 4005500.319014634471387 ], [ 891594.921998079982586, 4006598.125511786900461 ], [ 891749.195458598784171, 3992097.65787926921621 ], [ 896620.890196552616544, 3992259.630046374630183 ], [ 897265.049278724822216, 3973003.532888690475374 ], [ 887500.566888849367388, 3972682.9318210282363 ], [ 887817.208249916438945, 3962864.712927133310586 ], [ 882929.711878925911151, 3962708.596279597375542 ], [ 883234.271459322539158, 3953081.283669943921268 ], [ 863990.205375419347547, 3952493.79529958916828 ], [ 863416.237898760591634, 3971937.916087088640779 ], [ 853978.298369185300544, 3971663.718765663914382 ] ] ] } },
{ "type": "Feature", "properties": { "drag_region": "Southeast", "NAME": "Choctaw", "NAMELSAD": "Choctaw" }, "geometry": { "type": "Polygon", "coordinates": [ [ [ 875238.863006474450231, 3700323.130854112561792 ], [ 952047.962844705092721, 3702904.819478946737945 ], [ 953297.602866055560298, 3678512.273483548313379 ], [ 946227.670737670501694, 3680922.392570032272488 ], [ 944141.345096448319964, 3674354.915305490139872 ], [ 936303.389621869311668, 3670349.644805689807981 ], [ 924994.759461556328461, 3670335.079239796847105 ], [ 924945.493981976760551, 3671764.851640545297414 ], [ 917992.983895584126003, 3670859.835076759569347 ], [ 915473.096388630685396, 3676595.902287560049444 ], [ 912144.092822461621836, 3676771.150393210351467 ], [ 904337.820155355962925, 3671554.114287117961794 ], [ 897686.829855822841637, 3671627.875539930071682 ], [ 897423.908475087373517, 3669425.327526460401714 ], [ 890110.635672499076463, 3669388.254594693891704 ], [ 886317.997449509217404, 3673851.069825060199946 ], [ 880921.002879938692786, 3676550.018164459150285 ], [ 880310.154489662731066, 3696944.771829057019204 ], [ 875238.863006474450231, 3700323.130854112561792 ] ] ] } },
{ "type": "Feature", "properties": { "drag_region": "Southwest", "NAME": "Jefferson", "NAMELSAD": "Jefferson" }, "geometry": { "type": "Polygon", "coordinates": [ [ [ 514418.426112827146426, 3694949.992289357818663 ], [ 567607.288934860494919, 3695455.39991440391168 ], [ 568279.603001712239347, 3671262.807870033197105 ], [ 568218.260272864135914, 3652015.236734518781304 ], [ 564868.061536361346953, 3654255.61834680614993 ], [ 565809.76649469207041, 3658174.953793187160045 ], [ 559455.379897080478258, 3662091.212882298976183 ], [ 556475.195536533603445, 3661766.767385767307132 ], [ 552564.99288311204873, 3656191.652157657779753 ], [ 543043.997242743847892, 3647313.973788045346737 ], [ 539068.876507205306552, 3646412.383282493799925 ], [ 529727.509663872537203, 3650697.254011704586446 ], [ 531996.54440632101614, 3656054.93567580031231 ], [ 530338.873625876498409, 3655942.916663161944598 ], [ 532602.271504803095013, 3661681.847746409941465 ], [ 530262.455316733219661, 3663563.412605070509017 ], [ 525966.247754146112129, 3662187.559735136572272 ], [ 519658.315917568514124, 3663177.135313662234694 ], [ 516269.339218773180619, 3671816.434590987395495 ], [ 518889.076381832244806, 3675173.530062879901379 ], [ 517523.297788701835088, 3679924.738633481785655 ], [ 514557.437185514951125, 3678470.330444406252354 ], [ 514418.426112827146426, 3694949.992289357818663 ] ] ] } },
{ "type": "Feature", "properties": { "drag_region": "Northeast", "NAME": "Nowata", "NAMELSAD": "Nowata" }, "geometry": { "type": "Polygon", "coordinates": [ [ [ 893291.484534011920914, 4169560.559418525546789 ], [ 926841.024344433099031, 4170760.976590917911381 ], [ 927078.53966392762959, 4164467.877879668492824 ], [ 925159.893975106300786, 4164395.729165956843644 ], [ 926591.127325475215912, 4126066.08268352644518 ], [ 892544.012447747401893, 4124867.53021295228973 ], [ 891269.009539648424834, 4163097.563002872746438 ], [ 893507.210504409624264, 4163172.804763408843428 ], [ 893291.484534011920914, 4169560.559418525546789 ] ] ] } },
{ "type": "Feature", "properties": { "drag_region": "Northwest", "NAME": "Woods", "NAMELSAD": "Woods" }, "geometry": { "type": "Polygon", "coordinates": [ [ [ 369612.749819151067641, 4148293.307389621157199 ], [ 450731.603610085556284, 4148196.308919869828969 ], [ 451400.779493178240955, 4141909.665635577403009 ], [ 452334.838127469061874, 4081496.447333561256528 ], [ 443968.535164710017852, 4080888.177131969481707 ], [ 437200.639885825919919, 4083532.669431099202484 ], [ 434938.917794424574822, 4086765.81480152439326 ], [ 427537.188457599317189, 4088463.147826970089227 ], [ 424312.998084144899622, 4093507.723166223149747 ], [ 414027.770416120649315, 4093497.203351106494665 ], [ 414023.376190298120491, 4103788.643571811728179 ], [ 409208.545181186753325, 4108361.958812712691724 ], [ 404721.974489659245592, 4116654.233489242382348 ], [ 402799.273941059422214, 4117322.770629142876714 ], [ 398001.340478464378975, 4124189.55882446328178 ], [ 388073.577168182993773, 4124400.280442979652435 ], [ 383922.009033740730956, 4128223.977433369494975 ], [ 382334.899370697734412, 4132326.819992299657315 ], [ 376905.631718580087181, 4134919.464393357280642 ], [ 369612.749819151067641, 4148293.307389621157199 ] ] ] } },
{ "type": "Feature", "properties": { "drag_region": "Northwest", "NAME": "Woodward", "NAMELSAD": "Woodward" }, "geometry": { "type": "Polygon", "coordinates": [ [ [ 350887.262303566909395, 4098481.220283209811896 ], [ 378499.366334116260987, 4098637.63192748837173 ], [ 378576.251738098799251, 4123509.351732864510268 ], [ 382727.819872541062068, 4119685.654742474667728 ], [ 392655.58318282244727, 4119474.933123958297074 ], [ 397453.516645417490508, 4112608.144928637892008 ], [ 399376.217194017313886, 4111939.607788737397641 ], [ 403862.78788554482162, 4103647.333112207707018 ], [ 408677.618894656188786, 4099074.017871306743473 ], [ 408371.766884930315427, 4060005.381653751712292 ], [ 409021.119321122008841, 4050477.101168190594763 ], [ 351235.119412108440883, 4050927.561161101795733 ], [ 351614.57385561458068, 4060168.429430419579148 ], [ 350646.515643102757167, 4060079.128245867788792 ], [ 350887.262303566909395, 4098481.220283209811896 ] ] ] } },
{ "type": "Feature", "properties": { "drag_region": "Southeast", "NAME": "Pottawatomie", "NAMELSAD": "Pottawatomie" }, "geometry": { "type": "Polygon", "coordinates": [ [ [ 727787.880268353619613, 3820880.016413179691881 ], [ 726678.381072264513932, 3880243.494610948022455 ], [ 773587.869951757485978, 3881153.594328065402806 ], [ 774078.811201321543194, 3874299.808956216089427 ], [ 771167.282791012316011, 3873276.719470337964594 ], [ 764563.058739889296703, 3876745.715979523956776 ], [ 760049.637168456218205, 3874450.048305188305676 ], [ 761302.160366195486858, 3818417.627556039020419 ], [ 757913.697357833967544, 3823300.400062365923077 ], [ 751401.463303805445321, 3821062.969654931686819 ], [ 747050.030172729748301, 3825261.728113213554025 ], [ 739310.814032640540972, 3818718.161473615560681 ], [ 733687.815005345619284, 3821086.779934907797724 ], [ 727787.880268353619613, 3820880.016413179691881 ] ] ] } },
{ "type": "Feature", "properties": { "drag_region": "Northeast", "NAME": "McIntosh", "NAMELSAD": "McIntosh" }, "geometry": { "type": "Polygon", "coordinates": [ [ [ 882826.558678875677288, 3916968.093993908725679 ], [ 882392.925651678815484, 3941950.575135877821594 ], [ 891852.028715463820845, 3942244.505714626051486 ], [ 891547.469135067192838, 3951871.818324279505759 ], [ 896434.965506057720631, 3952027.934971815440804 ], [ 896118.324144990649074, 3961846.153865710366517 ], [ 939410.206630320288241, 3963349.070356116630137 ], [ 940476.350700578186661, 3934557.235492479987442 ], [ 936088.343748040264472, 3938310.245050465688109 ], [ 930665.456970114493743, 3934582.274629301857203 ], [ 926400.066378748742864, 3935003.180961397942156 ], [ 925231.522280511911958, 3931048.564399479422718 ], [ 915587.568878817372024, 3926133.484730288852006 ], [ 916473.558704724302515, 3928931.393522317055613 ], [ 911002.502852509147488, 3926264.792614878620952 ], [ 910745.965906456578523, 3924156.705333304591477 ], [ 903339.839445494813845, 3920476.42407754343003 ], [ 899999.102353552123532, 3922562.639429971110076 ], [ 892846.11471206927672, 3921094.113513015210629 ], [ 889724.896652284311131, 3916225.946899179369211 ], [ 882826.558678875677288, 3916968.093993908725679 ] ] ] } },
{ "type": "Feature", "properties": { "drag_region": "Northeast", "NAME": "Okfuskee", "NAMELSAD": "Okfuskee" }, "geometry": { "type": "Polygon", "coordinates": [ [ [ 805535.172321164398454, 3953020.509077826049179 ], [ 805389.270946965669282, 3972565.248470380436629 ], [ 844397.779157436802052, 3973594.634206050541252 ], [ 844672.651873244671151, 3963968.016016717068851 ], [ 854110.591402819962241, 3964242.213338141795248 ], [ 854684.558879478718154, 3944798.092550642322749 ], [ 864469.521899596904404, 3945091.650342248845845 ], [ 864763.275684221764095, 3935464.747450668364763 ], [ 822644.939431732404046, 3934279.492722289636731 ], [ 822134.816397016984411, 3954007.411336177960038 ], [ 819540.952181906090118, 3953463.734370678663254 ], [ 817357.187705359654501, 3949593.459688851144165 ], [ 812074.173755841213278, 3952226.579866752494127 ], [ 810815.540721597499214, 3950383.650388795882463 ], [ 813876.720073027070612, 3945310.025772593449801 ], [ 809258.365347995306365, 3947389.346948741003871 ], [ 806026.11357072845567, 3946166.723705976735801 ], [ 805535.172321164398454, 3953020.509077826049179 ] ] ] } },
{ "type": "Feature", "properties": { "drag_region": "Northwest", "NAME": "Garfield", "NAMELSAD": "Garfield" }, "geometry": { "type": "Polygon", "coordinates": [ [ [ 507227.001871215761639, 4097859.985218988731503 ], [ 564699.566169041092508, 4098587.578497854527086 ], [ 565456.777181385550648, 4051033.582108036149293 ], [ 507667.755302761215717, 4050309.374844840262085 ], [ 507227.001871215761639, 4097859.985218988731503 ] ] ] } },
{ "type": "Feature", "properties": { "drag_region": "Northwest", "NAME": "Ellis", "NAMELSAD": "Ellis" }, "geometry": { "type": "Polygon", "coordinates": [ [ [ 310734.847711390175391, 4096634.436931171454489 ], [ 346372.30524047272047, 4096240.928995295893401 ], [ 346131.558580008568242, 4057838.836957953870296 ], [ 347099.616792520391755, 4057928.138142505660653 ], [ 346720.162349014251959, 4048687.269873187877238 ], [ 366090.222937746031675, 4048684.774962651077658 ], [ 366023.90888784895651, 4031819.446148609276861 ], [ 359550.993623060930986, 4030989.668133920524269 ], [ 355654.673061342735309, 4028150.119240253232419 ], [ 354005.560930847830605, 4022250.989487009122968 ], [ 350751.414758774044458, 4019410.202290917746723 ], [ 350081.830931886273902, 4015602.606605465058237 ], [ 344556.730928465549368, 4013063.171664643567055 ], [ 335818.80517327907728, 4015028.550918442197144 ], [ 330334.520466842805035, 4018214.957785145845264 ], [ 327456.774973030085675, 4022812.251111822202802 ], [ 327521.616592623002362, 4030625.59558560885489 ], [ 323320.217378348635975, 4031137.961475120857358 ], [ 318093.484143987065181, 4025753.672302089165896 ], [ 317079.099723444494884, 4021189.132778076454997 ], [ 310240.973964793491177, 4017635.290307287592441 ], [ 310947.97087423253106, 4086243.90709012048319 ], [ 310626.514760719903279, 4086247.250022256746888 ], [ 310734.847711390175391, 4096634.436931171454489 ] ] ] } },
{ "type": "Feature", "properties": { "drag_region": "Southwest", "NAME": "Jackson", "NAMELSAD": "Jackson" }, "geometry": { "type": "Polygon", "coordinates": [ [ [ 307216.417861412628554, 3738483.993500368669629 ], [ 323691.702417306834832, 3738456.143576008733362 ], [ 323850.860992782749236, 3762557.615717107895762 ], [ 346197.89751616853755, 3762532.018915846478194 ], [ 344904.498237753054127, 3767396.064010332338512 ], [ 347860.146514659398235, 3767288.438563115429133 ], [ 347551.802735964534804, 3772243.494178229011595 ], [ 361995.581333258189261, 3772100.933941797818989 ], [ 362326.426528719021007, 3773148.026003818493336 ], [ 365281.583382252138108, 3773617.576460487674922 ], [ 368242.29248327203095, 3777327.060091131832451 ], [ 371521.50795653834939, 3776178.537116016726941 ], [ 371184.882455152692273, 3770463.191537212114781 ], [ 368878.288130287313834, 3765703.738703901879489 ], [ 371169.191930642584339, 3759889.037823182996362 ], [ 380044.31880721275229, 3759784.895531430840492 ], [ 380700.509110810118727, 3757021.991678523365408 ], [ 376096.329392515355721, 3756167.847894585691392 ], [ 375435.155774105922319, 3752739.095085501205176 ], [ 377075.587954430142418, 3747498.244675646536052 ], [ 369833.794736121897586, 3747221.363442896399647 ], [ 364544.501391330966726, 3736848.106261538807303 ], [ 363858.62739360705018, 3724942.322737635113299 ], [ 367151.298737231874838, 3721315.728553108405322 ], [ 365496.755385328433476, 3719318.613779633771628 ], [ 359568.463200025260448, 3724667.182894662022591 ], [ 360893.697315656929277, 3726759.362658038269728 ], [ 355616.959693526267074, 3727250.701072530355304 ], [ 349699.734885026351549, 3732700.93171757645905 ], [ 348346.702365898177959, 3723942.25514010572806 ], [ 344385.144057182129472, 3723577.550665075425059 ], [ 341096.696149756666273, 3726069.14814393594861 ], [ 337147.899814691278152, 3728088.991298826411366 ], [ 331541.546974579920061, 3728309.897306422702968 ], [ 329534.806875085923821, 3723653.742548649664968 ], [ 319644.481880813254975, 3725146.561526639852673 ], [ 311783.684839462046511, 3732635.615309723187238 ], [ 307216.417861412628554, 3738483.993500368669629 ] ] ] } },
{ "type": "Feature", "properties": { "drag_region": "Northwest", "NAME": "Texas", "NAMELSAD": "Texas" }, "geometry": { "type": "Polygon", "coordinates": [ [ [ 106609.036972472677007, 4152743.599225796293467 ], [ 203102.635498518124223, 4150795.084791991394013 ], [ 202764.504192884778604, 4134210.719090765342116 ], [ 201804.364662071224302, 4134230.315128497313708 ], [ 201015.644380461191759, 4095534.828121536411345 ], [ 104558.827879638178274, 4098128.29959731688723 ], [ 106609.036972472677007, 4152743.599225796293467 ] ] ] } },
{ "type": "Feature", "properties": { "drag_region": "Northeast", "NAME": "Kay", "NAMELSAD": "Kay" }, "geometry": { "type": "Polygon", "coordinates": [ [ [ 700666.569519037264399, 4167909.872920112218708 ], [ 763910.839798418572173, 4169167.932978569995612 ], [ 764476.981259622029029, 4145147.997761848382652 ], [ 758107.098660612246022, 4143379.436561423353851 ], [ 757206.311041943612508, 4140688.834559747483581 ], [ 752379.968533685081638, 4141439.231056727468967 ], [ 748690.920876050950028, 4134111.554381950758398 ], [ 739675.333715889952146, 4135638.011159050744027 ], [ 736827.909458838752471, 4133673.035139595158398 ], [ 738615.941523479879834, 4124651.252004056703299 ], [ 737673.94304605491925, 4123583.324019692838192 ], [ 701389.914545999490656, 4122926.010616993065923 ], [ 700666.569519037264399, 4167909.872920112218708 ] ] ] } },
{ "type": "Feature", "properties": { "drag_region": "Northeast", "NAME": "Lincoln", "NAMELSAD": "Lincoln" }, "geometry": { "type": "Polygon", "coordinates": [ [ [ 742616.501447153277695, 3958938.088506821542978 ], [ 741935.84722977783531, 4012022.824028697330505 ], [ 788565.449108543340117, 4012940.316224770154804 ], [ 789525.990326646249741, 3959848.188223938923329 ], [ 742616.501447153277695, 3958938.088506821542978 ] ] ] } },
{ "type": "Feature", "properties": { "drag_region": "Northeast", "NAME": "Logan", "NAMELSAD": "Logan" }, "geometry": { "type": "Polygon", "coordinates": [ [ [ 674254.560573347145692, 4042134.083792353980243 ], [ 693302.818230754113756, 4042415.064661190379411 ], [ 702998.282158382935449, 4042002.102670460939407 ], [ 703325.497582692187279, 4022657.099089051131159 ], [ 706188.660641127033159, 4025565.590592011809349 ], [ 708786.628802053863183, 4025038.767443519551307 ], [ 710468.276870188885368, 4021446.015451080165803 ], [ 715340.432201851741411, 4020580.250775701832026 ], [ 716999.235127816791646, 4018418.09655045485124 ], [ 722832.582317361608148, 4018241.420778193045408 ], [ 722966.488726499257609, 3994125.487733141984791 ], [ 674916.203647487913258, 3993441.195983103942126 ], [ 674254.560573347145692, 4042134.083792353980243 ] ] ] } },
{ "type": "Feature", "properties": { "drag_region": "Northeast", "NAME": "Adair", "NAMELSAD": "Adair" }, "geometry": { "type": "Polygon", "coordinates": [ [ [ 1015702.212916873162612, 4050579.815237778238952 ], [ 1037023.464567495277151, 4051625.663424300495535 ], [ 1047798.871420035022311, 3993916.506580887362361 ], [ 1017549.024364441400394, 3992572.378153857309371 ], [ 1016302.35531613661442, 4021657.172209998592734 ], [ 1016950.699516760418192, 4021685.074450114741921 ], [ 1015702.212916873162612, 4050579.815237778238952 ] ] ] } },
{ "type": "Feature", "properties": { "drag_region": "Southeast", "NAME": "Garvin", "NAMELSAD": "Garvin" }, "geometry": { "type": "Polygon", "coordinates": [ [ [ 669359.821703559136949, 3794547.895749070681632 ], [ 736633.661010952433571, 3795594.45197002356872 ], [ 737130.029066416900605, 3771487.497325235512108 ], [ 717716.845731055364013, 3771109.284770965110511 ], [ 717746.693013398209587, 3769489.549935343209654 ], [ 712481.323981392080896, 3769394.042326516937464 ], [ 716574.784443581011146, 3761557.347233471926302 ], [ 717983.322012645774521, 3756627.073166710324585 ], [ 679428.056054926477373, 3755998.935626815538853 ], [ 679157.986660412396304, 3774957.824703787919134 ], [ 669616.501302191521972, 3775207.698262291029096 ], [ 669359.821703559136949, 3794547.895749070681632 ] ] ] } },
{ "type": "Feature", "properties": { "drag_region": "Southwest", "NAME": "Kiowa", "NAMELSAD": "Kiowa" }, "geometry": { "type": "Polygon", "coordinates": [ [ [ 363677.868893644190393, 3818267.970570259727538 ], [ 423531.467031588894315, 3818410.937116756569594 ], [ 424844.012620855006389, 3816794.740551033988595 ], [ 432686.287152495468035, 3819295.895582844037563 ], [ 435313.789558999822475, 3816352.125559663865715 ], [ 435415.877930679242127, 3789391.621883230749518 ], [ 416713.504254104103893, 3789435.366608758922666 ], [ 416763.567879113135859, 3760475.630209957249463 ], [ 400635.819846152677201, 3760461.895183582790196 ], [ 400635.915915671968833, 3765320.177295659668744 ], [ 391424.904103499953635, 3765324.951189740095288 ], [ 392086.077721909270622, 3768753.703998824581504 ], [ 396690.257440204033628, 3769607.84778276225552 ], [ 396034.067136606667191, 3772370.751635669730604 ], [ 387158.940260036615655, 3772474.893927421886474 ], [ 384868.036459681228735, 3778289.594808140769601 ], [ 387174.630784546723589, 3783049.047641451004893 ], [ 387511.256285932380706, 3788764.393220255617052 ], [ 384232.040812666062266, 3789912.916195370722562 ], [ 381271.331711646053009, 3786203.432564726565033 ], [ 378316.174858113052323, 3785733.882108057383448 ], [ 372748.372723990934901, 3789750.368893085047603 ], [ 373426.527175575494766, 3797083.802453825250268 ], [ 370483.623764485237189, 3799379.503727790433913 ], [ 370846.783806637511589, 3810143.579600117169321 ], [ 367580.450336292735301, 3812155.575410820543766 ], [ 367264.764382687513717, 3815300.631051687523723 ], [ 363677.868893644190393, 3818267.970570259727538 ] ] ] } },
{ "type": "Feature", "properties": { "drag_region": "Northeast", "NAME": "Pawnee", "NAMELSAD": "Pawnee" }, "geometry": { "type": "Polygon", "coordinates": [ [ [ 758635.193437586771324, 4095394.046098493505269 ], [ 759004.021490930113941, 4093113.324084419757128 ], [ 764863.323117114487104, 4089899.293322339188308 ], [ 770937.502903272281401, 4091747.544612359255552 ], [ 774029.612363281310536, 4097347.124221670441329 ], [ 780021.690209240303375, 4102442.750660687685013 ], [ 782953.232769746333361, 4100794.691393428947777 ], [ 786038.198776148841716, 4092761.622877768240869 ], [ 785499.071475851931609, 4088361.964184565003961 ], [ 788762.753913145163096, 4086532.674707087222487 ], [ 792289.068948599277064, 4087190.578402144368738 ], [ 795628.236824554740451, 4082409.051924731116742 ], [ 797903.866508443490602, 4081607.542766035534441 ], [ 801051.449002895504236, 4084548.44632275775075 ], [ 802759.039858174859546, 4080777.038290347438306 ], [ 799586.40493501315359, 4078788.705121300648898 ], [ 798388.781459157005884, 4075134.320208851713687 ], [ 803594.398850112571381, 4073359.061047740280628 ], [ 808654.455902139307, 4077210.4358074166812 ], [ 811046.748952411464415, 4072123.011350377928466 ], [ 815294.90737577166874, 4070138.30896687367931 ], [ 819600.114336739643477, 4066153.92692033899948 ], [ 827034.839757567853667, 4065884.372756397351623 ], [ 828398.82721844909247, 4063347.404283191543072 ], [ 826265.629826862597838, 4058803.44485384458676 ], [ 794613.806703730137087, 4058160.059599123895168 ], [ 794300.237983696744777, 4057770.901610881555825 ], [ 776544.09726492408663, 4057163.234647951554507 ], [ 776325.497421942185611, 4066884.501611556392163 ], [ 766971.447201324277557, 4066678.970455756410956 ], [ 766764.907040650607087, 4076304.85516993002966 ], [ 757099.224231962696649, 4076102.635363235604018 ], [ 756704.426152912783436, 4095449.697118387557566 ], [ 758635.193437586771324, 4095394.046098493505269 ] ] ] } },
{ "type": "Feature", "properties": { "drag_region": "Southeast", "NAME": "Johnston", "NAMELSAD": "Johnston" }, "geometry": { "type": "Polygon", "coordinates": [ [ [ 759395.132448474643752, 3725594.295509913470596 ], [ 764346.867286494234577, 3725791.648745682556182 ], [ 763946.271781975287013, 3744943.14492433751002 ], [ 797563.67404228716623, 3745708.81075752293691 ], [ 797797.726762069971301, 3736179.758669916074723 ], [ 807700.855687112896703, 3736237.296147307381034 ], [ 808439.936998959048651, 3707268.765071693342179 ], [ 804137.243505677673966, 3707160.342199516482651 ], [ 804256.143706376780756, 3702395.940166784916073 ], [ 792004.116743370424956, 3702098.327054623048753 ], [ 788901.661679034121335, 3707268.950649878941476 ], [ 784240.185394952772185, 3708400.578868072479963 ], [ 759754.854815987171605, 3707872.658212328329682 ], [ 759395.132448474643752, 3725594.295509913470596 ] ] ] } },
{ "type": "Feature", "properties": { "drag_region": "Southwest", "NAME": "McClain", "NAMELSAD": "McClain" }, "geometry": { "type": "Polygon", "coordinates": [ [ [ 567465.938080226769671, 3847303.108319875318557 ], [ 572408.308446317212656, 3843844.738560471218079 ], [ 577653.291468648705631, 3842299.349827982485294 ], [ 577417.985447379294783, 3836006.088168945163488 ], [ 591634.003407046897337, 3825548.755274341441691 ], [ 592379.827119231340475, 3819842.386069108266383 ], [ 596651.106902375933714, 3818863.541390631347895 ], [ 596402.274477228056639, 3814094.10699777957052 ], [ 598169.330262670642696, 3806308.216243284754455 ], [ 604069.992711876519024, 3806312.802353155333549 ], [ 605414.052065136376768, 3804429.894395223818719 ], [ 616266.891711412928998, 3802718.75000050989911 ], [ 622166.826448404928669, 3802925.513522238004953 ], [ 627789.825475699850358, 3800556.895060945767909 ], [ 635529.041615789057687, 3807100.461700543761253 ], [ 635781.207637614454143, 3794903.771902976557612 ], [ 568507.368330221157521, 3793857.215682023670524 ], [ 568175.44169067335315, 3794138.676585169043392 ], [ 567465.938080226769671, 3847303.108319875318557 ] ] ] } },
{ "type": "Feature", "properties": { "drag_region": "Southwest", "NAME": "Oklahoma", "NAMELSAD": "Oklahoma" }, "geometry": { "type": "Polygon", "coordinates": [ [ [ 569164.682298348168842, 3912457.358715296722949 ], [ 617214.967377359513193, 3913141.650465334765613 ], [ 617942.589058251818642, 3874548.593496656045318 ], [ 570011.392386687337421, 3873776.637054301332682 ], [ 569164.682298348168842, 3912457.358715296722949 ] ] ] } },
{ "type": "Feature", "properties": { "drag_region": "Northeast", "NAME": "Osage", "NAMELSAD": "Osage" }, "geometry": { "type": "Polygon", "coordinates": [ [ [ 787891.249950743629597, 4160206.986180305015296 ], [ 854658.423891744343564, 4162048.175604010000825 ], [ 857560.030373535468243, 4069101.758517027832568 ], [ 833658.402062886510976, 4068491.130404225550592 ], [ 835791.599454473005608, 4073035.089833572506905 ], [ 834427.611993591766804, 4075572.058306778315455 ], [ 826992.886572763556615, 4075841.612470719963312 ], [ 822687.679611795581877, 4079825.994517254643142 ], [ 818439.521188435377553, 4081810.696900758892298 ], [ 816047.228138163220137, 4086898.121357797645032 ], [ 810987.171086136484519, 4083046.74659812124446 ], [ 805781.553695180919021, 4084822.005759232677519 ], [ 806979.177171037066728, 4088476.39067168161273 ], [ 810151.812094198772684, 4090464.723840728402138 ], [ 808444.221238919417374, 4094236.131873138714582 ], [ 805296.63874446740374, 4091295.228316416498274 ], [ 803021.009060578653589, 4092096.737475112080574 ], [ 799681.841184623190202, 4096878.26395252533257 ], [ 796155.526149169076234, 4096220.360257468186319 ], [ 792891.843711875844747, 4098049.649734945967793 ], [ 793430.971012172754854, 4102449.308428149204701 ], [ 790346.005005770246498, 4110482.376943809911609 ], [ 787414.462445264216512, 4112130.436211068648845 ], [ 781422.384599305223674, 4107034.809772051405162 ], [ 778330.275139296194538, 4101435.230162740219384 ], [ 772256.095353138400242, 4099586.97887272015214 ], [ 766396.793726954027079, 4102801.00963480072096 ], [ 766027.965673610684462, 4105081.731648874469101 ], [ 767262.24098083935678, 4107586.40934161702171 ], [ 775564.115028164349496, 4110242.58525352133438 ], [ 776790.65275837178342, 4112939.40250748815015 ], [ 773838.034711088635959, 4115735.662411496508867 ], [ 766494.769887585542165, 4113577.455315028782934 ], [ 761654.353198379976675, 4114622.377221427857876 ], [ 762596.351675804937258, 4115690.305205791722983 ], [ 760808.319611163809896, 4124712.088341330178082 ], [ 763655.74386821500957, 4126677.064360785763711 ], [ 772671.331028376007453, 4125150.607583685778081 ], [ 776360.378686010139063, 4132478.284258462488651 ], [ 781186.721194268669933, 4131727.887761482503265 ], [ 782087.508812937303446, 4134418.489763158373535 ], [ 788457.391411947086453, 4136187.050963583402336 ], [ 787891.249950743629597, 4160206.986180305015296 ] ] ] } },
{ "type": "Feature", "properties": { "drag_region": "Northeast", "NAME": "Payne", "NAMELSAD": "Payne" }, "geometry": { "type": "Polygon", "coordinates": [ [ [ 719697.827237004414201, 4048493.508094432763755 ], [ 739071.130736289778724, 4048843.38883950561285 ], [ 738563.884434600127861, 4058462.58337568026036 ], [ 767593.097256672568619, 4059067.58981818985194 ], [ 767811.697099654469639, 4049346.322854585014284 ], [ 785567.837818427244201, 4049953.989817515015602 ], [ 786161.729274748591706, 4025650.318398237694055 ], [ 739532.127395983086899, 4024732.826202164869756 ], [ 733698.780206438153982, 4024909.501974426675588 ], [ 732039.977280473103747, 4027071.656199673656374 ], [ 727167.821948810247704, 4027937.420875051990151 ], [ 725486.173880675341934, 4031530.172867491375655 ], [ 722888.20571974851191, 4032056.996015983633697 ], [ 720025.042661313666031, 4029148.504513022955507 ], [ 719697.827237004414201, 4048493.508094432763755 ] ] ] } },
{ "type": "Feature", "properties": { "drag_region": "Southeast", "NAME": "Coal", "NAMELSAD": "Coal" }, "geometry": { "type": "Polygon", "coordinates": [ [ [ 808357.121279608807527, 3744633.775212281383574 ], [ 807975.270573733258061, 3773515.267533578444272 ], [ 817513.754991708672605, 3773756.125421876553446 ], [ 817262.996405424899422, 3783476.383135673590004 ], [ 846178.491864596726373, 3784268.70714137936011 ], [ 847018.014099525404163, 3755200.821078107692301 ], [ 842073.465344035997987, 3755059.807752981316298 ], [ 842345.103310581180267, 3745434.417939262464643 ], [ 808357.121279608807527, 3744633.775212281383574 ] ] ] } },
{ "type": "Feature", "properties": { "drag_region": "Southeast", "NAME": "Hughes", "NAMELSAD": "Hughes" }, "geometry": { "type": "Polygon", "coordinates": [ [ [ 812026.163383978535421, 3854938.747743149287999 ], [ 854144.499636467895471, 3856124.002471528016031 ], [ 854284.378879039897583, 3840768.424221139401197 ], [ 851702.142278848099522, 3839545.658898031804711 ], [ 845131.107902873889543, 3829143.714479664340615 ], [ 845712.683774678967893, 3797873.223072706256062 ], [ 816797.188315507140942, 3797080.899067000485957 ], [ 816328.607185527449474, 3815187.558815022930503 ], [ 814767.515797964879312, 3812095.633485644124448 ], [ 808843.930939839803614, 3812707.968616449274123 ], [ 808270.957072539255023, 3835484.226826647762209 ], [ 812524.249650145298801, 3835592.497071443125606 ], [ 812026.163383978535421, 3854938.747743149287999 ] ] ] } },
{ "type": "Feature", "properties": { "drag_region": "Southeast", "NAME": "Pontotoc", "NAMELSAD": "Pontotoc" }, "geometry": { "type": "Polygon", "coordinates": [ [ [ 758320.720957174547948, 3767116.391892801038921 ], [ 757472.459318947861902, 3808279.450295242946595 ], [ 761823.892450023558922, 3804080.691836961079389 ], [ 768336.126504052081145, 3806318.122244395315647 ], [ 771724.58951241360046, 3801435.349738068412989 ], [ 773692.670227198745124, 3801479.279585269279778 ], [ 776424.966767659992911, 3796773.976908952463418 ], [ 779350.152782772434875, 3798080.264063434675336 ], [ 778536.286576691665687, 3804926.171867290511727 ], [ 781489.607502657687292, 3804899.186159706674516 ], [ 783528.746976738446392, 3801895.876785376574844 ], [ 791696.677176032215357, 3803426.45697164023295 ], [ 793099.804926623823121, 3799742.059525820892304 ], [ 796067.022633311571553, 3799243.213143907487392 ], [ 797937.833764404873364, 3803199.521027858369052 ], [ 803861.418622529949062, 3802587.185897053219378 ], [ 805422.510010092519224, 3805679.111226432025433 ], [ 806141.849726355983876, 3777852.193764612544328 ], [ 796603.365308380569331, 3777611.335876314435154 ], [ 796751.163294473313726, 3758258.895642624236643 ], [ 768077.305006832932122, 3757598.179794047027826 ], [ 767868.151312167756259, 3767317.151449980679899 ], [ 758320.720957174547948, 3767116.391892801038921 ] ] ] } },
{ "type": "Feature", "properties": { "drag_region": "Southeast", "NAME": "Haskell", "NAMELSAD": "Haskell" }, "geometry": { "type": "Polygon", "coordinates": [ [ [ 932282.542019406449981, 3867525.34226133255288 ], [ 937705.428797332220711, 3871253.312682496383786 ], [ 942093.435749870142899, 3867500.303124510683119 ], [ 944990.073734847595915, 3868753.321881175041199 ], [ 951691.107213079114445, 3864517.99831404350698 ], [ 957406.403133772779256, 3869033.419026745948941 ], [ 957196.351641649263911, 3874467.935452288482338 ], [ 961994.686165826162323, 3877137.569828710518777 ], [ 968138.971208357834257, 3886930.821254040580243 ], [ 970443.667984748375602, 3886450.410017443355173 ], [ 972577.160598067683168, 3882143.366176160983741 ], [ 977492.693911334616132, 3881770.653696216177195 ], [ 982822.409485815442167, 3879316.380332173313946 ], [ 980704.004930839058943, 3875216.884533660486341 ], [ 988804.023637924925424, 3876987.926310860086232 ], [ 990287.175080728135072, 3872847.450128937605768 ], [ 990855.403630561777391, 3859402.259747823700309 ], [ 980391.189434507512487, 3858966.754568726290017 ], [ 981047.392193800653331, 3842947.901811827439815 ], [ 942723.803733374457806, 3841461.865328198298812 ], [ 942307.358288340154104, 3852806.627901437692344 ], [ 932494.138103187666275, 3852451.277158456854522 ], [ 932282.542019406449981, 3867525.34226133255288 ] ] ] } },
{ "type": "Feature", "properties": { "drag_region": "Southeast", "NAME": "Latimer", "NAMELSAD": "Latimer" }, "geometry": { "type": "Polygon", "coordinates": [ [ [ 937779.148043242865242, 3828548.414392646402121 ], [ 976102.736503669060767, 3830034.450876275543123 ], [ 976628.333090847125277, 3817162.295478463638574 ], [ 970395.552199393510818, 3816910.301359893754125 ], [ 970781.176795911509544, 3807280.38192636333406 ], [ 964870.349054073914886, 3807045.857060627546161 ], [ 965630.346302990568802, 3787691.416578718926758 ], [ 924171.264837473863736, 3786160.511770073790103 ], [ 924158.83724946109578, 3805439.038384664338082 ], [ 923482.111569721018896, 3824790.40092830825597 ], [ 937897.937513573328033, 3825307.07456184271723 ], [ 937779.148043242865242, 3828548.414392646402121 ] ] ] } },
{ "type": "Feature", "properties": { "drag_region": "Southeast", "NAME": "McCurtain", "NAMELSAD": "McCurtain" }, "geometry": { "type": "Polygon", "coordinates": [ [ [ 976093.058840199955739, 3704534.984991477802396 ], [ 976391.157081365236081, 3714188.678056285716593 ], [ 985984.260847066179849, 3714556.823741478379816 ], [ 984842.147719744010828, 3743826.028914498630911 ], [ 1038600.531077020452358, 3746087.11030604923144 ], [ 1040559.508718303055502, 3649476.524079726077616 ], [ 1037663.623711368534714, 3646961.881634871009737 ], [ 1031032.592208437970839, 3653650.111822300590575 ], [ 1025755.641485518892296, 3652183.94845465477556 ], [ 1025329.972733502392657, 3654362.99222813360393 ], [ 1019672.310800291714258, 3654030.340921001974493 ], [ 1016921.316706671263091, 3656017.495842047967017 ], [ 1013368.768733397591859, 3661315.137311461847275 ], [ 1008439.252466272795573, 3659585.995274297893047 ], [ 1004426.514484155341052, 3659901.721437903121114 ], [ 997145.195800874033011, 3667060.468166781123728 ], [ 994600.778816001606174, 3672498.582415412180126 ], [ 987282.745439630351029, 3672405.16452317032963 ], [ 980355.893883014912717, 3679587.718236685730517 ], [ 977342.698861550423317, 3680142.43899607937783 ], [ 976093.058840199955739, 3704534.984991477802396 ] ] ] } },
{ "type": "Feature", "properties": { "drag_region": "Southwest", "NAME": "Stephens", "NAMELSAD": "Stephens" }, "geometry": { "type": "Polygon", "coordinates": [ [ [ 511588.027059917338192, 3754634.932396843563765 ], [ 554991.829462439171039, 3755107.561940602492541 ], [ 564533.31482066004537, 3754857.688382099382579 ], [ 565145.039512022165582, 3711796.006067389156669 ], [ 511956.176689988817088, 3711290.598442343063653 ], [ 511588.027059917338192, 3754634.932396843563765 ] ] ] } },
{ "type": "Feature", "properties": { "drag_region": "Northeast", "NAME": "Muskogee", "NAMELSAD": "Muskogee" }, "geometry": { "type": "Polygon", "coordinates": [ [ [ 907303.66461914498359, 4004697.492506378795952 ], [ 917676.395565158687532, 4005142.522417466621846 ], [ 918914.585198713233694, 3997454.085176243912429 ], [ 923544.535480155842379, 3995132.656857188325375 ], [ 925729.966393728274852, 3997690.790675732772797 ], [ 933453.96072788327001, 3999779.152301464695483 ], [ 938663.278259945567697, 3999490.968122355639935 ], [ 943759.778738778317347, 4002256.712764983065426 ], [ 952559.44613345596008, 4001538.215976909734309 ], [ 965218.038881279760972, 4001935.285424876958132 ], [ 965820.59525034041144, 3970159.053750557359308 ], [ 970671.796339727239683, 3962997.57194396853447 ], [ 973612.871523989597335, 3962923.898571919649839 ], [ 967468.586481457808986, 3953130.647146589588374 ], [ 962670.251957281026989, 3950461.012770167551935 ], [ 962880.303449404425919, 3945026.496344625018537 ], [ 957165.007528710877523, 3940511.075631922576576 ], [ 950463.974050479242578, 3944746.399199054110795 ], [ 947567.336065501905978, 3943493.380442389752716 ], [ 946501.191995244007558, 3972285.21530602639541 ], [ 912973.791899789823219, 3971102.899883282370865 ], [ 912329.632817617617548, 3990358.997040966525674 ], [ 907457.938079663785174, 3990197.024873861111701 ], [ 907303.66461914498359, 4004697.492506378795952 ] ] ] } },
{ "type": "Feature", "properties": { "drag_region": "Northeast", "NAME": "Ottawa", "NAMELSAD": "Ottawa" }, "geometry": { "type": "Polygon", "coordinates": [ [ [ 987452.688004633062519, 4177278.72682078788057 ], [ 1021973.841381911304779, 4178703.976163309067488 ], [ 1023660.134091801592149, 4141984.820783225353807 ], [ 989623.028550713788718, 4140782.190790449734777 ], [ 988356.544099892140366, 4171011.675357944332063 ], [ 984919.936506298952736, 4176599.546249843668193 ], [ 987452.688004633062519, 4177278.72682078788057 ] ] ] } },
{ "type": "Feature", "properties": { "drag_region": "Northeast", "NAME": "Delaware", "NAMELSAD": "Delaware" }, "geometry": { "type": "Polygon", "coordinates": [ [ [ 989279.278706737561151, 4106925.449886569287628 ], [ 989179.221643460332416, 4124784.390271901618689 ], [ 1023216.327184548135847, 4125987.020264677237719 ], [ 1024069.789304198115133, 4107293.958638002164662 ], [ 1030940.816296400735155, 4070048.358671288006008 ], [ 990553.499510438297875, 4068292.551876304671168 ], [ 989279.278706737561151, 4106925.449886569287628 ] ] ] } },
{ "type": "Feature", "properties": { "drag_region": "Southwest", "NAME": "Harmon", "NAMELSAD": "Harmon" }, "geometry": { "type": "Polygon", "coordinates": [ [ [ 277171.427502158447169, 3802082.314599625766277 ], [ 287321.513072267407551, 3801986.293515001889318 ], [ 287235.94211595406523, 3792364.00219347095117 ], [ 301657.5497973280726, 3792247.27644898602739 ], [ 302571.663589777832385, 3782618.128763547167182 ], [ 302501.278784107242245, 3772805.714720741845667 ], [ 307417.395189475617371, 3771152.229122220538557 ], [ 307236.780654385103844, 3743811.759238547179848 ], [ 290761.496098490897566, 3743839.609162907116115 ], [ 283254.812922052107751, 3751717.688659060746431 ], [ 276981.736991049197968, 3749967.273434720467776 ], [ 277171.427502158447169, 3802082.314599625766277 ] ] ] } },
{ "type": "Feature", "properties": { "drag_region": "Northeast", "NAME": "Mayes", "NAMELSAD": "Mayes" }, "geometry": { "type": "Polygon", "coordinates": [ [ [ 936730.082235419773497, 4100584.085911031812429 ], [ 975001.063606979791075, 4102088.230125766247511 ], [ 976275.284410680527799, 4063455.332115501631051 ], [ 966583.354964122874662, 4063061.893277554772794 ], [ 966972.344441438559443, 4053336.056356152519584 ], [ 937862.77992797922343, 4052317.031024889089167 ], [ 937156.049243550980464, 4071575.92842751275748 ], [ 937797.864509016042575, 4071695.02480408269912 ], [ 936730.082235419773497, 4100584.085911031812429 ] ] ] } },
{ "type": "Feature", "properties": { "drag_region": "Northeast", "NAME": "Sequoyah", "NAMELSAD": "Sequoyah" }, "geometry": { "type": "Polygon", "coordinates": [ [ [ 986799.194421311607584, 3976736.361996716819704 ], [ 1046319.128428566036746, 3979282.792864895891398 ], [ 1050656.029827294871211, 3956066.968574656639248 ], [ 1051198.477635433897376, 3951408.79043535143137 ], [ 1047661.405475970939733, 3950099.008543914183974 ], [ 1045938.090760747320019, 3944859.469824290368706 ], [ 1047344.545808163820766, 3942725.575065079145133 ], [ 1040485.46118264971301, 3942414.74897336633876 ], [ 1036803.496154635795392, 3944256.70836921222508 ], [ 1034962.619467785116285, 3941499.427546955179423 ], [ 1030104.911158910370432, 3940330.061877929605544 ], [ 1027978.833112064166926, 3944058.977375355083495 ], [ 1021970.598852504976094, 3946856.31423104647547 ], [ 1016905.778573611401953, 3942914.667095790151507 ], [ 1015422.627130808192305, 3947055.143277712631971 ], [ 1007322.608423722325824, 3945284.101500513032079 ], [ 1009441.012978698709048, 3949383.597299025859684 ], [ 1004111.297404217883013, 3951837.870663068722934 ], [ 999195.764090950950049, 3952210.58314301352948 ], [ 997062.271477631642483, 3956517.626984295900911 ], [ 991816.499516978743486, 3957071.711592942010611 ], [ 986965.298427592031658, 3964233.19339953083545 ], [ 986799.194421311607584, 3976736.361996716819704 ] ] ] } },
{ "type": "Feature", "properties": { "drag_region": "Southwest", "NAME": "Canadian", "NAMELSAD": "Canadian" }, "geometry": { "type": "Polygon", "coordinates": [ [ [ 490705.364729149092454, 3908911.379779737908393 ], [ 548488.472264732583426, 3909599.492236481048167 ], [ 549396.608904528315179, 3866345.300989164039493 ], [ 543215.530658781761304, 3864930.320066676940769 ], [ 540248.449416760238819, 3867370.669517504051328 ], [ 538308.860121219302528, 3865917.408130248542875 ], [ 526540.109518652549013, 3868068.560532542876899 ], [ 524231.83762454992393, 3870425.92416755342856 ], [ 523613.978539498697501, 3867179.574819894507527 ], [ 517708.117231870826799, 3870644.715733235236257 ], [ 491626.504899078805465, 3870328.589974372182041 ], [ 491518.025878546352033, 3885763.270285019651055 ], [ 490839.862193483801093, 3889665.07301138760522 ], [ 490705.364729149092454, 3908911.379779737908393 ] ] ] } },
{ "type": "Feature", "properties": { "drag_region": "Southeast", "NAME": "Atoka", "NAMELSAD": "Atoka" }, "geometry": { "type": "Polygon", "coordinates": [ [ [ 823929.836817567469552, 3739856.367179995402694 ], [ 848014.68992349691689, 3740599.472429585177451 ], [ 847743.05195695173461, 3750224.862243304029107 ], [ 852687.600712441140786, 3750365.87556843040511 ], [ 852129.458113472443074, 3769712.594695224426687 ], [ 871209.132376842899248, 3770284.024040852673352 ], [ 871507.0926180081442, 3760657.610144700389355 ], [ 890934.262589876540005, 3761374.133382982574403 ], [ 891254.980384228983894, 3751651.780264441855252 ], [ 881364.670910293236375, 3751331.166789154987782 ], [ 882595.962790260557085, 3712539.516920320689678 ], [ 824668.9181294136215, 3710887.836104381363839 ], [ 823929.836817567469552, 3739856.367179995402694 ] ] ] } },
{ "type": "Feature", "properties": { "drag_region": "Southeast", "NAME": "Pittsburg", "NAMELSAD": "Pittsburg" }, "geometry": { "type": "Polygon", "coordinates": [ [ [ 857901.494430252350867, 3784035.764230303931981 ], [ 857038.538922487292439, 3825027.422573739662766 ], [ 863609.573298461502418, 3835429.366992107126862 ], [ 866191.809898653300479, 3836652.132315214723349 ], [ 873090.147872061934322, 3835909.985220485366881 ], [ 876211.365931846899912, 3840778.151834321208298 ], [ 883364.353573329746723, 3842246.677751277107745 ], [ 886705.090665272437036, 3840160.4623988494277 ], [ 894111.217126234201714, 3843840.743654610589147 ], [ 894367.754072286770679, 3845948.830936184618622 ], [ 899838.809924501925707, 3848615.431843623053282 ], [ 898952.820098594995216, 3845817.523051594849676 ], [ 908596.77350028953515, 3850732.602720785420388 ], [ 909765.317598526366055, 3854687.219282703939825 ], [ 914030.708189892116934, 3854266.312950607854873 ], [ 914242.304273673333228, 3839192.247847732156515 ], [ 924055.524458825821057, 3839547.598590712994337 ], [ 924590.75937419058755, 3824961.496186669915915 ], [ 910174.933430338278413, 3824444.822553135454655 ], [ 910851.659110078355297, 3805093.460009491536766 ], [ 911197.520807297201827, 3776187.244544967077672 ], [ 877279.128934788051993, 3774980.77967977989465 ], [ 876981.168693622807041, 3784607.193575932178646 ], [ 857901.494430252350867, 3784035.764230303931981 ] ] ] } },
{ "type": "Feature", "properties": { "drag_region": "Southwest", "NAME": "Tillman", "NAMELSAD": "Tillman" }, "geometry": { "type": "Polygon", "coordinates": [ [ [ 391276.7496229071985, 3745799.64649663399905 ], [ 400487.761435079271905, 3745794.872602553572506 ], [ 400487.665365559980273, 3740936.590490476693958 ], [ 416615.413398520438932, 3740950.325516851153225 ], [ 416631.972977659665048, 3731329.108896511606872 ], [ 431788.080322548688855, 3731367.537611507810652 ], [ 431852.75173882994568, 3712030.167526077013463 ], [ 436474.718530697107781, 3712141.992077216506004 ], [ 436549.736363287607674, 3692519.36685362784192 ], [ 433238.216842945839744, 3693364.614827527664602 ], [ 429279.037760769890156, 3689827.318226238247007 ], [ 422328.260056077269837, 3690189.778058546595275 ], [ 418021.554454401950352, 3692657.449649431277066 ], [ 413720.156065680959728, 3692936.259223021566868 ], [ 408094.139160883030854, 3695216.221986920572817 ], [ 405115.717541266058106, 3698643.482841828837991 ], [ 401809.256189074832946, 3699595.041498210281134 ], [ 396518.502655211545061, 3697024.0296426769346 ], [ 393543.362354951910675, 3698454.627657474484295 ], [ 389574.426674107788131, 3697410.683236644137651 ], [ 388915.455510840227362, 3699316.571762069128454 ], [ 382963.908399890875444, 3699040.149490251205862 ], [ 381338.349234129709657, 3712379.165190766565502 ], [ 382992.892586033151019, 3714376.279964241199195 ], [ 379700.221242408268154, 3718002.874148767907172 ], [ 380386.095240132184699, 3729908.657672671601176 ], [ 385675.388584923115559, 3740281.914854029193521 ], [ 392917.181803231360391, 3740558.796086779329926 ], [ 391276.7496229071985, 3745799.64649663399905 ] ] ] } },
{ "type": "Feature", "properties": { "drag_region": "Southeast", "NAME": "Bryan", "NAMELSAD": "Bryan" }, "geometry": { "type": "Polygon", "coordinates": [ [ [ 802674.994640524149872, 3667084.011680012568831 ], [ 801883.856429627514444, 3672499.492525045759976 ], [ 803820.536246793693863, 3674833.125786310993135 ], [ 799061.748913562623784, 3679679.05849193315953 ], [ 803046.94119000446517, 3679486.306669746525586 ], [ 806209.369232147466391, 3685949.210147458128631 ], [ 802434.222391226096079, 3691388.924331410788 ], [ 814686.249354232451878, 3691686.53744357265532 ], [ 814567.349153533345088, 3696450.939476303756237 ], [ 857266.043452738085762, 3697614.203804412856698 ], [ 862337.334935926366597, 3694235.84477935731411 ], [ 862948.183326202328317, 3673841.09111475944519 ], [ 868345.177895772852935, 3671142.142775360494852 ], [ 872137.816118762711994, 3666679.327544994652271 ], [ 879451.088921351009049, 3666716.400476761162281 ], [ 878556.444556345348246, 3663444.603540165349841 ], [ 875835.956281685037538, 3665362.884041006676853 ], [ 871587.601335061364807, 3662942.06280919816345 ], [ 863127.456793995923363, 3667837.111195902340114 ], [ 862880.554565645637922, 3664968.187179661355913 ], [ 852994.682381662656553, 3661913.014634551480412 ], [ 847975.815179315046407, 3663010.046035657636821 ], [ 848361.828931440250017, 3661113.517851379700005 ], [ 843688.758829568861984, 3661745.72468772623688 ], [ 841265.997068354394287, 3653096.08476176764816 ], [ 836646.263236521393992, 3651635.593878278508782 ], [ 830279.624815419083461, 3653278.150909435935318 ], [ 828152.55831312132068, 3645499.092989284545183 ], [ 824166.465834996779449, 3645110.400855699554086 ], [ 822740.869700027978979, 3648792.606325212866068 ], [ 817936.258035367703997, 3654582.94561652559787 ], [ 810968.780386914964765, 3653839.48193471506238 ], [ 808178.919322786736302, 3659206.450390710495412 ], [ 804532.984742032829672, 3658738.361862680874765 ], [ 799150.701861120411195, 3661472.765946086496115 ], [ 802674.994640524149872, 3667084.011680012568831 ] ] ] } },
{ "type": "Feature", "properties": { "drag_region": "Southeast", "NAME": "Le Flore", "NAMELSAD": "Le Flore" }, "geometry": { "type": "Polygon", "coordinates": [ [ [ 994609.016910882317461, 3819937.762947805225849 ], [ 993427.217564411112107, 3848828.771102515980601 ], [ 1003891.43176046537701, 3849264.276281613390893 ], [ 1003323.203210631734692, 3862709.466662727296352 ], [ 1008388.023489525308833, 3866651.113797983620316 ], [ 1014396.257749084499665, 3863853.776942292228341 ], [ 1016522.335795930703171, 3860124.861444866750389 ], [ 1021380.044104805449024, 3861294.227113892324269 ], [ 1023220.920791656128131, 3864051.507936149369925 ], [ 1026902.885819670045748, 3862209.548540303483605 ], [ 1033761.970445184153505, 3862520.374632016289979 ], [ 1032355.515397767652757, 3864654.269391227513552 ], [ 1034078.830112991272472, 3869893.80811085132882 ], [ 1037615.902272454113699, 3871203.590002288576216 ], [ 1039441.389286585967056, 3773520.706879313103855 ], [ 995579.939729502657428, 3771556.909316151402891 ], [ 994799.728044022805989, 3790912.084128953982145 ], [ 983611.030123025760986, 3790466.884048060514033 ], [ 982851.03287410910707, 3809821.324529969133437 ], [ 988761.860615946701728, 3810055.849395704921335 ], [ 988376.236019428703003, 3819685.7688292353414 ], [ 994609.016910882317461, 3819937.762947805225849 ] ] ] } },
{ "type": "Feature", "properties": { "drag_region": "Northeast", "NAME": "Noble", "NAMELSAD": "Noble" }, "geometry": { "type": "Polygon", "coordinates": [ [ [ 700056.198218245059252, 4107107.913392132148147 ], [ 736340.226718300487846, 4107765.226794831920415 ], [ 741180.643407505936921, 4106720.304888432845473 ], [ 748523.908231009030715, 4108878.511984900571406 ], [ 751476.526278292294592, 4106082.252080892212689 ], [ 750249.988548084860668, 4103385.434826925396919 ], [ 741948.114500759867951, 4100729.258915021084249 ], [ 740713.839193531079218, 4098224.581222278531641 ], [ 738783.071908857207745, 4098280.232242172583938 ], [ 739177.869987907120958, 4078933.170487020630389 ], [ 748843.552796595031396, 4079135.390293715056032 ], [ 749050.092957268701866, 4069509.505579541437328 ], [ 729374.930355814052746, 4069110.030292831826955 ], [ 729882.176657503703609, 4059490.835756657179445 ], [ 710508.873158218339086, 4059140.95501158433035 ], [ 700813.409230589400977, 4059553.917002313770354 ], [ 700056.198218245059252, 4107107.913392132148147 ] ] ] } },
{ "type": "Feature", "properties": { "drag_region": "Southeast", "NAME": "Seminole", "NAMELSAD": "Seminole" }, "geometry": { "type": "Polygon", "coordinates": [ [ [ 781822.649972076411359, 3870959.967972295358777 ], [ 787966.430159652489237, 3873205.680700937751681 ], [ 792584.784884684253484, 3871126.359524790197611 ], [ 789523.605533254682086, 3876199.984140992630273 ], [ 790782.238567498396151, 3878042.913618949241936 ], [ 796065.252517016837373, 3875409.793441047891974 ], [ 798249.01699356327299, 3879280.068122875411063 ], [ 800842.881208674167283, 3879823.745088374707848 ], [ 801851.090509556350298, 3840749.575802780222148 ], [ 797597.79793195030652, 3840641.305557984858751 ], [ 798170.771799250855111, 3817865.047347786370665 ], [ 796299.9606681575533, 3813908.739463835489005 ], [ 793332.742961469804868, 3814407.585845748893917 ], [ 791929.615210878197104, 3818091.983291568234563 ], [ 783761.685011584428139, 3816561.403105304576457 ], [ 781722.545537503669038, 3819564.712479634676129 ], [ 778769.224611537647434, 3819591.69818721851334 ], [ 779583.090817618416622, 3812745.790383362676948 ], [ 776657.904802505974658, 3811439.503228880465031 ], [ 773925.608262044726871, 3816144.80590519728139 ], [ 771957.527547259582207, 3816100.876057996414602 ], [ 770705.004349520313554, 3872133.296807145699859 ], [ 775218.425920953392051, 3874428.964481481350958 ], [ 781822.649972076411359, 3870959.967972295358777 ] ] ] } },
{ "type": "Feature", "properties": { "drag_region": "Northwest", "NAME": "Dewey", "NAMELSAD": "Dewey" }, "geometry": { "type": "Polygon", "coordinates": [ [ [ 374326.442218923708424, 4044654.848049121443182 ], [ 412742.381539205496665, 4044206.882966747041792 ], [ 441473.332598505076021, 4044648.504174285568297 ], [ 441943.480500320205465, 4005583.810738805681467 ], [ 374821.726905743067618, 4005586.408128530718386 ], [ 374210.832005725940689, 4015212.263612895738333 ], [ 374326.442218923708424, 4044654.848049121443182 ] ] ] } },
{ "type": "Feature", "properties": { "drag_region": "Southeast", "NAME": "Love", "NAMELSAD": "Love" }, "geometry": { "type": "Polygon", "coordinates": [ [ [ 681869.963567402563058, 3680673.630310624372214 ], [ 736194.095123576116748, 3681595.616657625418156 ], [ 736322.616322449990548, 3675116.986678959801793 ], [ 739637.557493059430271, 3675183.279460160061717 ], [ 739768.156146157765761, 3668704.648581861983985 ], [ 738784.442839583964087, 3668113.015241004060954 ], [ 734140.082730934256688, 3668021.102703492622823 ], [ 735271.850081337965094, 3661085.752900475636125 ], [ 730063.59605515061412, 3655552.647173594683409 ], [ 725711.796938932617195, 3657281.539969954639673 ], [ 729440.804910644539632, 3653348.830919064115733 ], [ 725160.423696373472922, 3651172.045649067964405 ], [ 726270.66951004578732, 3645093.395579802803695 ], [ 722666.579548387671821, 3642072.914543392602354 ], [ 718983.9667683072621, 3643340.835105232894421 ], [ 714837.263373996713199, 3652225.575049091596156 ], [ 718109.111715529230423, 3655142.020598674658686 ], [ 717333.3681509840535, 3661417.864175698254257 ], [ 714299.399036687915213, 3664032.835218921303749 ], [ 711011.826771239284426, 3662165.517365366686136 ], [ 710416.001901537762024, 3658153.041110170539469 ], [ 706069.449524398543872, 3659890.732424579560757 ], [ 703092.428950044210069, 3659174.937504606787115 ], [ 699536.882083444739692, 3653019.55532479705289 ], [ 692885.43010695988778, 3653393.106458170339465 ], [ 691181.742824280401692, 3656225.983783566392958 ], [ 691423.817603523493744, 3662232.466569269541651 ], [ 689080.944800790864974, 3663531.55025795288384 ], [ 681808.620838554459624, 3661426.059175109956414 ], [ 681869.963567402563058, 3680673.630310624372214 ] ] ] } },
{ "type": "Feature", "properties": { "drag_region": "Northwest", "NAME": "Roger Mills", "NAMELSAD": "Roger Mills" }, "geometry": { "type": "Polygon", "coordinates": [ [ [ 310543.635536747577135, 4009087.539788071997464 ], [ 317381.761295398580842, 4012641.38225886086002 ], [ 318396.145715941151138, 4017205.921782873570919 ], [ 323622.878950302721933, 4022590.210955905262381 ], [ 327824.278164577088319, 4022077.845066393259913 ], [ 327759.436544984171633, 4014264.500592606607825 ], [ 330637.182038796890993, 4009667.207265930250287 ], [ 336121.466745233163238, 4006480.800399226602167 ], [ 344859.392500419635326, 4004515.421145427972078 ], [ 350384.492503840359859, 4007054.85608624946326 ], [ 351054.076330728130415, 4010862.451771702151746 ], [ 354308.222502801916562, 4013703.238967793527991 ], [ 355957.334633296821266, 4019602.368721037637442 ], [ 359853.655195015016943, 4022441.917614704929292 ], [ 366326.570459803042468, 4023271.695629393681884 ], [ 366277.274296502349898, 4010694.440007209777832 ], [ 366888.169196519476827, 4001068.584522844757885 ], [ 366777.873417797323782, 3972199.384572674985975 ], [ 367736.208829323062673, 3967431.948197397403419 ], [ 348532.244501393812243, 3967523.526983606163412 ], [ 348475.530128454673104, 3957805.438087360933423 ], [ 310026.084125180495903, 3958207.251834972761571 ], [ 310543.635536747577135, 4009087.539788071997464 ] ] ] } },
{ "type": "Feature", "properties": { "drag_region": "Northeast", "NAME": "Tulsa", "NAMELSAD": "Tulsa" }, "geometry": { "type": "Polygon", "coordinates": [ [ [ 841979.063859886140563, 4053795.402789523825049 ], [ 868787.175307400408201, 4054487.4171177954413 ], [ 867882.707464417209849, 4083657.269338520709425 ], [ 884946.204878779943101, 4084109.441856024321169 ], [ 885575.817073360085487, 4055213.395664254203439 ], [ 890420.564652556320652, 4055373.840596828609705 ], [ 891388.517763127107173, 4026298.178519919514656 ], [ 886203.575830469373614, 4026127.638919465243816 ], [ 886365.069373467937112, 4021170.650932694785297 ], [ 866908.477003698470071, 4020654.010395603254437 ], [ 866494.942403597990051, 4044875.583532740361989 ], [ 842244.104742153314874, 4044263.729475277010351 ], [ 841979.063859886140563, 4053795.402789523825049 ] ] ] } },
{ "type": "Feature", "properties": { "drag_region": "Southwest", "NAME": "Washita", "NAMELSAD": "Washita" }, "geometry": { "type": "Polygon", "coordinates": [ [ [ 366471.624130075622816, 3869495.174414777662605 ], [ 433558.916199099738151, 3869403.421937226783484 ], [ 434039.79774576285854, 3828723.699354283045977 ], [ 431412.2953392585041, 3831667.469377463217825 ], [ 423570.020807618042454, 3829166.314345653168857 ], [ 422257.475218351988588, 3830782.510911375749856 ], [ 366656.519674801500514, 3830813.679218611679971 ], [ 366471.624130075622816, 3869495.174414777662605 ] ] ] } },
{ "type": "Feature", "properties": { "drag_region": "Southwest", "NAME": "Caddo", "NAMELSAD": "Caddo" }, "geometry": { "type": "Polygon", "coordinates": [ [ [ 449749.163013167097233, 3864420.324317724909633 ], [ 450037.913363138330169, 3874044.356478723697364 ], [ 478015.607917311601341, 3874195.63390050502494 ], [ 478693.77160237415228, 3870293.831174137070775 ], [ 478802.250622906605713, 3854859.150863489601761 ], [ 497711.170741822337732, 3855106.996067646890879 ], [ 498540.650533328880556, 3835772.129921262618154 ], [ 498565.05896192684304, 3797089.115526057779789 ], [ 450332.132931509637274, 3796780.098058348055929 ], [ 449749.163013167097233, 3864420.324317724909633 ] ] ] } },
{ "type": "Feature", "properties": { "drag_region": "Northwest", "NAME": "Cimarron", "NAMELSAD": "Cimarron" }, "geometry": { "type": "Polygon", "coordinates": [ [ [ 1374.248272920784075, 4157889.827741704881191 ], [ 21183.39769390708534, 4156983.83133980166167 ], [ 28194.984578646719456, 4156230.616017870139331 ], [ 87938.787551704852376, 4153831.429829798173159 ], [ 85888.578458870353643, 4099216.130201318766922 ], [ -1269.802085559349507, 4102403.287694930564612 ], [ -475.498627538792789, 4113737.628708164673299 ], [ 1374.248272920784075, 4157889.827741704881191 ] ] ] } },
{ "type": "Feature", "properties": { "drag_region": "Northeast", "NAME": "Washington", "NAMELSAD": "Washington" }, "geometry": { "type": "Polygon", "coordinates": [ [ [ 866700.456959958886728, 4164880.458186870906502 ], [ 885867.050936314743012, 4165601.869793199002743 ], [ 886082.776906712562777, 4159214.115138082299381 ], [ 883844.575941951363347, 4159138.873377546202391 ], [ 885761.093013129546307, 4101556.065838117618114 ], [ 868697.595598766813055, 4101103.89332061400637 ], [ 866700.456959958886728, 4164880.458186870906502 ] ] ] } },
{ "type": "Feature", "properties": { "drag_region": "Northwest", "NAME": "Grant", "NAMELSAD": "Grant" }, "geometry": { "type": "Polygon", "coordinates": [ [ [ 506153.95499533531256, 4149885.084092432633042 ], [ 563962.081889751018025, 4150717.015121557749808 ], [ 564685.426916713244282, 4105733.152818438597023 ], [ 506890.028574889875017, 4105193.164708628784865 ], [ 506153.95499533531256, 4149885.084092432633042 ] ] ] } },
{ "type": "Feature", "properties": { "drag_region": "Southeast", "NAME": "Marshall", "NAMELSAD": "Marshall" }, "geometry": { "type": "Polygon", "coordinates": [ [ [ 752638.277351797209121, 3679793.486872115172446 ], [ 752617.140956827788614, 3697521.165074348915368 ], [ 780080.309495441615582, 3698108.93538459436968 ], [ 784741.785779522964731, 3696977.307166400831193 ], [ 791619.387684780638665, 3686366.9693871922791 ], [ 788456.959642637637444, 3679904.065909481141716 ], [ 784471.767366195796058, 3680096.817731667775661 ], [ 789230.554699426866136, 3675250.885026045143604 ], [ 787293.874882260686718, 3672917.251764779910445 ], [ 788085.013093157322146, 3667501.770919746719301 ], [ 780083.015815449645743, 3668842.577124243602157 ], [ 777610.688391176285222, 3660588.923355446197093 ], [ 771649.632578219170682, 3659599.876553775276989 ], [ 770234.466826175223105, 3663572.733650106471032 ], [ 765889.176990054431371, 3664814.469728590454906 ], [ 763962.658550587366335, 3661628.560638262424618 ], [ 760924.330461084027775, 3663948.41845659352839 ], [ 758747.337142941891216, 3672958.605251953005791 ], [ 756083.817175504984334, 3673381.148775017354637 ], [ 755953.218522406648844, 3679859.77965331543237 ], [ 752638.277351797209121, 3679793.486872115172446 ] ] ] } },
{ "type": "Feature", "properties": { "drag_region": "Northwest", "NAME": "Harper", "NAMELSAD": "Harper" }, "geometry": { "type": "Polygon", "coordinates": [ [ [ 312020.77428899978986, 4148390.119010902941227 ], [ 360563.066459538589697, 4147826.955317376181483 ], [ 367855.948358967609238, 4134453.112321112304926 ], [ 373285.216011085256469, 4131860.467920054681599 ], [ 374872.325674128253013, 4127757.625361124519259 ], [ 374795.440270145714749, 4102885.905555748380721 ], [ 347183.336239596363157, 4102729.493911469820887 ], [ 311545.878710513818078, 4103123.001847345381975 ], [ 312020.77428899978986, 4148390.119010902941227 ] ] ] } },
{ "type": "Feature", "properties": { "drag_region": "Northwest", "NAME": "Beaver", "NAMELSAD": "Beaver" }, "geometry": { "type": "Polygon", "coordinates": [ [ [ 218986.71056212487747, 4149703.892401014920324 ], [ 302673.639018706744537, 4148789.575334168970585 ], [ 302090.410489550442435, 4093135.271261696703732 ], [ 216899.719444067945005, 4094443.635730559937656 ], [ 217688.439725677977549, 4133139.122737520840019 ], [ 218648.579256491531851, 4133119.526699788868427 ], [ 218986.71056212487747, 4149703.892401014920324 ] ] ] } },
{ "type": "Feature", "properties": { "drag_region": "Northeast", "NAME": "Craig", "NAMELSAD": "Craig" }, "geometry": { "type": "Polygon", "coordinates": [ [ [ 938545.598905440652743, 4171079.363702451344579 ], [ 974336.005882647819817, 4172506.945929797366261 ], [ 971803.254384313710034, 4171827.765358853153884 ], [ 975239.861977906897664, 4166239.894466953817755 ], [ 976506.346428728546016, 4136010.409899459220469 ], [ 976606.403492005774751, 4118151.469514126889408 ], [ 947983.053236181964166, 4117010.430080191232264 ], [ 947289.944811669411138, 4126723.682159576565027 ], [ 938295.701886482886039, 4126384.469795059878379 ], [ 936864.468536113854498, 4164714.116277490276843 ], [ 938783.114224935183302, 4164786.264991201926023 ], [ 938545.598905440652743, 4171079.363702451344579 ] ] ] } },
{ "type": "Feature", "properties": { "drag_region": "Northwest", "NAME": "Major", "NAMELSAD": "Major" }, "geometry": { "type": "Polygon", "coordinates": [ [ [ 418616.576099556114059, 4086947.35072488617152 ], [ 428901.803767580364365, 4086957.870540002826601 ], [ 432125.994141034781933, 4081913.295200749766082 ], [ 439527.723477860039566, 4080215.962175304070115 ], [ 441789.445569261384662, 4076982.816804878879339 ], [ 448557.340848145482596, 4074338.324505749158561 ], [ 456923.643810904526617, 4074946.594707340933383 ], [ 456566.443036443146411, 4082282.375985609833151 ], [ 495159.042555284977425, 4082459.290006124414504 ], [ 495465.061239688948262, 4049393.387382026296109 ], [ 418955.68230019940529, 4048641.874242475256324 ], [ 418306.329864007711876, 4058170.154728036373854 ], [ 418616.576099556114059, 4086947.35072488617152 ] ] ] } },
{ "type": "Feature", "properties": { "drag_region": "Northeast", "NAME": "Rogers", "NAMELSAD": "Rogers" }, "geometry": { "type": "Polygon", "coordinates": [ [ [ 893219.096169930766337, 4061928.629231191240251 ], [ 891947.96981227141805, 4110177.450172469485551 ], [ 934989.327615185757168, 4111715.215007560327649 ], [ 935682.436039698310196, 4102001.962928174994886 ], [ 926034.804923962103203, 4101638.858147376216948 ], [ 927102.587197558372281, 4072749.797040427103639 ], [ 926460.77193209331017, 4072630.700663857161999 ], [ 927167.502616521553136, 4053371.803261233493686 ], [ 915526.09544243698474, 4052953.25104297650978 ], [ 917078.660934333573096, 4054821.853942065965384 ], [ 915637.158730588271283, 4058970.871852317359298 ], [ 912389.060558710014448, 4059333.854291945695877 ], [ 910660.558446313836612, 4062518.857146257534623 ], [ 893219.096169930766337, 4061928.629231191240251 ] ] ] } }
]
}
