{
"type": "FeatureCollection",
"name": "map",
"crs": { "type": "name", "properties": { "name": "urn:ogc:def:crs:EPSG::32618" } },
"features": [
{ "type": "Feature", "properties": { "drag_region": "Central", "NAME": "Lamoille", "NAMELSAD": "Lamoille" }, "geometry": { "type": "Polygon", "coordinates": [ [ [ 669750.277400195016526, 5049082.771685058251023 ], [ 682737.911426164908335, 5042891.778022759594023 ], [ 677925.372774350922555, 5032902.411644354462624 ], [ 686901.642965827137232, 5028505.402264469303191 ], [ 686644.408753343159333, 5027637.39141343627125 ], [ 682073.508760957513005, 5018799.555747441016138 ], [ 677792.49515752797015, 5009401.676533951424062 ], [ 669321.335854032542557, 5015450.794705105014145 ], [ 665014.340252489550039, 5006252.858085408806801 ], [ 652847.529270100058056, 5011931.282558579929173 ], [ 649971.568776328931563, 5012618.593424704857171 ], [ 652685.992906033876352, 5017942.948749100789428 ], [ 650373.089530291734263, 5019027.072786753065884 ], [ 650551.790695415926166, 5023042.458597430028021 ], [ 642626.331300825346261, 5031812.231435270048678 ], [ 645404.080073717632331, 5034557.216643595136702 ], [ 648375.72580759099219, 5040650.891812941990793 ], [ 652697.197557983687147, 5038665.539785508997738 ], [ 653689.195604826556519, 5044040.319131165742874 ], [ 656390.703770746011287, 5049176.061933242715895 ], [ 666846.182468706276268, 5051193.620381446555257 ], [ 669750.277400195016526, 5049082.771685058251023 ] ] ] } },
{ "type": "Feature", "properties": { "drag_region": "South", "NAME": "Windham", "NAMELSAD": "Windham" }, "geometry": { "type": "Polygon", "coordinates": [ [ [ 675463.952833274379373, 4669190.95184470154345 ], [ 688695.0781889653299, 4665152.755369898863137 ], [ 699730.685749199707061, 4666899.546788733452559 ], [ 709066.034050967660733, 4666893.215856877155602 ], [ 707849.909007853479125, 4658929.898926785215735 ], [ 709574.908041145070456, 4650292.563513291068375 ], [ 707040.415670704795048, 4647064.219954327680171 ], [ 708945.391444639768451, 4642156.405116115696728 ], [ 706734.33699812926352, 4637792.404975014738739 ], [ 702957.250833832891658, 4636724.983532543294132 ], [ 702824.698136425111443, 4631278.399092573672533 ], [ 700390.115464978152886, 4624236.937633252702653 ], [ 704196.700963693787344, 4614609.103766961023211 ], [ 705930.503805767628364, 4615615.301781762391329 ], [ 708725.719307303312235, 4610638.215355611406267 ], [ 670196.147606434766203, 4610922.054468408226967 ], [ 670268.43214102613274, 4631828.91573671810329 ], [ 663231.656150640104897, 4631945.011531356722116 ], [ 663614.232484770589508, 4652763.433735397644341 ], [ 674136.465509533300065, 4652641.152297598309815 ], [ 674459.742854375974275, 4662864.280330750159919 ], [ 675463.952833274379373, 4669190.95184470154345 ] ] ] } },
{ "type": "Feature", "properties": { "drag_region": "Central", "NAME": "Franklin", "NAMELSAD": "Franklin" }, "geometry": { "type": "Polygon", "coordinates": [ [ [ 603796.554851852357388, 5098965.082628171890974 ], [ 644517.665291707380675, 5100195.596237963065505 ], [ 653873.609537870856002, 5099707.053874342702329 ], [ 655534.339498840388842, 5091638.317413087002933 ], [ 656446.30895933683496, 5080299.47183078341186 ], [ 652928.755030467873439, 5074462.71836304385215 ], [ 650024.660098979133181, 5076573.567059432156384 ], [ 639569.1814010188682, 5074556.008611228317022 ], [ 636867.673235099413432, 5069420.265809151344001 ], [ 635875.675188256544061, 5064045.486463494598866 ], [ 631554.203437863849103, 5066030.83849092759192 ], [ 628582.557703990489244, 5059937.163321580737829 ], [ 625804.808931098203175, 5057192.178113255649805 ], [ 616931.072360594989732, 5058977.571409402415156 ], [ 601674.669689075904898, 5066552.213238402269781 ], [ 598997.984951179241762, 5072031.762983938679099 ], [ 602850.104262593202293, 5077748.313795716501772 ], [ 604056.335502225672826, 5087322.607101986184716 ], [ 599992.34198586596176, 5091720.599238490685821 ], [ 603796.554851852357388, 5098965.082628171890974 ] ] ] } },
{ "type": "Feature", "properties": { "drag_region": "South", "NAME": "Windsor", "NAMELSAD": "Windsor" }, "geometry": { "type": "Polygon", "coordinates": [ [ [ 686301.483494539628737, 4817663.615200525149703 ], [ 687262.817331760190427, 4814060.98720954079181 ], [ 713501.979672847897746, 4804789.841255147941411 ], [ 734244.570017913123593, 4797913.347543194890022 ], [ 728890.844314541434869, 4793627.36511033307761 ], [ 726425.819579081842676, 4789343.978713200427592 ], [ 724745.056090137921274, 4778592.18541977647692 ], [ 720779.396604215260595, 4775600.613749479874969 ], [ 719551.247676009777933, 4768494.625945896841586 ], [ 721107.118117380421609, 4765200.792565650306642 ], [ 718603.82170396251604, 4752229.71881602704525 ], [ 720527.642013302654959, 4746559.499350267462432 ], [ 717598.258073296630755, 4737587.401336667127907 ], [ 708262.909771528677084, 4737593.732268523424864 ], [ 697227.302211294299923, 4735846.940849688835442 ], [ 686346.692871941719204, 4739182.345215470530093 ], [ 685928.460180024150759, 4744040.451109987683594 ], [ 682138.679774351767264, 4744133.588023136369884 ], [ 683102.044092611642554, 4751986.768500020727515 ], [ 685401.088458898011595, 4753096.517251336947083 ], [ 690714.134839284000918, 4750277.419755917973816 ], [ 692986.174092426430434, 4763037.506194828078151 ], [ 687971.866771941655315, 4765862.300879959948361 ], [ 689136.438383504282683, 4776586.929347087629139 ], [ 690305.737192826229148, 4776236.485626391135156 ], [ 694648.400954773765989, 4786953.966672403737903 ], [ 684714.205458305310458, 4790409.377694407477975 ], [ 687634.114145496161655, 4800225.875882317312062 ], [ 686998.021416880888864, 4802404.938709794543684 ], [ 680315.412996636587195, 4803948.261444243602455 ], [ 679972.916931139072403, 4806039.950503669679165 ], [ 673425.521254066261463, 4802342.427774759940803 ], [ 671542.262058669934049, 4808501.802432245574892 ], [ 673581.92561927693896, 4807692.737738055177033 ], [ 679845.337645464809611, 4811001.50587788131088 ], [ 680828.43832207005471, 4806443.906964233145118 ], [ 686301.483494539628737, 4817663.615200525149703 ] ] ] } },
{ "type": "Feature", "properties": { "drag_region": "South", "NAME": "Rutland", "NAMELSAD": "Rutland" }, "geometry": { "type": "Polygon", "coordinates": [ [ [ 602797.166985085234046, 4792212.136053659953177 ], [ 615480.521245038369671, 4793906.627151743508875 ], [ 614156.632403565803543, 4801705.515110673382878 ], [ 629425.422036399133503, 4803101.835132238455117 ], [ 630689.379664152860641, 4798549.593685192987323 ], [ 641797.359174818964675, 4804744.852728274650872 ], [ 642139.855240316363052, 4802653.163668848574162 ], [ 648822.463660560781136, 4801109.84093439951539 ], [ 649458.556389176053926, 4798930.778106922283769 ], [ 646538.64770198520273, 4789114.279919012449682 ], [ 656472.843198453541845, 4785658.86889700870961 ], [ 652130.179436506005004, 4774941.387850996106863 ], [ 650960.880627184174955, 4775291.831571692600846 ], [ 649796.309015621431172, 4764567.203104564920068 ], [ 654810.616336106322706, 4761742.408419433049858 ], [ 652538.57708296389319, 4748982.321980522945523 ], [ 647225.530702577903867, 4751801.41947594191879 ], [ 644926.486336291534826, 4750691.670724625699222 ], [ 643963.122018031543121, 4742838.490247741341591 ], [ 612488.519129644148052, 4743635.34730086568743 ], [ 612511.133524426491931, 4770266.056023277342319 ], [ 608685.413755411747843, 4772954.570316364988685 ], [ 608002.471389046637341, 4777999.398538369685411 ], [ 602500.408190774964169, 4777889.171071752905846 ], [ 600594.93007657979615, 4771552.707202786579728 ], [ 597649.576515047810972, 4773978.016258522868156 ], [ 599469.020088735036552, 4784893.305601943284273 ], [ 602797.166985085234046, 4792212.136053659953177 ] ] ] } },
{ "type": "Feature", "properties": { "drag_region": "Central", "NAME": "Grand Isle", "NAMELSAD": "Grand Isle" }, "geometry": { "type": "Polygon", "coordinates": [ [ [ 565621.338354920153506, 5092640.177863978780806 ], [ 577494.065836015157402, 5093180.699321084655821 ], [ 573689.852970028761774, 5085936.215931403450668 ], [ 577753.84648638847284, 5081538.223794898949564 ], [ 576547.615246756002307, 5071963.93048862926662 ], [ 572695.495935342041776, 5066247.379676851443946 ], [ 575372.180673238704912, 5060767.829931315034628 ], [ 574979.493152177077718, 5052644.268901633098722 ], [ 572555.903427666984499, 5046100.393995279446244 ], [ 565209.918076841393486, 5042893.698033839464188 ], [ 562771.349351110402495, 5050863.94873533397913 ], [ 563851.068962358520366, 5053844.73721362836659 ], [ 564244.138538393075578, 5062635.316442360170186 ], [ 566978.086609255056828, 5067941.449480609968305 ], [ 563178.440268058329821, 5073306.142552824690938 ], [ 564192.04318180680275, 5079340.902133262716234 ], [ 566117.388723403331824, 5082244.086980963125825 ], [ 565621.338354920153506, 5092640.177863978780806 ] ] ] } },
{ "type": "Feature", "properties": { "drag_region": "South", "NAME": "Bennington", "NAMELSAD": "Bennington" }, "geometry": { "type": "Polygon", "coordinates": [ [ [ 607626.520375622436404, 4637875.281261277385056 ], [ 608232.805077648488805, 4679119.262978593818843 ], [ 643497.188371708383784, 4678229.269012320786715 ], [ 643915.421063625952229, 4673371.163117803633213 ], [ 641564.90504728758242, 4674073.955226824618876 ], [ 640560.695068389177322, 4667747.283712873235345 ], [ 640237.417723546503112, 4657524.155679721385241 ], [ 629715.184698783792555, 4657646.437117520719767 ], [ 629332.608364653307945, 4636828.014913479797542 ], [ 636369.384355039335787, 4636711.919118841178715 ], [ 636297.09982044796925, 4615805.057850531302392 ], [ 608957.458036535186693, 4615951.85874898545444 ], [ 606481.714340188540518, 4622104.674231572076678 ], [ 607583.597931430791505, 4625658.26748753618449 ], [ 607626.520375622436404, 4637875.281261277385056 ] ] ] } },
{ "type": "Feature", "properties": { "drag_region": "North", "NAME": "Orleans", "NAMELSAD": "Orleans" }, "geometry": { "type": "Polygon", "coordinates": [ [ [ 738600.097536634770222, 5072856.806634261272848 ], [ 758135.715703274123371, 5072903.203709152527153 ], [ 790361.46926388470456, 5074629.470375522971153 ], [ 788525.707004115334712, 5063282.410884887911379 ], [ 792908.354979634401388, 5060009.397026035003364 ], [ 785343.685771545046009, 5049688.432822376489639 ], [ 788255.030521083623171, 5047886.218993660993874 ], [ 782577.684497164562345, 5039839.284124022349715 ], [ 774415.487489320803434, 5045182.283241298981011 ], [ 776663.811372065916657, 5038000.694089704193175 ], [ 772035.732411023229361, 5040034.407796639017761 ], [ 763539.265814745798707, 5021781.778080179356039 ], [ 754549.374382379930466, 5026167.090851340442896 ], [ 754806.608594863908365, 5027035.101702373474836 ], [ 745830.338403387693688, 5031432.111082258634269 ], [ 750642.877055201679468, 5041421.477460663765669 ], [ 737655.243029231787659, 5047612.471122962422669 ], [ 741172.79695810074918, 5053449.224590701982379 ], [ 740260.827497604303062, 5064788.070173005573452 ], [ 738600.097536634770222, 5072856.806634261272848 ] ] ] } },
{ "type": "Feature", "properties": { "drag_region": "Central", "NAME": "Chittenden", "NAMELSAD": "Chittenden" }, "geometry": { "type": "Polygon", "coordinates": [ [ [ 583765.592235550400801, 5010071.771765689365566 ], [ 591111.577586375991814, 5013278.467727129347622 ], [ 593535.167310886085033, 5019822.3426334830001 ], [ 593927.854831947712228, 5027945.903663164936006 ], [ 609184.257503466797061, 5020371.261834165081382 ], [ 618057.994073970010504, 5018585.868538018316031 ], [ 625983.453468560590409, 5009816.095700178295374 ], [ 625804.752303436398506, 5005800.709889501333237 ], [ 628117.655679178540595, 5004716.58585184905678 ], [ 625403.231549473595805, 4999392.230527453124523 ], [ 628279.192043244722299, 4998704.919661328196526 ], [ 625567.028184760827571, 4993189.76565604377538 ], [ 628463.613063569762744, 4991834.503801259212196 ], [ 626839.55681660596747, 4988353.529087943956256 ], [ 624533.80383424134925, 4988961.128100590780377 ], [ 620193.620094347978011, 4979587.007510969415307 ], [ 621356.374057802837342, 4978948.336335943080485 ], [ 617376.484157252009027, 4966148.841705488041043 ], [ 615294.028582233469933, 4980705.309921309351921 ], [ 597318.773582893889397, 4977326.183549123816192 ], [ 588157.255432579899207, 4976845.093088411726058 ], [ 586194.12500965828076, 4988832.939394873566926 ], [ 589466.433643431519158, 4996537.330776108428836 ], [ 588187.512941501219757, 5003097.733993678353727 ], [ 585514.623878897866234, 5008197.877406196668744 ], [ 583765.592235550400801, 5010071.771765689365566 ] ] ] } },
{ "type": "Feature", "properties": { "drag_region": "Central", "NAME": "Washington", "NAMELSAD": "Washington" }, "geometry": { "type": "Polygon", "coordinates": [ [ [ 644765.077358139213175, 4951073.871667904779315 ], [ 648744.96725869004149, 4963873.366298359818757 ], [ 647582.213295235182159, 4964512.037473386153579 ], [ 651922.397035128553398, 4973886.158063007518649 ], [ 654228.150017493171617, 4973278.559050360694528 ], [ 655852.206264456966892, 4976759.533763675950468 ], [ 652955.621385648031719, 4978114.795618460513651 ], [ 655667.785244131926447, 4983629.949623744934797 ], [ 667834.59622652141843, 4977951.525150573812425 ], [ 672141.591828064410947, 4987149.46177027001977 ], [ 680612.751131559838541, 4981100.343599116429687 ], [ 684893.764734989381395, 4990498.222812606021762 ], [ 702035.552256219438277, 4981983.625805254094303 ], [ 702373.180651389528066, 4980466.562851767987013 ], [ 698633.25729944894556, 4972507.114110902883112 ], [ 694780.445486187469214, 4967699.122126874513924 ], [ 695160.492418591864407, 4964845.849995445460081 ], [ 691108.321948198834434, 4957072.974083097651601 ], [ 687033.280207741772756, 4958853.993543150834739 ], [ 685343.837866557994857, 4948581.319600796326995 ], [ 676044.480161017156206, 4952023.567087917588651 ], [ 673756.959919344517402, 4951669.541619902476668 ], [ 666466.770975705469027, 4935130.292017120867968 ], [ 661813.688952247845009, 4936815.527724797837436 ], [ 648461.340419438318349, 4941237.159832174889743 ], [ 646195.238211658434011, 4951300.63410681206733 ], [ 644765.077358139213175, 4951073.871667904779315 ] ] ] } },
{ "type": "Feature", "properties": { "drag_region": "North", "NAME": "Orange", "NAMELSAD": "Orange" }, "geometry": { "type": "Polygon", "coordinates": [ [ [ 716560.73740628559608, 4892341.250162076205015 ], [ 720385.835944457561709, 4899988.235693558119237 ], [ 725038.917967915185727, 4898302.999985881149769 ], [ 732329.106911554234102, 4914842.24958866275847 ], [ 734616.627153226872906, 4915196.275056677870452 ], [ 743915.984858767711557, 4911754.027569556608796 ], [ 745605.427199951489456, 4922026.70151191111654 ], [ 749680.468940408551134, 4920245.682051857933402 ], [ 754917.857253414811566, 4918122.992781415581703 ], [ 765209.875031334813684, 4919519.605853180401027 ], [ 776247.628742250846699, 4916086.706025254912674 ], [ 775291.087604658911005, 4910701.916248286142945 ], [ 777090.321012151194736, 4908664.6532774688676 ], [ 773876.181435604812577, 4901957.247501657344401 ], [ 770571.503738865023479, 4897637.168478323146701 ], [ 770854.902616476756521, 4889526.664836831390858 ], [ 765597.625596993020736, 4882944.829354969784617 ], [ 766094.194983005989343, 4876848.03825225122273 ], [ 764503.823929659090936, 4872590.982504745945334 ], [ 743761.233584593865089, 4879467.476216698996723 ], [ 717522.071243506157771, 4888738.622171091847122 ], [ 716560.73740628559608, 4892341.250162076205015 ] ] ] } },
{ "type": "Feature", "properties": { "drag_region": "North", "NAME": "Essex", "NAMELSAD": "Essex" }, "geometry": { "type": "Polygon", "coordinates": [ [ [ 816608.623956515803002, 5068568.761688342317939 ], [ 847980.102551785297692, 5070421.613307665102184 ], [ 844991.434099120204337, 5067424.900612111203372 ], [ 849037.46533500298392, 5059089.886699308641255 ], [ 844241.29373630892951, 5051714.088546904735267 ], [ 843364.542346259346232, 5045558.622431572526693 ], [ 839311.806774706928991, 5040418.06860757805407 ], [ 842845.654672363190912, 5030814.921326619572937 ], [ 845844.890773202991113, 5027308.617443189956248 ], [ 845569.590323505108245, 5020318.403527935966849 ], [ 842485.961354298749939, 5018946.305170418694615 ], [ 844432.705881285481155, 5013387.761719875968993 ], [ 839953.857975234510377, 5011098.562020011246204 ], [ 838131.460239833104424, 5006722.400250260718167 ], [ 834282.60796068853233, 5002838.614961029030383 ], [ 829732.737860355293378, 5002083.679578750394285 ], [ 827476.194521829020232, 5001230.299887667410076 ], [ 826240.22226523514837, 4996212.441267909482121 ], [ 824267.295601192046888, 4995371.418432394042611 ], [ 816442.435256965341978, 5005394.18390149064362 ], [ 822205.852365570492111, 5011729.266045345924795 ], [ 817708.592902552802116, 5017291.404608332552016 ], [ 822852.335108960978687, 5024560.33147741202265 ], [ 817289.033656865707599, 5028360.817542896606028 ], [ 822681.366900505265221, 5036308.875967686995864 ], [ 814502.185213714721613, 5041825.51030648034066 ], [ 811590.840464176144451, 5043627.724135195836425 ], [ 819155.50967226549983, 5053948.68833885435015 ], [ 814772.861696746433154, 5057221.702197707258165 ], [ 816608.623956515803002, 5068568.761688342317939 ] ] ] } },
{ "type": "Feature", "properties": { "drag_region": "Central", "NAME": "Addison", "NAMELSAD": "Addison" }, "geometry": { "type": "Polygon", "coordinates": [ [ [ 581898.988594464957714, 4935722.575922348536551 ], [ 591060.506744778947905, 4936203.666383060626686 ], [ 609035.761744118528441, 4939582.792755246162415 ], [ 611118.217319137067534, 4925026.324539424851537 ], [ 612548.37817265628837, 4925253.086978332139552 ], [ 614814.480380436172709, 4915189.612703694961965 ], [ 628166.828913245699368, 4910767.980596317909658 ], [ 624341.73037507373374, 4903120.995064835995436 ], [ 618868.685202604159713, 4891901.28682854399085 ], [ 617885.584525998914614, 4896458.885742192156613 ], [ 611622.172499811043963, 4893150.117602366022766 ], [ 609582.508939204039052, 4893959.182296556420624 ], [ 611465.768134600366466, 4887799.807639070786536 ], [ 606905.184301007189788, 4885302.071324898861349 ], [ 605641.226673253346235, 4889854.312771944329143 ], [ 590372.437040420132689, 4888457.992750379256904 ], [ 591696.325881892698817, 4880659.104791449382901 ], [ 579012.971621939446777, 4878964.613693365827203 ], [ 580128.883035022066906, 4880991.193630853667855 ], [ 577737.485420069540851, 4885048.239808150567114 ], [ 577879.888159859925508, 4892496.106145997531712 ], [ 574873.121057083364576, 4898832.730996733531356 ], [ 574971.405129900202155, 4908666.015498689375818 ], [ 572333.595936879049987, 4911192.702377603389323 ], [ 574488.517863447428681, 4918774.583540426567197 ], [ 575758.639163530082442, 4927294.646476798690856 ], [ 581898.988594464957714, 4935722.575922348536551 ] ] ] } },
{ "type": "Feature", "properties": { "drag_region": "North", "NAME": "Caledonia", "NAMELSAD": "Caledonia" }, "geometry": { "type": "Polygon", "coordinates": [ [ [ 762171.562570300069638, 5001633.198404078371823 ], [ 771161.454002665937878, 4997247.885632917284966 ], [ 779657.920598943368532, 5015500.515349376946688 ], [ 784285.999559986055829, 5013466.801642442122102 ], [ 782037.675677240942605, 5020648.390794036909938 ], [ 790199.872685084701516, 5015305.391676760278642 ], [ 795877.218709003762342, 5023352.326546398922801 ], [ 804056.40039579430595, 5017835.692207605578005 ], [ 798664.067152154748328, 5009887.633782815188169 ], [ 804227.368604250019416, 5006087.147717330604792 ], [ 799083.626397841842845, 4998818.220848251134157 ], [ 803580.885860859532841, 4993256.082285264506936 ], [ 797817.468752254382707, 4986921.000141409225762 ], [ 805642.329096481087618, 4976898.234672312624753 ], [ 794240.891682286397554, 4975321.334247183986008 ], [ 790304.065867837751284, 4973266.494918395765126 ], [ 787650.024681264534593, 4967342.697208566591144 ], [ 789485.715055568376556, 4964160.043193822726607 ], [ 787960.252606799011119, 4958659.367026831954718 ], [ 790382.379592966171913, 4955211.137981971725821 ], [ 779344.625882050138898, 4958644.037809897214174 ], [ 769052.60810413013678, 4957247.42473813239485 ], [ 763815.219791123876348, 4959370.114008574746549 ], [ 767867.390261516906321, 4967142.989920922555029 ], [ 767487.343329112511128, 4969996.262052351608872 ], [ 771340.155142373987474, 4974804.254036379978061 ], [ 775080.07849431456998, 4982763.702777245081961 ], [ 774742.450099144480191, 4984280.765730731189251 ], [ 757600.662577914423309, 4992795.36273808311671 ], [ 762171.562570300069638, 5001633.198404078371823 ] ] ] } }
]
}
