{
"type": "FeatureCollection",
"name": "map",
"crs": { "type": "name", "properties": { "name": "urn:ogc:def:crs:EPSG::32616" } },
"features": [
{ "type": "Feature", "properties": { "drag_region": "North", "NAME": "Chickasaw", "NAMELSAD": "Chickasaw" }, "geometry": { "type": "Polygon", "coordinates": [ [ [ 329776.923163224360906, 3841995.805852533318102 ], [ 368532.524223212734796, 3841264.617110651917756 ], [ 368044.117008650384378, 3812113.154689388815314 ], [ 348442.681578130926937, 3812555.917436352465302 ], [ 348321.266573525150307, 3806077.674641040619463 ], [ 338678.988810704206116, 3806263.124501281417906 ], [ 338647.026893242087681, 3804643.533050435129553 ], [ 324012.391671397141181, 3804848.188227822072804 ], [ 324517.039602526114322, 3812939.421577810775489 ], [ 329170.998142585449386, 3812936.888808071613312 ], [ 329776.923163224360906, 3841995.805852533318102 ] ] ] } },
{ "type": "Feature", "properties": { "drag_region": "South", "NAME": "Lauderdale", "NAMELSAD": "Lauderdale" }, "geometry": { "type": "Polygon", "coordinates": [ [ [ 358625.401688587851822, 3557993.244904782157391 ], [ 408157.82894313451834, 3557319.186387724243104 ], [ 404727.590089940698817, 3527454.020201735664159 ], [ 403594.349843426491134, 3518515.213374370709062 ], [ 358261.924256868544035, 3518839.804832625202835 ], [ 358625.401688587851822, 3557993.244904782157391 ] ] ] } },
{ "type": "Feature", "properties": { "drag_region": "South", "NAME": "Stone", "NAMELSAD": "Stone" }, "geometry": { "type": "Polygon", "coordinates": [ [ [ 303139.073221815284342, 3329070.716746004298329 ], [ 322352.827001467812806, 3328684.804118337575346 ], [ 346713.025214360794052, 3328340.628849173430353 ], [ 346276.890601823513862, 3302438.878880614880472 ], [ 312229.482603111653589, 3303064.141574120149016 ], [ 311476.843486474826932, 3299839.868641794193536 ], [ 302187.699681469472125, 3300029.621185683179647 ], [ 302640.919041832210496, 3305260.589830610901117 ], [ 303139.073221815284342, 3329070.716746004298329 ] ] ] } },
{ "type": "Feature", "properties": { "drag_region": "North", "NAME": "Calhoun", "NAMELSAD": "Calhoun" }, "geometry": { "type": "Polygon", "coordinates": [ [ [ 288443.986767666356172, 3853482.304542681667954 ], [ 312600.399505592184141, 3852823.82346227299422 ], [ 312717.851421898347326, 3843097.986969345249236 ], [ 322326.615729509736411, 3842987.375460357405245 ], [ 321720.690708870824892, 3813928.458415895700455 ], [ 317066.732168811489828, 3813930.991185634862632 ], [ 316562.084237682516687, 3805839.757835646159947 ], [ 316523.601540680218022, 3804029.559337945189327 ], [ 287248.389460099861026, 3804601.320714575238526 ], [ 288443.986767666356172, 3853482.304542681667954 ] ] ] } },
{ "type": "Feature", "properties": { "drag_region": "South", "NAME": "Neshoba", "NAMELSAD": "Neshoba" }, "geometry": { "type": "Polygon", "coordinates": [ [ [ 311084.889585075783543, 3610237.454412262886763 ], [ 339277.921893239137717, 3609562.104159273207188 ], [ 347308.832086270733271, 3608077.616094783879817 ], [ 348667.142745361896232, 3608910.418598414864391 ], [ 347965.475588512956165, 3570142.07630536518991 ], [ 310221.115043608122505, 3570798.053697894793004 ], [ 311084.889585075783543, 3610237.454412262886763 ] ] ] } },
{ "type": "Feature", "properties": { "drag_region": "Central", "NAME": "Pike", "NAMELSAD": "Pike" }, "geometry": { "type": "Polygon", "coordinates": [ [ [ 93931.683934551896527, 3423232.706932465080172 ], [ 121268.76127021247521, 3422481.696138513740152 ], [ 120467.513859316008165, 3383692.627515715081245 ], [ 111891.588331408565864, 3383852.20591155719012 ], [ 92686.413755365239922, 3384448.309798215515912 ], [ 93931.683934551896527, 3423232.706932465080172 ] ] ] } },
{ "type": "Feature", "properties": { "drag_region": "North", "NAME": "Grenada", "NAMELSAD": "Grenada" }, "geometry": { "type": "Polygon", "coordinates": [ [ [ 217485.30078079571831, 3800957.892881142906845 ], [ 217781.35232385006384, 3810678.712406217586249 ], [ 232409.040753181587206, 3810339.340189630631357 ], [ 237437.929931562423008, 3811721.031423587352037 ], [ 237671.221999120170949, 3819916.494238993152976 ], [ 251947.952929195045726, 3819520.453653682023287 ], [ 251857.980082047375618, 3816185.252147389575839 ], [ 276102.14995459257625, 3815562.439945556223392 ], [ 275589.360618600680027, 3794505.018716878723353 ], [ 249624.613897183269728, 3795075.638735383283347 ], [ 218000.447591144795297, 3795982.01066115591675 ], [ 217485.30078079571831, 3800957.892881142906845 ] ] ] } },
{ "type": "Feature", "properties": { "drag_region": "Central", "NAME": "Amite", "NAMELSAD": "Amite" }, "geometry": { "type": "Polygon", "coordinates": [ [ [ 35402.827293126523728, 3422057.527162031736225 ], [ 46112.016111696109874, 3424718.604344482999295 ], [ 87466.066294249467319, 3423397.68386469874531 ], [ 86220.796115062810713, 3384613.28673044918105 ], [ 59807.158076405321481, 3385394.614335267338902 ], [ 37509.386772566795116, 3386186.028254874516279 ], [ 38660.192116655205609, 3417546.100990953389555 ], [ 35402.827293126523728, 3422057.527162031736225 ] ] ] } },
{ "type": "Feature", "properties": { "drag_region": "North", "NAME": "Oktibbeha", "NAMELSAD": "Oktibbeha" }, "geometry": { "type": "Polygon", "coordinates": [ [ [ 335611.547314189607278, 3738845.658676697872579 ], [ 336225.79075646144338, 3769426.368309707380831 ], [ 374886.262052948703058, 3769105.902677660807967 ], [ 374780.265216750674881, 3762532.991522990632802 ], [ 374724.247689921408892, 3738236.948409237898886 ], [ 335611.547314189607278, 3738845.658676697872579 ] ] ] } },
{ "type": "Feature", "properties": { "drag_region": "South", "NAME": "Jefferson Davis", "NAMELSAD": "Jefferson Davis" }, "geometry": { "type": "Polygon", "coordinates": [ [ [ 229880.992943878110964, 3446938.12260525347665 ], [ 250662.825710314471507, 3447820.514310210011899 ], [ 250200.250153010827489, 3429529.559317568782717 ], [ 257911.233774760534288, 3424286.008736508432776 ], [ 264988.568632661248557, 3420779.520922036841512 ], [ 265957.222937970364001, 3418469.12156310910359 ], [ 265748.217347666563001, 3409610.230369970202446 ], [ 243224.413940124039073, 3410165.360383398830891 ], [ 243099.497614502499346, 3405306.860042367130518 ], [ 230126.818366627732757, 3405743.590503133367747 ], [ 230520.222809699014761, 3420319.971286021638662 ], [ 229156.291427339194342, 3420356.941252470016479 ], [ 229880.992943878110964, 3446938.12260525347665 ] ] ] } },
{ "type": "Feature", "properties": { "drag_region": "South", "NAME": "Leake", "NAMELSAD": "Leake" }, "geometry": { "type": "Polygon", "coordinates": [ [ [ 261047.656992504314985, 3572429.907645533792675 ], [ 262058.203998007171322, 3611588.701068464200944 ], [ 300667.317917902546469, 3610853.961989481467754 ], [ 299803.543376434885431, 3571414.561275113373995 ], [ 261047.656992504314985, 3572429.907645533792675 ] ] ] } },
{ "type": "Feature", "properties": { "drag_region": "South", "NAME": "Scott", "NAMELSAD": "Scott" }, "geometry": { "type": "Polygon", "coordinates": [ [ [ 261385.017965314211324, 3566297.71617889450863 ], [ 261223.396008317446103, 3560009.557806386612356 ], [ 299642.275240062619559, 3559001.562395146116614 ], [ 298791.742977510439232, 3519849.761018281336874 ], [ 260217.745337084110361, 3520661.925878487993032 ], [ 260586.717321884527337, 3535143.179473502095789 ], [ 256195.064363969373517, 3561188.729372654575855 ], [ 261385.017965314211324, 3566297.71617889450863 ] ] ] } },
{ "type": "Feature", "properties": { "drag_region": "North", "NAME": "Montgomery", "NAMELSAD": "Montgomery" }, "geometry": { "type": "Polygon", "coordinates": [ [ [ 253376.212571959214984, 3786620.760323426686227 ], [ 279340.959293376654387, 3786050.140304922126234 ], [ 279088.431689872522838, 3761840.991899575572461 ], [ 290435.336702778178733, 3761669.328737937379628 ], [ 286685.104626153188292, 3758324.297315124422312 ], [ 283690.056996424158569, 3758775.876404451671988 ], [ 283306.034308658388909, 3742483.722279415465891 ], [ 265585.805943756829947, 3742916.768984942231327 ], [ 265914.819365321483929, 3755875.008772226981819 ], [ 259234.125304694462102, 3755951.85709791816771 ], [ 259276.443951385444961, 3757571.688037384767085 ], [ 252933.005823230894748, 3757739.52845405600965 ], [ 253376.212571959214984, 3786620.760323426686227 ] ] ] } },
{ "type": "Feature", "properties": { "drag_region": "North", "NAME": "Carroll", "NAMELSAD": "Carroll" }, "geometry": { "type": "Polygon", "coordinates": [ [ [ 213160.199470989056863, 3785233.86327457614243 ], [ 244784.365777027531294, 3784327.491348803509027 ], [ 244341.159028299211059, 3755446.25947943283245 ], [ 250684.597156453761272, 3755278.419062761589885 ], [ 250642.278509762778413, 3753658.58812329499051 ], [ 257322.972570389800239, 3753581.739797603804618 ], [ 256993.959148825146258, 3740623.500010319054127 ], [ 251641.778203853376908, 3740665.312626944854856 ], [ 247089.336543120327406, 3732965.643566856626421 ], [ 207664.769864315865561, 3747245.738819289021194 ], [ 207949.85204405564582, 3756585.077629056759179 ], [ 211619.987128187378403, 3756378.235126496758312 ], [ 211763.862769041850697, 3761143.165866479743272 ], [ 215098.451336945407093, 3760947.616373200900853 ], [ 215436.093081267783418, 3783352.803159527480602 ], [ 213160.199470989056863, 3785233.86327457614243 ] ] ] } },
{ "type": "Feature", "properties": { "drag_region": "North", "NAME": "Winston", "NAMELSAD": "Winston" }, "geometry": { "type": "Polygon", "coordinates": [ [ [ 310148.123612397583202, 3707171.617741512134671 ], [ 319864.865234967728611, 3707056.902146569918841 ], [ 320070.316377748909872, 3716774.093777670990676 ], [ 329776.922483065922279, 3716668.765080424956977 ], [ 329973.165002586552873, 3726385.806732365861535 ], [ 357720.879361654457171, 3725959.697595388162881 ], [ 357029.574263910297304, 3685951.997284912969917 ], [ 347297.459373222023714, 3686219.445948277134448 ], [ 345939.148714130860753, 3685386.643444646149874 ], [ 337908.238521099265199, 3686871.131509135477245 ], [ 309715.206212935911026, 3687546.48176212515682 ], [ 310148.123612397583202, 3707171.617741512134671 ] ] ] } },
{ "type": "Feature", "properties": { "drag_region": "North", "NAME": "Tippah", "NAMELSAD": "Tippah" }, "geometry": { "type": "Polygon", "coordinates": [ [ [ 346364.38774471898796, 3969173.90601097419858 ], [ 364057.288981202116702, 3968929.127917185425758 ], [ 363781.254327673930675, 3953779.281617443077266 ], [ 370016.035267425060738, 3953667.998900329694152 ], [ 369817.777677836653311, 3942329.783138868864626 ], [ 373103.26876447541872, 3942272.994713998399675 ], [ 372800.737363399879541, 3924551.543354164343327 ], [ 338897.842176349426154, 3925381.959590585902333 ], [ 339396.381365643523168, 3949393.59972420334816 ], [ 344321.464983429003041, 3949292.387257970869541 ], [ 346060.889945829170756, 3954118.750468706712127 ], [ 346364.38774471898796, 3969173.90601097419858 ] ] ] } },
{ "type": "Feature", "properties": { "drag_region": "North", "NAME": "Quitman", "NAMELSAD": "Quitman" }, "geometry": { "type": "Polygon", "coordinates": [ [ [ 181479.241977587109432, 3894438.522621009964496 ], [ 190389.562752983998507, 3894143.669183030724525 ], [ 190367.955032571626361, 3903590.670905692968518 ], [ 200263.90797369327629, 3903463.002383160404861 ], [ 199860.274586487154011, 3880196.679161744192243 ], [ 205027.242133628576994, 3876124.279935152735561 ], [ 204367.282758629589807, 3854680.30746054276824 ], [ 175205.322041709674522, 3855620.744786425959319 ], [ 175919.033866017183755, 3876685.965880381409079 ], [ 180875.711418945807964, 3876423.510467641521245 ], [ 181479.241977587109432, 3894438.522621009964496 ] ] ] } },
{ "type": "Feature", "properties": { "drag_region": "Central", "NAME": "Bolivar", "NAMELSAD": "Bolivar" }, "geometry": { "type": "Polygon", "coordinates": [ [ [ 32711.354137940812507, 3721345.625956638716161 ], [ 42205.594192848438979, 3724877.226814846508205 ], [ 41664.875529434255441, 3728050.168128870427608 ], [ 33532.603176172604435, 3733250.229488467797637 ], [ 34308.046803776596789, 3735892.640349463559687 ], [ 40030.518265686710947, 3737188.072162028867751 ], [ 42227.257268791043316, 3733757.329293636605144 ], [ 47473.096961759976693, 3731447.771340037230402 ], [ 51537.503772405398195, 3733006.771623791661114 ], [ 49060.938193832480465, 3737878.26210063137114 ], [ 44680.172316434342065, 3736715.079597185831517 ], [ 41450.476535047069774, 3739327.30246442463249 ], [ 42009.639046587355551, 3744939.142533508595079 ], [ 50000.824397228090675, 3744811.775997440796345 ], [ 52594.769937346121878, 3742991.172191284131259 ], [ 56047.41964699201344, 3746103.027191252447665 ], [ 50823.7370846184931, 3748789.810142518952489 ], [ 48704.180416920760763, 3754125.486718880478293 ], [ 54976.433354546796181, 3761326.386259350460023 ], [ 47800.646143078236491, 3764856.582170047797263 ], [ 48906.592942463888903, 3767581.786856741178781 ], [ 54302.185693328458001, 3769564.555966296233237 ], [ 55800.670845998873119, 3765399.968635814730078 ], [ 59510.579064004312386, 3766783.370926934294403 ], [ 57354.896653523566783, 3771163.778978566173464 ], [ 65337.199360693935887, 3771428.725838401820511 ], [ 68210.859897473375895, 3777143.195626949891448 ], [ 67303.544226370358956, 3779468.976994431111962 ], [ 63647.435074346562033, 3779322.377193679101765 ], [ 60772.1101474523457, 3782202.26961241196841 ], [ 60775.807278930747998, 3782297.607012652326375 ], [ 87936.485045528344926, 3781188.175910217221826 ], [ 87745.770289053689339, 3766591.642362906131893 ], [ 85948.387364250447717, 3725424.240519062615931 ], [ 76281.607419594089151, 3725676.058822059072554 ], [ 75931.285041279290454, 3716048.270025926176459 ], [ 33897.777189518921659, 3717668.049301723949611 ], [ 32711.354137940812507, 3721345.625956638716161 ] ] ] } },
{ "type": "Feature", "properties": { "drag_region": "Central", "NAME": "Warren", "NAMELSAD": "Warren" }, "geometry": { "type": "Polygon", "coordinates": [ [ [ 38005.211477079996257, 3543507.408430482260883 ], [ 43794.298446296234033, 3544145.776496509090066 ], [ 46261.295682936426601, 3546630.11901963269338 ], [ 50890.360871175929788, 3543497.745683876797557 ], [ 52731.463646815900574, 3547438.546144985128194 ], [ 52242.087431544539868, 3552515.786780448164791 ], [ 56273.40983114419214, 3551603.263028805609792 ], [ 61958.922761200155946, 3558936.115502127446234 ], [ 60669.233225093732472, 3560700.999234774615616 ], [ 58501.804860960794031, 3556962.196829495951533 ], [ 50785.586100585453096, 3558870.197456849738955 ], [ 50992.330764862053911, 3564399.06866808142513 ], [ 53766.239135615978739, 3566204.770738667808473 ], [ 51188.644355985612492, 3569641.984553940128535 ], [ 47739.466016980222776, 3567862.535513589158654 ], [ 40150.620812349297921, 3572830.39312199363485 ], [ 41376.589439683986711, 3578320.575137131847441 ], [ 43067.473852427254315, 3578350.989016145002097 ], [ 48630.923098765415489, 3573556.675527879502624 ], [ 52031.718033360186382, 3574097.010298487730324 ], [ 50437.179500911253854, 3576638.84501819871366 ], [ 43830.060833506446215, 3580613.038610132876784 ], [ 44570.478965863803751, 3582303.137177543248981 ], [ 46989.632887742351159, 3583738.270045286044478 ], [ 54405.321777472898248, 3583363.250216028653085 ], [ 54065.123693538931548, 3565143.656164090614766 ], [ 55212.840671857105917, 3568728.378588343039155 ], [ 63652.366771863991744, 3568323.76351674227044 ], [ 64184.876425827489584, 3583003.036391249392182 ], [ 76624.722818150403327, 3581508.973800665233284 ], [ 77506.23487307385949, 3587394.813806654885411 ], [ 80536.161102408179431, 3587193.610419236589223 ], [ 80423.572477993890061, 3583952.976037358865142 ], [ 83461.065584325158852, 3583943.374927519820631 ], [ 83631.124974104852299, 3579070.922126371879131 ], [ 89702.31031870636798, 3578864.227266675792634 ], [ 93021.00459312244493, 3577130.793086262885481 ], [ 92931.933149892938673, 3574462.226658159866929 ], [ 88101.569139683429967, 3571475.807889806572348 ], [ 89664.246852779280744, 3567701.916720597539097 ], [ 84667.571698394589475, 3559951.322896305471659 ], [ 85210.831472282632603, 3556020.73290719371289 ], [ 80192.288344590560882, 3557718.982809365261346 ], [ 77776.551807070078212, 3556371.076478488743305 ], [ 78659.080895818347926, 3552523.549453581217676 ], [ 75303.53972829405393, 3543669.81296258745715 ], [ 69353.671371705990168, 3538343.233606157824397 ], [ 70624.778792484939913, 3535912.711667750962079 ], [ 65891.94492835602432, 3536366.336952545680106 ], [ 60302.737046296519111, 3531890.129108488094062 ], [ 58002.802754072341486, 3533977.721111299935728 ], [ 56777.907705623059883, 3528295.545502370689064 ], [ 46405.342767948735855, 3532401.130413530860096 ], [ 46430.338093657555874, 3533068.406550557818264 ], [ 48955.655467957709334, 3537078.734813907649368 ], [ 43959.872323452422279, 3539557.253123980481178 ], [ 44414.568632081194664, 3533621.42934908811003 ], [ 33608.791553637638572, 3535084.450123811606318 ], [ 34578.239471399094327, 3542589.453408589586616 ], [ 38005.211477079996257, 3543507.408430482260883 ] ] ] } },
{ "type": "Feature", "properties": { "drag_region": "Central", "NAME": "Lincoln", "NAMELSAD": "Lincoln" }, "geometry": { "type": "Polygon", "coordinates": [ [ [ 76804.596803572610952, 3470639.503359215799719 ], [ 110513.010120885912329, 3469728.891426642425358 ], [ 122097.483294028381351, 3469757.304697060957551 ], [ 123504.350256478879601, 3471241.216307254508138 ], [ 122298.233868933166377, 3430555.399225069209933 ], [ 85393.596080815652385, 3431613.497718297410756 ], [ 86357.027504589641467, 3460680.025973848998547 ], [ 76471.474315703380853, 3460918.22271795803681 ], [ 76804.596803572610952, 3470639.503359215799719 ] ] ] } },
{ "type": "Feature", "properties": { "drag_region": "Central", "NAME": "Jefferson", "NAMELSAD": "Jefferson" }, "geometry": { "type": "Polygon", "coordinates": [ [ [ 20572.270158941551927, 3495574.970509680453688 ], [ 42970.240929577194038, 3493766.318522224202752 ], [ 58806.647711576821166, 3489279.447497495915741 ], [ 57624.171372950644582, 3484740.574379984755069 ], [ 68852.413727842198568, 3484443.673098410014063 ], [ 68185.340179877923219, 3465001.034970661625266 ], [ 28646.731992107044789, 3466334.429404390975833 ], [ 28733.813444967541727, 3468622.30036552157253 ], [ 20888.15644631201576, 3468733.041154799982905 ], [ 14945.308394908774062, 3473835.233952545095235 ], [ 15709.304225908170338, 3475905.756388410460204 ], [ 13563.564194850376225, 3482006.318456027191132 ], [ 19077.051955716844532, 3483507.454117409419268 ], [ 9249.432724503494683, 3484947.928947290871292 ], [ 11990.025391237970325, 3493814.407995040528476 ], [ 16111.652382461514208, 3494700.56944314436987 ], [ 16629.387054228092893, 3490574.141810745000839 ], [ 18946.371396904447465, 3488859.575199616607279 ], [ 20751.593146844112198, 3491462.250595492310822 ], [ 18483.873435349421925, 3494415.814309666864574 ], [ 20572.270158941551927, 3495574.970509680453688 ] ] ] } },
{ "type": "Feature", "properties": { "drag_region": "North", "NAME": "Union", "NAMELSAD": "Union" }, "geometry": { "type": "Polygon", "coordinates": [ [ [ 320507.581406738376245, 3891363.865955973044038 ], [ 321045.143095027015079, 3915566.234600249212235 ], [ 335532.282895691285376, 3915350.24638525955379 ], [ 367789.273261812108103, 3914548.018025146331638 ], [ 367622.161525423580315, 3904829.949473184999079 ], [ 362650.548366573697422, 3903296.487977630924433 ], [ 362453.460547647147905, 3892149.355067740660161 ], [ 359153.61139145900961, 3892208.208143171854317 ], [ 359095.285674398648553, 3888968.878046080470085 ], [ 349852.365494088153355, 3889139.819914951454848 ], [ 349553.078655939374585, 3890765.793040792923421 ], [ 320507.581406738376245, 3891363.865955973044038 ] ] ] } },
{ "type": "Feature", "properties": { "drag_region": "North", "NAME": "Tishomingo", "NAMELSAD": "Tishomingo" }, "geometry": { "type": "Polygon", "coordinates": [ [ [ 425378.902147783490364, 3968997.346283089369535 ], [ 440119.802257710311096, 3968808.069544173777103 ], [ 444284.663067678164225, 3960659.665614265948534 ], [ 449493.858501122856978, 3957266.130661165341735 ], [ 445166.79014627658762, 3922822.737818849273026 ], [ 443699.709842555981595, 3909691.014293562620878 ], [ 427876.167626873473637, 3909980.314658307470381 ], [ 427951.247489308647346, 3940661.395639003254473 ], [ 424688.644123915175442, 3942420.387540114112198 ], [ 425378.902147783490364, 3968997.346283089369535 ] ] ] } },
{ "type": "Feature", "properties": { "drag_region": "North", "NAME": "Lee", "NAMELSAD": "Lee" }, "geometry": { "type": "Polygon", "coordinates": [ [ [ 366467.522871171007864, 3851236.571830347180367 ], [ 366772.058271721820347, 3886683.810061634983867 ], [ 370071.90742791001685, 3886624.956986203789711 ], [ 370268.995246836566366, 3897772.089896094053984 ], [ 375240.60840568644926, 3899305.551391648128629 ], [ 393034.762479001306929, 3899016.969115365296602 ], [ 392327.710661771241575, 3852430.822756629437208 ], [ 376100.515746405464597, 3852689.753240440972149 ], [ 376073.283892170642503, 3851070.194253966677934 ], [ 366467.522871171007864, 3851236.571830347180367 ] ] ] } },
{ "type": "Feature", "properties": { "drag_region": "North", "NAME": "Lafayette", "NAMELSAD": "Lafayette" }, "geometry": { "type": "Polygon", "coordinates": [ [ [ 266754.714362051628996, 3907675.963690556120127 ], [ 271369.221608305932023, 3907648.130836460739374 ], [ 288166.947326268011238, 3907123.747387989424169 ], [ 293018.513972863496747, 3903287.039957079105079 ], [ 302917.602917267184239, 3903626.001512277405709 ], [ 310092.550524742517155, 3900127.022664505057037 ], [ 309272.649958294059616, 3863062.013386616017669 ], [ 285116.237220368231647, 3863720.494467024691403 ], [ 285195.962375000293832, 3866960.270059181377292 ], [ 265678.574883092776872, 3867556.408553338143975 ], [ 266754.714362051628996, 3907675.963690556120127 ] ] ] } },
{ "type": "Feature", "properties": { "drag_region": "Central", "NAME": "Copiah", "NAMELSAD": "Copiah" }, "geometry": { "type": "Polygon", "coordinates": [ [ [ 77210.144810804267763, 3487205.851023647934198 ], [ 79132.83875806866854, 3493628.38632808579132 ], [ 79909.492671570260427, 3516216.4596281577833 ], [ 126036.301849702300387, 3514921.375211931299418 ], [ 124280.646067256326205, 3512971.232608160469681 ], [ 129776.329928049512091, 3503651.962598395068198 ], [ 134573.074623614898883, 3493308.034579427912831 ], [ 132150.225557893631049, 3491852.499924273230135 ], [ 132688.84430641552899, 3486973.355770118534565 ], [ 136395.990125960437581, 3485722.190414417535067 ], [ 135258.247616405598819, 3481654.398270784411579 ], [ 123575.947203615491162, 3478086.206485196016729 ], [ 122169.080241164992913, 3476602.294875002466142 ], [ 110584.60706802252389, 3476573.881604583933949 ], [ 76876.193750709222513, 3477484.49353715730831 ], [ 77210.144810804267763, 3487205.851023647934198 ] ] ] } },
{ "type": "Feature", "properties": { "drag_region": "South", "NAME": "Perry", "NAMELSAD": "Perry" }, "geometry": { "type": "Polygon", "coordinates": [ [ [ 325529.316072255780455, 3398922.945549771655351 ], [ 354530.459590188693255, 3398396.567958296276629 ], [ 353726.281213297392242, 3350114.198047820013016 ], [ 354411.772038280789275, 3350102.874497534241527 ], [ 354251.83762255840702, 3340389.634127621538937 ], [ 325088.787475080345757, 3340813.873499557841569 ], [ 324597.163475817709696, 3350922.117508784402162 ], [ 325529.316072255780455, 3398922.945549771655351 ] ] ] } },
{ "type": "Feature", "properties": { "drag_region": "South", "NAME": "Lamar", "NAMELSAD": "Lamar" }, "geometry": { "type": "Polygon", "coordinates": [ [ [ 266237.858817400527187, 3400656.882502703461796 ], [ 285689.14173374249367, 3400204.544612261001021 ], [ 285472.540956796845421, 3390488.910885564051569 ], [ 295379.524604951380752, 3390368.302430187352002 ], [ 294244.611034363973886, 3353039.361836060415953 ], [ 287046.656270129722543, 3353194.014277184847742 ], [ 286980.162948566838168, 3350146.151656435802579 ], [ 282180.041248468158301, 3350251.916676491033286 ], [ 279857.086485944048036, 3353734.551992162596434 ], [ 275027.777571341430303, 3352510.137785364873707 ], [ 265088.35715744754998, 3352838.225509091280401 ], [ 266237.858817400527187, 3400656.882502703461796 ] ] ] } },
{ "type": "Feature", "properties": { "drag_region": "Central", "NAME": "Humphreys", "NAMELSAD": "Humphreys" }, "geometry": { "type": "Polygon", "coordinates": [ [ [ 84338.766336909320671, 3671900.907218212727457 ], [ 99393.080208467144985, 3671375.932738075964153 ], [ 99614.236520391423255, 3677857.245419142302126 ], [ 109312.004551433608867, 3677626.354273993521929 ], [ 109081.570990590844303, 3670668.784136247821152 ], [ 112646.025595607876312, 3667021.346359179355204 ], [ 117011.70403801073553, 3667356.655557584948838 ], [ 117140.820957623887807, 3671359.480839196126908 ], [ 120583.01914695079904, 3674301.851944499183446 ], [ 119990.569265986268874, 3655717.654393051750958 ], [ 117163.76934867631644, 3651228.696879806462675 ], [ 116268.598379687289707, 3654691.918022689875215 ], [ 110466.434516013425309, 3651636.443774010054767 ], [ 110338.578775108209811, 3647728.891332513187081 ], [ 114965.342533718736377, 3645479.807134164497256 ], [ 116532.348467579111457, 3641995.037167035508901 ], [ 108474.145730378164444, 3642065.478913389146328 ], [ 108161.610692025511526, 3632534.899692793376744 ], [ 88678.863297636737116, 3633096.941576833836734 ], [ 89352.559741894889157, 3652445.884629424661398 ], [ 84991.451258989924099, 3652503.623997828923166 ], [ 87415.305155012873001, 3664156.773113522678614 ], [ 82850.535719823790714, 3667754.606096826028079 ], [ 84338.766336909320671, 3671900.907218212727457 ] ] ] } },
{ "type": "Feature", "properties": { "drag_region": "Central", "NAME": "Rankin", "NAMELSAD": "Rankin" }, "geometry": { "type": "Polygon", "coordinates": [ [ [ 149478.432608940434875, 3559088.263640999794006 ], [ 149266.631883258436574, 3563481.072970256675035 ], [ 151975.639364846021635, 3563689.633210957515985 ], [ 154459.992886276711943, 3567910.355630546342582 ], [ 159556.074199559778208, 3569007.160752518102527 ], [ 171329.802428167226026, 3580033.141270891297609 ], [ 176364.794779534247937, 3579137.196990358643234 ], [ 180756.447737449401757, 3553091.647091206163168 ], [ 179894.379121387202758, 3519175.390616367571056 ], [ 132774.064229725947371, 3520763.238694517407566 ], [ 131242.310956213652389, 3526245.599154229741544 ], [ 131426.339120581484167, 3532344.10311192413792 ], [ 136620.0077746558527, 3536003.449334526434541 ], [ 137401.745169605390402, 3539508.979428041726351 ], [ 135425.191751046368154, 3541379.9464121023193 ], [ 138648.459792982117506, 3547292.469360484741628 ], [ 144923.92028139080503, 3553593.298973653931171 ], [ 146746.01064543632674, 3558117.999826753977686 ], [ 149478.432608940434875, 3559088.263640999794006 ] ] ] } },
{ "type": "Feature", "properties": { "drag_region": "Central", "NAME": "Hinds", "NAMELSAD": "Hinds" }, "geometry": { "type": "Polygon", "coordinates": [ [ [ 97093.164120834233472, 3573312.140206964220852 ], [ 105337.055091789836297, 3577524.426579166669399 ], [ 107116.06869572904543, 3580328.665556295774877 ], [ 106810.30427010517451, 3570893.81044207373634 ], [ 125705.319371579011204, 3570204.654771389439702 ], [ 125747.207220457174117, 3560474.566925812978297 ], [ 142632.801891149574658, 3559880.570147868711501 ], [ 139900.379927645466523, 3558910.306333622895181 ], [ 138078.289563599944813, 3554385.605480522848666 ], [ 131802.829075191257289, 3548084.775867353659123 ], [ 128579.561033255507937, 3542172.252918971236795 ], [ 130556.114451814530184, 3540301.285934910643846 ], [ 129774.377056864992483, 3536795.755841395352036 ], [ 124580.70840279062395, 3533136.409618793055415 ], [ 124396.680238422792172, 3527037.905661098659039 ], [ 125928.433511935087154, 3521555.545201386325061 ], [ 79801.624333803047193, 3522850.629617612808943 ], [ 79464.770699235348729, 3542519.726511391811073 ], [ 82820.311866759642726, 3551373.463002385571599 ], [ 81937.782778011373011, 3555220.990027293097228 ], [ 84353.519315531855682, 3556568.896358169615269 ], [ 89372.062443223927403, 3554870.646455998066813 ], [ 88828.802669335884275, 3558801.236445109825581 ], [ 93825.477823720575543, 3566551.83026940189302 ], [ 92262.800110624724766, 3570325.72143861092627 ], [ 97093.164120834233472, 3573312.140206964220852 ] ] ] } },
{ "type": "Feature", "properties": { "drag_region": "Central", "NAME": "Simpson", "NAMELSAD": "Simpson" }, "geometry": { "type": "Polygon", "coordinates": [ [ [ 133607.936728664848488, 3514770.600693444721401 ], [ 187169.624782035825774, 3513021.761528664268553 ], [ 187756.261768756754464, 3509289.685789272654802 ], [ 187130.549747036071494, 3483758.864712160546333 ], [ 187463.563942967710318, 3483464.776539902202785 ], [ 142829.882495368132368, 3481503.623752297833562 ], [ 143967.625004922971129, 3485571.415895930957049 ], [ 140260.479185378062539, 3486822.581251631956547 ], [ 139721.860436856164597, 3491701.725405786652118 ], [ 142144.709502577432431, 3493157.260060941334814 ], [ 137347.964807012060191, 3503501.188079908490181 ], [ 131852.280946218874305, 3512820.458089673891664 ], [ 133607.936728664848488, 3514770.600693444721401 ] ] ] } },
{ "type": "Feature", "properties": { "drag_region": "Central", "NAME": "Sharkey", "NAMELSAD": "Sharkey" }, "geometry": { "type": "Polygon", "coordinates": [ [ [ 60752.853644568458549, 3631814.548026811797172 ], [ 61389.279024738221779, 3648878.024989804718643 ], [ 81160.966871629512752, 3647968.230658596381545 ], [ 85522.07535453447781, 3647910.491290192119777 ], [ 84848.378910276325769, 3628561.548237601295114 ], [ 74764.31646602145338, 3619277.568036252632737 ], [ 74679.401757882835227, 3616894.618915908504277 ], [ 81072.302491737515084, 3616764.381755074951798 ], [ 78957.371802319466951, 3614071.007331158500165 ], [ 81218.87043140012247, 3611319.702199288643897 ], [ 76026.72050719782419, 3607398.508890291675925 ], [ 83277.149359987452044, 3602659.6438825041987 ], [ 81160.465962093425333, 3599965.647249816916883 ], [ 79242.689414173932164, 3602990.861041187308729 ], [ 77785.196047074670787, 3599892.700930783059448 ], [ 54880.437643462719279, 3600818.645121055655181 ], [ 55945.991725269224844, 3620252.69538311008364 ], [ 60752.853644568458549, 3631814.548026811797172 ] ] ] } },
{ "type": "Feature", "properties": { "drag_region": "North", "NAME": "Pontotoc", "NAMELSAD": "Pontotoc" }, "geometry": { "type": "Polygon", "coordinates": [ [ [ 318862.826224663294852, 3883285.636829448863864 ], [ 347908.323473864293192, 3882687.563914268743247 ], [ 348207.610312013071962, 3881061.590788427274674 ], [ 357450.530492323567159, 3880890.648919556289911 ], [ 357204.320808833057526, 3848682.740785359870642 ], [ 328054.480769844318274, 3849247.551950860768557 ], [ 318445.716462232929189, 3849358.163459848612547 ], [ 318328.264545926766004, 3859083.999952776357532 ], [ 318862.826224663294852, 3883285.636829448863864 ] ] ] } },
{ "type": "Feature", "properties": { "drag_region": "North", "NAME": "DeSoto", "NAMELSAD": "DeSoto" }, "geometry": { "type": "Polygon", "coordinates": [ [ [ 199573.502732283785008, 3978324.881779531016946 ], [ 252989.284988971834537, 3976710.676448080223054 ], [ 252315.117043049714994, 3951932.118034636136144 ], [ 234900.660439169732854, 3952421.127517950255424 ], [ 234856.400580654444639, 3950896.228537725750357 ], [ 224173.115802993823308, 3945679.504399359226227 ], [ 217023.821805348154157, 3948664.358104998711497 ], [ 215146.301543173554819, 3951775.594106429256499 ], [ 211196.430545132665429, 3951708.746049643494189 ], [ 208445.596912435605191, 3947979.61120196338743 ], [ 208926.197653647395782, 3963039.452503832057118 ], [ 199406.416026140097529, 3963348.73114131949842 ], [ 198790.864716261799913, 3964609.585534234531224 ], [ 204835.07821061956929, 3968609.991040960419923 ], [ 204974.436708242283203, 3972899.320638243108988 ], [ 199573.502732283785008, 3978324.881779531016946 ] ] ] } },
{ "type": "Feature", "properties": { "drag_region": "North", "NAME": "Marshall", "NAMELSAD": "Marshall" }, "geometry": { "type": "Polygon", "coordinates": [ [ [ 266689.122984075860586, 3970693.97409092169255 ], [ 300433.4357165673282, 3969645.165663651190698 ], [ 300043.270107004558668, 3953064.162869754247367 ], [ 304966.917628913535737, 3952949.845575536135584 ], [ 304633.584707262343727, 3923974.441489094402641 ], [ 309243.425293874461204, 3923870.656834989320487 ], [ 309027.274554204195738, 3914151.527056246064603 ], [ 301852.326946728862822, 3917650.505904018413275 ], [ 291953.23800232517533, 3917311.544348820112646 ], [ 287101.671355729689822, 3921148.251779730431736 ], [ 270303.945637767610606, 3921672.635228201746941 ], [ 270687.698793332616333, 3936157.846416078973562 ], [ 265754.089270119031426, 3936290.089038932695985 ], [ 266689.122984075860586, 3970693.97409092169255 ] ] ] } },
{ "type": "Feature", "properties": { "drag_region": "Central", "NAME": "Coahoma", "NAMELSAD": "Coahoma" }, "geometry": { "type": "Polygon", "coordinates": [ [ [ 102659.826748503692215, 3836469.936483120545745 ], [ 118107.252017740596784, 3824771.569404037669301 ], [ 117503.721459099295316, 3806756.55725066922605 ], [ 112547.043906170671107, 3807019.012663409113884 ], [ 111508.321552847774001, 3776326.837915524840355 ], [ 92604.880608841398498, 3777174.133936574682593 ], [ 92795.595365316054085, 3791770.667483885772526 ], [ 65634.917598718457157, 3792880.098586320877075 ], [ 69804.288840449444251, 3797779.568565561436117 ], [ 74982.924743502429919, 3794431.628542611375451 ], [ 79388.31924541250919, 3796939.109310789965093 ], [ 78815.365213523589773, 3799347.180421859025955 ], [ 72191.140420081297634, 3799502.216191742569208 ], [ 67715.141052417020546, 3803779.767989436164498 ], [ 70799.372026426048251, 3806429.735905536450446 ], [ 75937.010299924149876, 3802128.60494046844542 ], [ 77515.874013009859482, 3808847.317249355837703 ], [ 83851.920479232765501, 3810042.382110416889191 ], [ 86271.648114883020753, 3812816.793443466536701 ], [ 83786.744728022982599, 3817204.490138832479715 ], [ 85533.843889475130709, 3819717.192401547916234 ], [ 91812.619367015344324, 3819582.43556266091764 ], [ 90634.354849945433671, 3814470.737617041915655 ], [ 93935.455362547043478, 3814255.738141264766455 ], [ 94152.026278125267709, 3820261.355064264498651 ], [ 102599.273926725349156, 3825400.581477493979037 ], [ 100899.832157595112221, 3833382.613121044822037 ], [ 102659.826748503692215, 3836469.936483120545745 ] ] ] } },
{ "type": "Feature", "properties": { "drag_region": "Central", "NAME": "Sunflower", "NAMELSAD": "Sunflower" }, "geometry": { "type": "Polygon", "coordinates": [ [ [ 79466.165180980329751, 3682471.722201200202107 ], [ 80855.755133388141985, 3720791.77316928235814 ], [ 90522.535078044500551, 3720539.954866285901517 ], [ 92319.918002847742173, 3761707.356710129417479 ], [ 111223.358946854117676, 3760860.060689079575241 ], [ 108788.630456796425278, 3688041.150245004333556 ], [ 99090.862425754239666, 3688272.041390153113753 ], [ 98869.706113829961396, 3681790.72870908677578 ], [ 79466.165180980329751, 3682471.722201200202107 ] ] ] } },
{ "type": "Feature", "properties": { "drag_region": "North", "NAME": "Tunica", "NAMELSAD": "Tunica" }, "geometry": { "type": "Polygon", "coordinates": [ [ [ 178491.223436008498538, 3953903.94740267470479 ], [ 184832.42032858094899, 3956744.024932011961937 ], [ 197634.965351184306201, 3956325.796160327270627 ], [ 197154.364609972515609, 3941265.954858458600938 ], [ 194428.978222628415097, 3938395.351634667254984 ], [ 195561.852611379697919, 3932634.305395679548383 ], [ 193184.421545473334845, 3930420.612004620954394 ], [ 194925.267899084719829, 3923018.108114900998771 ], [ 196883.896415261726361, 3922383.37629871815443 ], [ 196729.957844611082692, 3917522.437231823801994 ], [ 186834.004903489432763, 3917650.105754356831312 ], [ 186855.612623901804909, 3908203.104031694121659 ], [ 177945.291848504915833, 3908497.957469673827291 ], [ 162497.866579268011265, 3920196.324548756703734 ], [ 164956.066793055040762, 3924404.622332641854882 ], [ 161209.241075408412144, 3930359.398441654630005 ], [ 161640.34399083617609, 3933207.487391737289727 ], [ 161426.755551627895329, 3936460.353862586431205 ], [ 164788.102552904339973, 3938345.39751063939184 ], [ 164293.981760304770432, 3933686.031244582496583 ], [ 167854.733877318969462, 3931842.96469250600785 ], [ 172627.841331218369305, 3936449.295574964024127 ], [ 172071.856490536651108, 3939427.032991771586239 ], [ 165499.873659905220848, 3939847.39265950396657 ], [ 163661.656548502156511, 3943730.32071874756366 ], [ 166010.317259010684211, 3944983.42655471060425 ], [ 165470.819616296095774, 3948343.097570730373263 ], [ 168847.25211599690374, 3950801.22354151494801 ], [ 167999.511572499875911, 3945390.676272793672979 ], [ 169530.104262086795643, 3942092.123525843024254 ], [ 174196.103083574562334, 3943743.9097467539832 ], [ 172461.078798700880725, 3950675.302062721922994 ], [ 174185.871763255272526, 3953001.644535236991942 ], [ 171704.26225086254999, 3957286.961528011597693 ], [ 172456.896956303680781, 3960028.575875478796661 ], [ 176060.428644374827854, 3959713.168606928549707 ], [ 178491.223436008498538, 3953903.94740267470479 ] ] ] } },
{ "type": "Feature", "properties": { "drag_region": "Central", "NAME": "Madison", "NAMELSAD": "Madison" }, "geometry": { "type": "Polygon", "coordinates": [ [ [ 112858.700176175698289, 3585180.588126756250858 ], [ 116907.613647640057025, 3585145.439387094695121 ], [ 124804.97156483955041, 3589474.263614098541439 ], [ 129338.685156684674439, 3594293.492634115740657 ], [ 136759.79942743544234, 3594448.513833248056471 ], [ 151495.542586318275426, 3602884.166206191293895 ], [ 154041.122991589654703, 3609486.818247686140239 ], [ 159319.997235570685007, 3617729.206517574843019 ], [ 181169.814482352870982, 3617711.277855199761689 ], [ 180451.749143534863833, 3589890.412873927969486 ], [ 175261.795542190026026, 3584781.42606768803671 ], [ 170226.803190823004115, 3585677.370348220691085 ], [ 158453.074962215556297, 3574651.389829847496003 ], [ 153356.993648932490032, 3573554.584707875736058 ], [ 150872.640127501799725, 3569333.862288286909461 ], [ 148163.632645914214663, 3569125.302047586068511 ], [ 148375.433371596212965, 3564732.492718329187483 ], [ 131489.838700903812423, 3565326.489496273454279 ], [ 131447.95085202564951, 3575056.577341849915683 ], [ 112552.935750551827368, 3575745.733012534212321 ], [ 112858.700176175698289, 3585180.588126756250858 ] ] ] } },
{ "type": "Feature", "properties": { "drag_region": "Central", "NAME": "Holmes", "NAMELSAD": "Holmes" }, "geometry": { "type": "Polygon", "coordinates": [ [ [ 126824.90607362810988, 3674427.277663024142385 ], [ 130870.394326201232616, 3675348.241202692966908 ], [ 131632.074835624312982, 3678281.556925110053271 ], [ 127749.121388309344184, 3682411.513832866679877 ], [ 141304.100283630075864, 3677314.034641917329282 ], [ 180728.666962434537709, 3663033.939389484934509 ], [ 176215.348805453191744, 3657051.145756983198225 ], [ 176128.857600728457328, 3653811.503858529962599 ], [ 173387.489232377847657, 3651596.564724170137197 ], [ 172173.771131457469892, 3643905.691442987881601 ], [ 168365.381069388706237, 3639622.872693635523319 ], [ 166145.358400214056019, 3632150.615768243558705 ], [ 159600.270407971343957, 3626420.348305228631943 ], [ 125119.636467662232462, 3641950.268830007873476 ], [ 122774.235394256422296, 3642120.462885560467839 ], [ 121207.229460396047216, 3645605.232852689456195 ], [ 116580.46570178552065, 3647854.317051038146019 ], [ 116708.321442690736149, 3651761.869492535013705 ], [ 122510.485306364600547, 3654817.343741214834154 ], [ 123405.656275353627279, 3651354.122598331421614 ], [ 126232.456192663579714, 3655843.080111576709896 ], [ 126824.90607362810988, 3674427.277663024142385 ] ] ] } },
{ "type": "Feature", "properties": { "drag_region": "South", "NAME": "Marion", "NAMELSAD": "Marion" }, "geometry": { "type": "Polygon", "coordinates": [ [ [ 229286.964774717722321, 3396705.380596076138318 ], [ 242259.644022592488909, 3396268.650135309901088 ], [ 242384.560348214028636, 3401127.150476341601461 ], [ 258424.44419085845584, 3400726.836329232435673 ], [ 257274.94253090544953, 3352908.179335620254278 ], [ 240130.874219315621303, 3353236.28132799686864 ], [ 240337.618585497810272, 3361333.460730311926454 ], [ 232115.417693536990555, 3361546.817950461991131 ], [ 230574.236462859815219, 3368070.1452442179434 ], [ 224066.146286461764248, 3368149.571167067624629 ], [ 224195.607899928611005, 3372913.023948172107339 ], [ 221802.472051976044895, 3373073.719217023812234 ], [ 221606.202393254585331, 3390813.006134499795735 ], [ 221785.256390901253326, 3397291.545285898726434 ], [ 229286.964774717722321, 3396705.380596076138318 ] ] ] } },
{ "type": "Feature", "properties": { "drag_region": "North", "NAME": "Yalobusha", "NAMELSAD": "Yalobusha" }, "geometry": { "type": "Polygon", "coordinates": [ [ [ 241092.814396337140352, 3856748.024339991156012 ], [ 260617.628427663876209, 3856111.414885918144137 ], [ 260701.559266584808938, 3859256.100413361564279 ], [ 280218.946758492325898, 3858659.961919204797596 ], [ 279338.304320792027283, 3822737.265380801167339 ], [ 255094.134448246797547, 3823360.077582634519786 ], [ 255184.107295394467656, 3826695.279088926967233 ], [ 240907.376365319592878, 3827091.319674238096923 ], [ 241678.246268045622855, 3854060.624574127607048 ], [ 241092.814396337140352, 3856748.024339991156012 ] ] ] } },
{ "type": "Feature", "properties": { "drag_region": "Central", "NAME": "Issaquena", "NAMELSAD": "Issaquena" }, "geometry": { "type": "Polygon", "coordinates": [ [ [ 35284.599078870509402, 3637269.431277605704963 ], [ 35314.867221509935916, 3638032.140231773257256 ], [ 58792.408636681750068, 3636746.681294235400856 ], [ 58529.625085071791545, 3629692.533664812333882 ], [ 53722.763165772557841, 3618130.68102111062035 ], [ 52657.209083966052276, 3598696.630759056191891 ], [ 75561.967487578003784, 3597770.686568783596158 ], [ 78157.322369987625279, 3594817.050663022790104 ], [ 75394.770623328062356, 3593004.95829381654039 ], [ 74513.258568404606194, 3587119.118287826888263 ], [ 62073.412176081692451, 3588613.180878411047161 ], [ 61540.902522118194611, 3573933.908003903925419 ], [ 53101.376422111308784, 3574338.523075504694134 ], [ 51953.659443793134415, 3570753.800651252269745 ], [ 52293.857527727101115, 3588973.394703190308064 ], [ 44878.168637996554025, 3589348.414532447699457 ], [ 48358.537214164287434, 3592080.424739954993129 ], [ 46860.949875657286611, 3597101.319466317538172 ], [ 44671.750379149700166, 3592793.128024223260581 ], [ 37832.853699774146662, 3590573.899941546842456 ], [ 35861.539825532483519, 3591987.278103827033192 ], [ 35043.98803842907364, 3596984.214412956498563 ], [ 38217.937412209706963, 3600488.588578129652888 ], [ 43728.750491953411256, 3603426.374982103705406 ], [ 44500.917256835688022, 3605974.488262083847076 ], [ 34176.136140453527332, 3609240.151527993381023 ], [ 34779.504665512838983, 3615995.805165447760373 ], [ 36599.949463895012741, 3619457.053064945153892 ], [ 43852.446359943205607, 3624139.349535098299384 ], [ 44668.03263112368586, 3627831.382476991508156 ], [ 41911.876010164050967, 3634812.657298568636179 ], [ 38204.054089118275442, 3634575.932339654304087 ], [ 38288.856524825867382, 3628175.185939470306039 ], [ 33487.096845973239397, 3625882.126445263624191 ], [ 30546.67049371219764, 3628100.170589290559292 ], [ 31737.439008144036052, 3632636.185317257419229 ], [ 35284.599078870509402, 3637269.431277605704963 ] ] ] } },
{ "type": "Feature", "properties": { "drag_region": "South", "NAME": "Covington", "NAMELSAD": "Covington" }, "geometry": { "type": "Polygon", "coordinates": [ [ [ 257683.622050221136305, 3449197.595359194092453 ], [ 267560.577913496992551, 3449619.205098220612854 ], [ 291399.166911577805877, 3450876.033312299288809 ], [ 290513.67207451898139, 3410584.245229422114789 ], [ 272769.013687573256902, 3410987.311418954282999 ], [ 272978.019277877057903, 3419846.202612093184143 ], [ 272009.364972567884251, 3422156.601971020922065 ], [ 264932.030114667199086, 3425663.089785492513329 ], [ 257221.046492917492287, 3430906.64036655286327 ], [ 257683.622050221136305, 3449197.595359194092453 ] ] ] } },
{ "type": "Feature", "properties": { "drag_region": "South", "NAME": "Wayne", "NAMELSAD": "Wayne" }, "geometry": { "type": "Polygon", "coordinates": [ [ [ 351202.026484876172617, 3452909.077428568154573 ], [ 354602.949891189695336, 3453039.28542193910107 ], [ 368549.421034728176892, 3453851.52148072887212 ], [ 381492.131004764698446, 3455935.84277230873704 ], [ 395812.741720084974077, 3459922.366200415883213 ], [ 397513.529934870544821, 3409038.010680376552045 ], [ 360324.597843686817214, 3409404.537622539326549 ], [ 350430.365136176929809, 3409575.058298970106989 ], [ 351202.026484876172617, 3452909.077428568154573 ] ] ] } },
{ "type": "Feature", "properties": { "drag_region": "Central", "NAME": "Wilkinson", "NAMELSAD": "Wilkinson" }, "geometry": { "type": "Polygon", "coordinates": [ [ [ -20966.584672279714141, 3408889.891673634760082 ], [ -19446.411289497278631, 3412456.320320163387805 ], [ -15956.124376609863248, 3413935.756353063043207 ], [ -15038.870128336013295, 3411223.797224851325154 ], [ -10872.164138442196418, 3412486.105446778703481 ], [ -8746.694899149937555, 3422618.412741399370134 ], [ -4662.063861727714539, 3421975.818016569595784 ], [ 3312.776314767543226, 3424427.17816866049543 ], [ 6821.250809898076113, 3426580.742711520753801 ], [ 15693.287839661643375, 3425854.93040675483644 ], [ 20776.885132170747966, 3424515.732258595526218 ], [ 26823.142626144050155, 3421425.09031429560855 ], [ 30080.507449672732037, 3416913.664143217261881 ], [ 28929.702105584321544, 3385553.591407138388604 ], [ -26313.602770654018968, 3387716.839408854022622 ], [ -21769.391926102573052, 3389533.768935404252261 ], [ -19139.919699177204166, 3394964.888825603295118 ], [ -24427.818286764784716, 3399960.010890335775912 ], [ -24658.942154518852476, 3402644.21207627421245 ], [ -20966.584672279714141, 3408889.891673634760082 ] ] ] } },
{ "type": "Feature", "properties": { "drag_region": "Central", "NAME": "Claiborne", "NAMELSAD": "Claiborne" }, "geometry": { "type": "Polygon", "coordinates": [ [ [ 44744.033127098096884, 3526506.036493528168648 ], [ 55116.598064772420912, 3522400.451582367997617 ], [ 56341.493113221702515, 3528082.627191297244281 ], [ 58641.42740544588014, 3525995.035188485402614 ], [ 64230.63528750538535, 3530471.243032542988658 ], [ 68963.469151634300943, 3530017.617747748270631 ], [ 67692.361730855351198, 3532448.139686155132949 ], [ 73642.230087443414959, 3537774.719042584765702 ], [ 73979.083722011113423, 3518105.622148805763572 ], [ 73202.429808509521536, 3495517.548848733771592 ], [ 71279.735861245120759, 3489095.013544295914471 ], [ 60051.493506353566772, 3489391.914825870655477 ], [ 61233.969844979743357, 3493930.787943381816149 ], [ 45397.563062980116229, 3498417.65896811010316 ], [ 22999.592292344474117, 3500226.310955566354096 ], [ 29664.15536768407037, 3505313.553882785607129 ], [ 29169.351627711832407, 3510106.445025154389441 ], [ 31638.190302480754326, 3512397.859367863740772 ], [ 38138.93878170811513, 3513485.819063453469425 ], [ 38319.844238585312269, 3518252.206486409064382 ], [ 31969.322745446741465, 3520977.683799269143492 ], [ 33757.023192891429062, 3523295.568921859841794 ], [ 38024.06164304316917, 3519409.034271096810699 ], [ 39850.180563685353263, 3522776.470172462053597 ], [ 44744.033127098096884, 3526506.036493528168648 ] ] ] } },
{ "type": "Feature", "properties": { "drag_region": "South", "NAME": "Clarke", "NAMELSAD": "Clarke" }, "geometry": { "type": "Polygon", "coordinates": [ [ [ 356324.433946954784915, 3507336.344780550803989 ], [ 401656.859533512732014, 3507011.753322296310216 ], [ 397093.115776868478861, 3470115.449945782776922 ], [ 382772.50506154820323, 3466128.926517675630748 ], [ 369829.795091511681676, 3464044.605226095765829 ], [ 355883.32394797320012, 3463232.369167305994779 ], [ 355755.213034508982673, 3475238.853841081727296 ], [ 356324.433946954784915, 3507336.344780550803989 ] ] ] } },
{ "type": "Feature", "properties": { "drag_region": "South", "NAME": "Forrest", "NAMELSAD": "Forrest" }, "geometry": { "type": "Polygon", "coordinates": [ [ [ 291139.124791206268128, 3400150.985636008903384 ], [ 320142.92457823845325, 3399543.902566237840801 ], [ 319210.771981800382491, 3351543.074525250587612 ], [ 319702.395981063018553, 3341434.83051602402702 ], [ 300488.642201410490088, 3341820.743143690750003 ], [ 300700.808623764547519, 3351916.435881942510605 ], [ 299694.594091827748343, 3352985.802859808318317 ], [ 300829.50766241515521, 3390314.743453935254365 ], [ 290922.524014260619879, 3390435.351909311953932 ], [ 291139.124791206268128, 3400150.985636008903384 ] ] ] } },
{ "type": "Feature", "properties": { "drag_region": "Central", "NAME": "Yazoo", "NAMELSAD": "Yazoo" }, "geometry": { "type": "Polygon", "coordinates": [ [ [ 89960.49493993112992, 3626545.777068160008639 ], [ 109443.24233431990433, 3625983.735184119548649 ], [ 109755.777372672557249, 3635514.314404715318233 ], [ 117813.980109873504261, 3635443.872658361680806 ], [ 120159.381183279314428, 3635273.678602809086442 ], [ 154640.015123588440474, 3619743.75807802984491 ], [ 149361.14087960741017, 3611501.36980814114213 ], [ 146815.560474336030893, 3604898.717766646295786 ], [ 132079.817315453197807, 3596463.065393703058362 ], [ 124658.703044702400803, 3596308.044194570742548 ], [ 120124.989452857276774, 3591488.815174553543329 ], [ 112227.631535657783388, 3587159.990947549697012 ], [ 108178.718064193424652, 3587195.139687211252749 ], [ 106399.704460254215519, 3584390.90071008214727 ], [ 98155.813489298612694, 3580178.614337879698724 ], [ 98244.884932528118952, 3582847.180765982717276 ], [ 94926.190658112042001, 3584580.614946395624429 ], [ 88855.005313510526321, 3584787.309806091710925 ], [ 88684.945923730832874, 3589659.762607239652425 ], [ 85647.452817399564083, 3589669.363717078696936 ], [ 85760.041441813853453, 3592909.998098956421018 ], [ 82730.115212479533511, 3593111.201486374717206 ], [ 85492.666959139096434, 3594923.29385558096692 ], [ 82897.312076729474938, 3597876.929761341772974 ], [ 84354.805443828736315, 3600975.089871746022254 ], [ 86272.581991748229484, 3597949.876080375630409 ], [ 88389.265389642256196, 3600643.872713062912226 ], [ 81138.836536852628342, 3605382.737720850389451 ], [ 86330.986461054926622, 3609303.931029847357422 ], [ 84069.487831974271103, 3612055.23616171721369 ], [ 86184.418521392319235, 3614748.610585633665323 ], [ 79791.517787537639379, 3614878.847746467217803 ], [ 79876.432495676257531, 3617261.796866811346263 ], [ 89960.49493993112992, 3626545.777068160008639 ] ] ] } },
{ "type": "Feature", "properties": { "drag_region": "South", "NAME": "Harrison", "NAMELSAD": "Harrison" }, "geometry": { "type": "MultiPolygon", "coordinates": [ [ [ [ 335325.803393367445096, 3241353.272792122326791 ], [ 340520.019407435669564, 3241930.512105813249946 ], [ 345751.304371498292312, 3244795.458905662409961 ], [ 344323.690850282437168, 3242057.012821005657315 ], [ 337023.779332114732824, 3239609.238807261455804 ], [ 335325.803393367445096, 3241353.272792122326791 ] ] ], [ [ [ 318787.004750603577122, 3244131.477714031469077 ], [ 326040.0206361876335, 3243900.848017237149179 ], [ 328826.102220850763842, 3245088.454600101802498 ], [ 327024.330858333269134, 3241025.147237557452172 ], [ 323556.426835136604495, 3240422.082223464269191 ], [ 317728.783540863776579, 3243008.47718914411962 ], [ 318787.004750603577122, 3244131.477714031469077 ] ] ], [ [ [ 302107.436465062899515, 3289812.822839451022446 ], [ 311396.580270068254322, 3289623.070295562036335 ], [ 312149.219386705080979, 3292847.343227887991816 ], [ 346196.627385416999459, 3292222.080534382723272 ], [ 345719.078241734881885, 3263654.938376356847584 ], [ 349487.09206177899614, 3262068.902652384713292 ], [ 352192.445058659883216, 3258691.594282276928425 ], [ 351821.498886945657432, 3257078.39314974937588 ], [ 344636.831983983633108, 3260815.54638856370002 ], [ 337044.008779218769632, 3260659.507866609375924 ], [ 326304.131305838469416, 3258280.024044063873589 ], [ 316566.628676092484966, 3254462.435140589252114 ], [ 306148.533437290461734, 3251524.202867895364761 ], [ 307632.883494987967424, 3256638.953081533778459 ], [ 301819.331372246029787, 3259329.831660209689289 ], [ 302107.436465062899515, 3289812.822839451022446 ] ] ] ] } },
{ "type": "Feature", "properties": { "drag_region": "South", "NAME": "Pearl River", "NAMELSAD": "Pearl River" }, "geometry": { "type": "Polygon", "coordinates": [ [ [ 242066.764263464399846, 3302035.451070575974882 ], [ 242526.806293969420949, 3306599.080533523112535 ], [ 245361.825562714977423, 3309863.583105457480997 ], [ 244073.375900905957678, 3313327.52978091686964 ], [ 246538.884711080143461, 3315648.356191598344594 ], [ 249927.080653074459406, 3327478.259735947940499 ], [ 252374.208013822993962, 3329228.623313560150564 ], [ 252136.984157765720738, 3333523.639172017108649 ], [ 254589.437952472653706, 3335560.171942960936576 ], [ 254675.875286618887912, 3339084.653165987692773 ], [ 271471.805592841817997, 3338590.550341456662863 ], [ 276301.114507444435731, 3339814.964548254385591 ], [ 278624.069269968545996, 3336332.329232582822442 ], [ 283424.190970067225862, 3336226.564212527591735 ], [ 283490.684291630110238, 3339274.426833276636899 ], [ 290688.63905586436158, 3339119.77439215220511 ], [ 291694.853587801160756, 3338050.407414286397398 ], [ 290984.53298546402948, 3304144.587760641239583 ], [ 290531.313625101291109, 3298913.619115713518113 ], [ 271266.093404101557098, 3299428.024979568552226 ], [ 270936.647090821352322, 3284855.561313802842051 ], [ 260906.888222798064817, 3283466.415716966148466 ], [ 260792.915747633582214, 3278608.793687842320651 ], [ 256658.077376573812217, 3278801.836839208379388 ], [ 250231.005023254983826, 3284008.259523752145469 ], [ 248943.983780282753287, 3287756.932895753532648 ], [ 245579.851436695229495, 3291080.949828362558037 ], [ 245074.787622544361511, 3298432.826848085038364 ], [ 242066.764263464399846, 3302035.451070575974882 ] ] ] } },
{ "type": "Feature", "properties": { "drag_region": "Central", "NAME": "Leflore", "NAMELSAD": "Leflore" }, "geometry": { "type": "Polygon", "coordinates": [ [ [ 112977.661408128027688, 3679839.175195580348372 ], [ 114991.799814005658845, 3740266.694033101666719 ], [ 139913.47639059642097, 3739176.561484668403864 ], [ 139430.584811293054372, 3734326.341208804398775 ], [ 129401.444351593716419, 3733020.078707474749535 ], [ 128549.958880833568401, 3727227.610302608460188 ], [ 131542.522399754961953, 3727036.897438429296017 ], [ 134343.04413048987044, 3731336.928922853898257 ], [ 136288.561078750994056, 3729654.190180282574147 ], [ 143938.586570814077277, 3729323.006657999008894 ], [ 144453.733381163154263, 3724347.1244380120188 ], [ 146729.626991441880818, 3722466.064322963356972 ], [ 146391.985247119504493, 3700060.877536636777222 ], [ 143057.396679215948097, 3700256.427029915619642 ], [ 142913.521038361475803, 3695491.496289932634681 ], [ 139243.38595422974322, 3695698.338792492635548 ], [ 138958.303774489962962, 3686358.999982724897563 ], [ 125403.324879169216729, 3691456.479173674248159 ], [ 129286.278326484185527, 3687326.522265917621553 ], [ 128524.597817061105161, 3684393.20654350053519 ], [ 124479.109564487982425, 3683472.243003831710666 ], [ 121036.911375161071192, 3680529.871898528654128 ], [ 120907.794455547918915, 3676527.046616917476058 ], [ 116542.116013145059696, 3676191.737418511882424 ], [ 112977.661408128027688, 3679839.175195580348372 ] ] ] } },
{ "type": "Feature", "properties": { "drag_region": "North", "NAME": "Attala", "NAMELSAD": "Attala" }, "geometry": { "type": "Polygon", "coordinates": [ [ [ 255183.787923656316707, 3719953.130552000366151 ], [ 259736.22958438936621, 3727652.799612088594586 ], [ 265088.410529361164663, 3727610.986995462793857 ], [ 295513.082691684947349, 3726887.380580707918853 ], [ 294645.182245558826253, 3687636.641795536968857 ], [ 256036.068325663392898, 3688371.380874519702047 ], [ 255905.208615975279827, 3683321.610805368982255 ], [ 234055.391369193122955, 3683339.539467744063586 ], [ 240600.479361435835017, 3689069.806930758990347 ], [ 242820.502030610485235, 3696542.063856150954962 ], [ 246628.89209267924889, 3700824.882605503313243 ], [ 247842.610193599626655, 3708515.755886685568839 ], [ 250583.978561950236326, 3710730.695021045394242 ], [ 250670.469766674970742, 3713970.336919498629868 ], [ 255183.787923656316707, 3719953.130552000366151 ] ] ] } },
{ "type": "Feature", "properties": { "drag_region": "North", "NAME": "Itawamba", "NAMELSAD": "Itawamba" }, "geometry": { "type": "Polygon", "coordinates": [ [ [ 402470.412863478297368, 3894381.969799526967108 ], [ 438072.40551999444142, 3893621.688864505384117 ], [ 436242.196273335837759, 3877922.047533486504108 ], [ 432962.452578822209034, 3851950.357519799377769 ], [ 401837.459490723791532, 3852654.640038043726236 ], [ 402470.412863478297368, 3894381.969799526967108 ] ] ] } },
{ "type": "Feature", "properties": { "drag_region": "North", "NAME": "Monroe", "NAMELSAD": "Monroe" }, "geometry": { "type": "Polygon", "coordinates": [ [ [ 380798.178318520425819, 3795807.31686524162069 ], [ 381556.764157175435685, 3841153.644481075461954 ], [ 397783.959072541212663, 3840894.713997263927013 ], [ 428908.952160639630165, 3840190.431479019578546 ], [ 424474.065765598148573, 3802325.394504459109157 ], [ 417493.116428488050587, 3802507.730311384424567 ], [ 416790.04914795095101, 3799563.334734699688852 ], [ 409736.931548930355348, 3794607.337297303602099 ], [ 402736.50993895001011, 3793847.691459156107157 ], [ 399716.183664918644354, 3792176.457446429412812 ], [ 401428.759688228135929, 3795486.265398237854242 ], [ 380798.178318520425819, 3795807.31686524162069 ] ] ] } },
{ "type": "Feature", "properties": { "drag_region": "North", "NAME": "Tate", "NAMELSAD": "Tate" }, "geometry": { "type": "Polygon", "coordinates": [ [ [ 210408.864969274523901, 3939387.350525099784136 ], [ 213159.698601971584139, 3943116.485372779890895 ], [ 217109.569600012473529, 3943183.333429565653205 ], [ 218987.089862187072868, 3940072.097428135108203 ], [ 226136.383859832742019, 3937087.243722495622933 ], [ 236819.668637493363349, 3942303.967860862147063 ], [ 236863.928496008651564, 3943828.86684108665213 ], [ 254278.3850998886046, 3943339.857357772532851 ], [ 254017.519331853894982, 3933714.530719227623194 ], [ 258951.12885506747989, 3933582.288096373900771 ], [ 258567.375699502474163, 3919097.07690849667415 ], [ 253952.86845324820024, 3919124.909762592054904 ], [ 210138.396774563734652, 3920504.771965359803289 ], [ 208179.768258386728121, 3921139.503781542181969 ], [ 206438.921904775343137, 3928542.007671262603253 ], [ 208816.352970681706211, 3930755.701062321197242 ], [ 207683.478581930423388, 3936516.747301308438182 ], [ 210408.864969274523901, 3939387.350525099784136 ] ] ] } },
{ "type": "Feature", "properties": { "drag_region": "North", "NAME": "Choctaw", "NAMELSAD": "Choctaw" }, "geometry": { "type": "Polygon", "coordinates": [ [ [ 299329.705557616718579, 3756627.097930882126093 ], [ 303357.200134334911127, 3757584.085173484869301 ], [ 305424.864866475400049, 3760492.670854286290705 ], [ 310815.03404799773125, 3762852.018485699314624 ], [ 318182.339888557267841, 3764219.241407470777631 ], [ 326851.601695715507958, 3764136.013040430378169 ], [ 326300.712362501362804, 3736699.169170830398798 ], [ 324294.905304443673231, 3736739.517948201857507 ], [ 324098.662784923042636, 3727022.47629626095295 ], [ 314392.056679606030229, 3727127.804993506986648 ], [ 314186.605536824848969, 3717410.613362405914813 ], [ 304469.863914254703559, 3717525.328957348130643 ], [ 304904.84696091915248, 3737150.931763132102787 ], [ 292200.403163496928755, 3737441.491472360212356 ], [ 292584.425851262698416, 3753733.645597396418452 ], [ 295579.473480991728138, 3753282.066508069168776 ], [ 299329.705557616718579, 3756627.097930882126093 ] ] ] } },
{ "type": "Feature", "properties": { "drag_region": "South", "NAME": "George", "NAMELSAD": "George" }, "geometry": { "type": "Polygon", "coordinates": [ [ [ 358111.387111562944483, 3329951.740530299488455 ], [ 362914.239046148024499, 3329871.676427527330816 ], [ 363074.173461870406754, 3339584.916797440033406 ], [ 402145.158899645146448, 3339012.682979883626103 ], [ 402804.420991725695785, 3309863.087136552203447 ], [ 357784.004991088993847, 3310525.349931786768138 ], [ 358111.387111562944483, 3329951.740530299488455 ] ] ] } },
{ "type": "Feature", "properties": { "drag_region": "South", "NAME": "Newton", "NAMELSAD": "Newton" }, "geometry": { "type": "Polygon", "coordinates": [ [ [ 309615.649444676702842, 3558088.307871129363775 ], [ 347697.017141766962595, 3557424.979519419837743 ], [ 347333.539710047654808, 3518271.539447262883186 ], [ 308765.117182124522515, 3518936.506494264584035 ], [ 309615.649444676702842, 3558088.307871129363775 ] ] ] } },
{ "type": "Feature", "properties": { "drag_region": "North", "NAME": "Clay", "NAMELSAD": "Clay" }, "geometry": { "type": "Polygon", "coordinates": [ [ [ 343297.066256242862437, 3784828.150837974622846 ], [ 343559.916638005583081, 3798165.86291268793866 ], [ 353202.194400826527271, 3797980.413052447140217 ], [ 353323.609405432303902, 3804458.655847758986056 ], [ 372925.044835951761343, 3804015.893100795336068 ], [ 372682.09806609392399, 3789440.586892698891461 ], [ 393312.679435801634099, 3789119.535425695125014 ], [ 391600.103412492142525, 3785809.727473886683583 ], [ 392539.14927182008978, 3781699.063611737918109 ], [ 395188.236351869592909, 3780612.902188279666007 ], [ 393151.463860517076682, 3777974.376831266097724 ], [ 394394.106223370123189, 3771668.297656334470958 ], [ 390440.139514539041556, 3774869.753909160383046 ], [ 388732.818275178491604, 3772131.951572166290134 ], [ 383367.037608247890603, 3770117.093235719483346 ], [ 376695.617526469461154, 3770031.723690595943481 ], [ 376801.614362667489331, 3776604.634845266118646 ], [ 344474.565562085597776, 3776894.814467836171389 ], [ 344632.629563112161122, 3784992.574198079295456 ], [ 343297.066256242862437, 3784828.150837974622846 ] ] ] } },
{ "type": "Feature", "properties": { "drag_region": "South", "NAME": "Greene", "NAMELSAD": "Greene" }, "geometry": { "type": "Polygon", "coordinates": [ [ [ 362376.457676584541332, 3398700.684163082856685 ], [ 399565.389767768268939, 3398334.157220920082182 ], [ 400809.051845246343873, 3362698.286858766339719 ], [ 401328.755562451377045, 3349834.756884764414281 ], [ 361572.279299693240318, 3350418.314252606593072 ], [ 362376.457676584541332, 3398700.684163082856685 ] ] ] } },
{ "type": "Feature", "properties": { "drag_region": "South", "NAME": "Jackson", "NAMELSAD": "Jackson" }, "geometry": { "type": "MultiPolygon", "coordinates": [ [ [ [ 393681.429622440133244, 3241118.694428107701242 ], [ 404030.510920122615062, 3239748.348486019764096 ], [ 399169.011083901277743, 3237904.835763414856046 ], [ 395033.327685311785899, 3238815.403840021695942 ], [ 393681.429622440133244, 3241118.694428107701242 ] ] ], [ [ [ 368509.408662127912976, 3244624.604853760451078 ], [ 374054.521491546765901, 3245777.658647064119577 ], [ 384376.176921758567914, 3242865.0772111620754 ], [ 386428.899107185541652, 3241407.80649753427133 ], [ 378144.238259621663019, 3242002.556224988773465 ], [ 368509.408662127912976, 3244624.604853760451078 ] ] ], [ [ [ 358707.475062159821391, 3299073.900415876414627 ], [ 403727.891062796465121, 3298411.637620641849935 ], [ 404943.811849080142565, 3257829.553160530515015 ], [ 403526.15060939558316, 3254799.910967738367617 ], [ 401128.957393322372809, 3256258.368414909113199 ], [ 397629.602174830855802, 3252494.146655751392245 ], [ 391452.24174433760345, 3255147.187124258838594 ], [ 386946.753616469330154, 3253780.654724364168942 ], [ 385261.611083097639494, 3256661.282631386071444 ], [ 379061.329501254716888, 3257417.241047872696072 ], [ 372818.123089159140363, 3255320.245988965034485 ], [ 364956.251990636694245, 3260109.948040797375143 ], [ 364594.540243339375593, 3259068.054793724790215 ], [ 361889.187246458488517, 3262445.363163832575083 ], [ 358121.173426414374262, 3264031.398887804709375 ], [ 358707.475062159821391, 3299073.900415876414627 ] ] ] ] } },
{ "type": "Feature", "properties": { "drag_region": "South", "NAME": "Jasper", "NAMELSAD": "Jasper" }, "geometry": { "type": "Polygon", "coordinates": [ [ [ 308487.54099231120199, 3506782.422560052014887 ], [ 347055.963520234334283, 3506117.455513050314039 ], [ 346486.742607788532041, 3474019.964573581237346 ], [ 346614.853521252749488, 3462013.479899805504829 ], [ 307824.270286385086365, 3460100.227391520049423 ], [ 307690.194157680845819, 3469728.024337273556739 ], [ 308487.54099231120199, 3506782.422560052014887 ] ] ] } },
{ "type": "Feature", "properties": { "drag_region": "Central", "NAME": "Franklin", "NAMELSAD": "Franklin" }, "geometry": { "type": "Polygon", "coordinates": [ [ [ 30203.790192827611463, 3461103.245523844845593 ], [ 69742.398380598489894, 3459769.851090115495026 ], [ 79627.951569484750507, 3459531.654346006456763 ], [ 78664.520145710761426, 3430465.126090454868972 ], [ 45169.778037534124451, 3431529.474689989816397 ], [ 34460.589218964538304, 3428868.397507538553327 ], [ 28414.331724991236115, 3431959.039451838470995 ], [ 30203.790192827611463, 3461103.245523844845593 ] ] ] } },
{ "type": "Feature", "properties": { "drag_region": "North", "NAME": "Prentiss", "NAMELSAD": "Prentiss" }, "geometry": { "type": "Polygon", "coordinates": [ [ [ 381361.723490886914078, 3920078.71791657526046 ], [ 383007.628311816544738, 3920050.530040266923606 ], [ 383310.159712892083917, 3937771.981400100979954 ], [ 415505.59432121302234, 3937182.342802608851343 ], [ 418768.197686606494244, 3935423.350901497527957 ], [ 418693.117824171320535, 3904742.269920802209526 ], [ 398914.667383337684441, 3905213.250491078477353 ], [ 398988.765827813243959, 3910072.067088331095874 ], [ 381194.61175449838629, 3910360.649364613927901 ], [ 381361.723490886914078, 3920078.71791657526046 ] ] ] } },
{ "type": "Feature", "properties": { "drag_region": "North", "NAME": "Noxubee", "NAMELSAD": "Noxubee" }, "geometry": { "type": "Polygon", "coordinates": [ [ [ 371011.964141368167475, 3725502.277744766324759 ], [ 384382.757216089754365, 3725279.32783691259101 ], [ 418144.729819238767959, 3724988.800023387186229 ], [ 413621.764008617319632, 3685226.215152795892209 ], [ 370320.659043624007609, 3685494.577434291131794 ], [ 371011.964141368167475, 3725502.277744766324759 ] ] ] } },
{ "type": "Feature", "properties": { "drag_region": "Central", "NAME": "Lawrence", "NAMELSAD": "Lawrence" }, "geometry": { "type": "Polygon", "coordinates": [ [ [ 128737.619128426624229, 3471103.133382023312151 ], [ 140419.919541216717334, 3474671.325167611707002 ], [ 154394.812359104078496, 3475328.476511233020574 ], [ 153670.110842565161875, 3448747.295158449560404 ], [ 155034.042224924982293, 3448710.325192001182586 ], [ 154640.63778185370029, 3434133.944409112911671 ], [ 147138.929398037231294, 3434720.109098935499787 ], [ 146959.8754003905633, 3428241.569947536569089 ], [ 142838.438432195951464, 3427593.4049400719814 ], [ 140513.769522550719557, 3430042.535316817462444 ], [ 127531.502740880911006, 3430417.316299838013947 ], [ 128737.619128426624229, 3471103.133382023312151 ] ] ] } },
{ "type": "Feature", "properties": { "drag_region": "North", "NAME": "Lowndes", "NAMELSAD": "Lowndes" }, "geometry": { "type": "Polygon", "coordinates": [ [ [ 387030.371926984516904, 3762709.588908528909087 ], [ 393701.792008762946352, 3762794.958453652448952 ], [ 399067.572675693547353, 3764809.816790099255741 ], [ 400774.893915054097306, 3767547.619127093814313 ], [ 404728.860623885178939, 3764346.162874267436564 ], [ 403486.218261032132432, 3770652.242049199528992 ], [ 405522.990752384648658, 3773290.767406213097274 ], [ 402873.903672335145529, 3774376.928829670883715 ], [ 401934.857813007198274, 3778487.592691820114851 ], [ 404955.18408703856403, 3780158.826704546809196 ], [ 411955.605697018909268, 3780918.472542693838477 ], [ 419008.72329603950493, 3785874.46998008992523 ], [ 419711.790576576604508, 3788818.865556774660945 ], [ 426692.739913686702494, 3788636.529749849811196 ], [ 424077.940213230613153, 3765327.655740346759558 ], [ 420736.327003304264508, 3738123.01798125077039 ], [ 386974.354400155250914, 3738413.545794776640832 ], [ 387030.371926984516904, 3762709.588908528909087 ] ] ] } },
{ "type": "Feature", "properties": { "drag_region": "Central", "NAME": "Walthall", "NAMELSAD": "Walthall" }, "geometry": { "type": "Polygon", "coordinates": [ [ [ 126188.903575929114595, 3421488.579238079953939 ], [ 140879.422735679137986, 3421063.282436031848192 ], [ 143204.091645324369892, 3418614.152059286367148 ], [ 147325.528613518981729, 3419262.317066750954837 ], [ 147521.798272240441293, 3401523.030149274971336 ], [ 149914.934120193007402, 3401362.334880423266441 ], [ 149785.472506726160645, 3396598.88209931878373 ], [ 156293.562683124211617, 3396519.456176469102502 ], [ 157834.743913801386952, 3389996.128882713150233 ], [ 166056.94480576220667, 3389782.771662563085556 ], [ 165850.200439580017701, 3381685.592260248027742 ], [ 125387.65616503264755, 3382699.510615281295031 ], [ 126188.903575929114595, 3421488.579238079953939 ] ] ] } },
{ "type": "Feature", "properties": { "drag_region": "North", "NAME": "Benton", "NAMELSAD": "Benton" }, "geometry": { "type": "Polygon", "coordinates": [ [ [ 308464.073452684853692, 3971411.764664280693978 ], [ 339263.820459932263475, 3970833.080505333840847 ], [ 338960.322661042446271, 3955777.924963066354394 ], [ 337220.897698642278556, 3950951.561752330511808 ], [ 332295.814080856798682, 3951052.774218562990427 ], [ 331797.274891562701669, 3927041.1340849455446 ], [ 317310.135090898431372, 3927257.122299935203046 ], [ 317274.063029991986696, 3925637.255835618823767 ], [ 312664.222443379869219, 3925741.040489723905921 ], [ 312997.555365031061228, 3954716.444576165638864 ], [ 308073.907843122084159, 3954830.761870383750647 ], [ 308464.073452684853692, 3971411.764664280693978 ] ] ] } },
{ "type": "Feature", "properties": { "drag_region": "North", "NAME": "Tallahatchie", "NAMELSAD": "Tallahatchie" }, "geometry": { "type": "Polygon", "coordinates": [ [ [ 177897.929780074133305, 3817033.949899128638208 ], [ 178873.963954112346983, 3846009.865297356620431 ], [ 208035.924671032262268, 3845069.427971473895013 ], [ 208334.698037810478127, 3854790.63676936738193 ], [ 224882.595720101817278, 3854200.68813032656908 ], [ 227216.075786224537296, 3854705.568547629751265 ], [ 227801.5076579330198, 3852018.168781765736639 ], [ 226797.345687649241881, 3816853.401066470891237 ], [ 221768.45650926840608, 3815471.709832513704896 ], [ 207140.768079936882714, 3815811.082049100659788 ], [ 206844.716536882537184, 3806090.262524026446044 ], [ 199194.691044819453964, 3806421.446046309545636 ], [ 197249.174096558330348, 3808104.184788880869746 ], [ 194448.65236582342186, 3803804.153304456733167 ], [ 191456.08884690204286, 3803994.866168635897338 ], [ 192307.574317662190879, 3809787.334573501721025 ], [ 202336.71477736151428, 3811093.597074831835926 ], [ 202819.606356664880877, 3815943.817350695841014 ], [ 177897.929780074133305, 3817033.949899128638208 ] ] ] } },
{ "type": "Feature", "properties": { "drag_region": "South", "NAME": "Kemper", "NAMELSAD": "Kemper" }, "geometry": { "type": "Polygon", "coordinates": [ [ [ 360972.644284509704448, 3609268.852269691880792 ], [ 370704.759175197978038, 3609001.403606327716261 ], [ 414005.864140191290062, 3608733.041324832476676 ], [ 412066.579451132565737, 3588562.888814338482916 ], [ 409803.404382207430899, 3569826.451459584292024 ], [ 360270.977127660764381, 3570500.509976642206311 ], [ 360972.644284509704448, 3609268.852269691880792 ] ] ] } },
{ "type": "Feature", "properties": { "drag_region": "Central", "NAME": "Washington", "NAMELSAD": "Washington" }, "geometry": { "type": "Polygon", "coordinates": [ [ [ 32974.474742668724502, 3706090.975719404872507 ], [ 75007.982594429093297, 3704471.196443607099354 ], [ 73968.71502033607976, 3675778.934271657839417 ], [ 78317.942081627887092, 3675622.915259681176394 ], [ 76829.711464542357135, 3671476.614138294477016 ], [ 81394.480899731439422, 3667878.781154991127551 ], [ 78970.62700370849052, 3656225.632039297372103 ], [ 59198.939156817199546, 3657135.426370505709201 ], [ 58825.297328257394838, 3647126.097036935854703 ], [ 35347.755913085580687, 3648411.555974473711103 ], [ 39901.65342121674621, 3653101.530107542406768 ], [ 32423.390539427855401, 3659318.842200994491577 ], [ 34248.313287459357525, 3662969.98121511656791 ], [ 37881.741102233805577, 3661488.488329438492656 ], [ 42603.781353036567452, 3662066.456262725871056 ], [ 43694.763242934350274, 3664219.883309645112604 ], [ 43304.622332223327248, 3671396.29598950361833 ], [ 47849.170137884138967, 3676184.106419563293457 ], [ 47265.139323733790661, 3678402.79304246371612 ], [ 43871.016874983601156, 3677294.048274070955813 ], [ 42709.883804663069895, 3673329.297958468087018 ], [ 38950.484098052649642, 3679970.962198150344193 ], [ 39193.207197909927345, 3686072.702698900364339 ], [ 47217.248045063970494, 3694349.944896385073662 ], [ 45667.085269025687012, 3697466.174174445681274 ], [ 42052.44271336896054, 3690638.202978287823498 ], [ 36318.3279476241878, 3689529.901710222009569 ], [ 33069.001023929260555, 3691952.912725158501416 ], [ 34144.606916373872082, 3693723.866525076795369 ], [ 39861.549288734022412, 3694449.320509950164706 ], [ 41402.205423352643265, 3699544.514207512140274 ], [ 36832.08443471461942, 3702305.740302453283221 ], [ 36970.28936806342972, 3697429.853927660733461 ], [ 30897.309892367615248, 3696147.80025186156854 ], [ 35880.871984845711268, 3703585.577467739582062 ], [ 32974.474742668724502, 3706090.975719404872507 ] ] ] } },
{ "type": "Feature", "properties": { "drag_region": "North", "NAME": "Panola", "NAMELSAD": "Panola" }, "geometry": { "type": "Polygon", "coordinates": [ [ [ 210776.25434276915621, 3910870.849144516512752 ], [ 254590.726021453621797, 3909490.986941748764366 ], [ 253430.655703573836945, 3866226.746277087368071 ], [ 233905.841672247101087, 3866863.355731160379946 ], [ 231572.361606124381069, 3866358.475313857663423 ], [ 215024.463923833041918, 3866948.423952898476273 ], [ 215385.649932053813245, 3878671.187629614491016 ], [ 210218.682384912390262, 3882743.586856205947697 ], [ 210622.315772118512541, 3906009.910077622160316 ], [ 210776.25434276915621, 3910870.849144516512752 ] ] ] } },
{ "type": "Feature", "properties": { "drag_region": "South", "NAME": "Hancock", "NAMELSAD": "Hancock" }, "geometry": { "type": "Polygon", "coordinates": [ [ [ 258213.622130704985466, 3266257.364737910218537 ], [ 262348.460501764784567, 3266064.3215865441598 ], [ 262462.432976929238066, 3270921.943615667987615 ], [ 272492.191844952525571, 3272311.0892125046812 ], [ 272821.638158232730348, 3286883.552878270391375 ], [ 292086.858379232464358, 3286369.147014415357262 ], [ 291798.753286415536422, 3255886.155835174024105 ], [ 289335.896595824044198, 3253650.6532227168791 ], [ 292408.418063772085588, 3251967.295499042607844 ], [ 292675.34999814000912, 3248150.829577462282032 ], [ 283928.037082386552356, 3242902.873970113229007 ], [ 281000.559806863544509, 3235343.065233834087849 ], [ 277910.068410390522331, 3236362.745206205174327 ], [ 273382.586480826488696, 3234937.702787261456251 ], [ 269233.929206353030168, 3235030.507246488705277 ], [ 264848.925976096128579, 3239894.973501896951348 ], [ 263612.093704678118229, 3246212.969009270891547 ], [ 263764.464069048000965, 3252784.863662818446755 ], [ 258760.64092971017817, 3260240.312752298545092 ], [ 258213.622130704985466, 3266257.364737910218537 ] ] ] } },
{ "type": "Feature", "properties": { "drag_region": "South", "NAME": "Jones", "NAMELSAD": "Jones" }, "geometry": { "type": "Polygon", "coordinates": [ [ [ 299175.553151163388975, 3450298.037726531736553 ], [ 342395.135224757133983, 3452482.872953846119344 ], [ 341623.473876057891175, 3409148.85382424807176 ], [ 298290.058314104564488, 3410006.249643654562533 ], [ 299175.553151163388975, 3450298.037726531736553 ] ] ] } },
{ "type": "Feature", "properties": { "drag_region": "North", "NAME": "Alcorn", "NAMELSAD": "Alcorn" }, "geometry": { "type": "Polygon", "coordinates": [ [ [ 373658.381430947745685, 3973957.185722420457751 ], [ 415590.053846410301048, 3973288.372664716094732 ], [ 414899.795822541986126, 3946711.413921741303056 ], [ 379418.870127582282294, 3947357.840944103896618 ], [ 379617.127717170689721, 3958696.056705564726144 ], [ 373382.346777419559658, 3958807.339422678109258 ], [ 373658.381430947745685, 3973957.185722420457751 ] ] ] } },
{ "type": "Feature", "properties": { "drag_region": "South", "NAME": "Smith", "NAMELSAD": "Smith" }, "geometry": { "type": "Polygon", "coordinates": [ [ [ 261754.03355956132873, 3508331.423169331159443 ], [ 300328.031199987628497, 3507519.258309124503285 ], [ 299530.684365357272327, 3470464.860086346045136 ], [ 299664.760494061512873, 3460837.06314059253782 ], [ 267996.24925094115315, 3459178.444214113987982 ], [ 267663.235055009485222, 3459472.53238637233153 ], [ 268288.947076730197296, 3485003.353463484439999 ], [ 267702.310090009239502, 3488735.429202876053751 ], [ 261260.936928299546707, 3488896.420289506670088 ], [ 261754.03355956132873, 3508331.423169331159443 ] ] ] } },
{ "type": "Feature", "properties": { "drag_region": "North", "NAME": "Webster", "NAMELSAD": "Webster" }, "geometry": { "type": "Polygon", "coordinates": [ [ [ 287704.560499478538986, 3795303.562517601065338 ], [ 316979.772580058895983, 3794731.8011409714818 ], [ 317018.255277061194647, 3796541.999638671986759 ], [ 331652.890498906141147, 3796337.344461285509169 ], [ 331422.002034605538938, 3784619.223837418481708 ], [ 332757.565341474837624, 3784783.647197523154318 ], [ 332599.501340448274277, 3776685.887467280030251 ], [ 326266.078844542906154, 3776716.173476756550372 ], [ 326202.724735485215206, 3773572.307713346555829 ], [ 317533.462928326975089, 3773655.536080387420952 ], [ 310166.157087767438497, 3772288.313158615492284 ], [ 304775.987906245107297, 3769928.965527202934027 ], [ 302708.323174104618374, 3767020.379846401512623 ], [ 298680.828597386425827, 3766063.392603798769414 ], [ 287333.923584480769932, 3766235.055765436962247 ], [ 287586.45118798490148, 3790444.204170783050358 ], [ 287704.560499478538986, 3795303.562517601065338 ] ] ] } },
{ "type": "Feature", "properties": { "drag_region": "Central", "NAME": "Adams", "NAMELSAD": "Adams" }, "geometry": { "type": "Polygon", "coordinates": [ [ [ 1855.101010558370035, 3475222.021547623444349 ], [ 7699.513859253202099, 3476420.647430560085922 ], [ 9845.253890310996212, 3470320.085362943354994 ], [ 9081.258059311599936, 3468249.562927077990025 ], [ 15024.106110714841634, 3463147.370129332877696 ], [ 22869.763109370367602, 3463036.62934005446732 ], [ 20993.223188673495315, 3431604.552306917496026 ], [ 15909.625896164390724, 3432943.750455076806247 ], [ 7037.588866400823463, 3433669.562759842723608 ], [ 3529.114371270290576, 3431515.998216982465237 ], [ -4445.725805224967189, 3429064.638064891565591 ], [ -8530.356842647190206, 3429707.232789721339941 ], [ -10655.826081939449068, 3419574.925495100673288 ], [ -14822.532071833265945, 3418312.617273173294961 ], [ -15739.786320107115898, 3421024.576401385013014 ], [ -19230.073232994531281, 3419545.140368485357612 ], [ -20750.246615776966792, 3415978.711721956729889 ], [ -25686.852803087502252, 3420961.294841576367617 ], [ -25191.935071968007833, 3424570.342284420039505 ], [ -19059.877157478535082, 3423645.199141019489616 ], [ -13164.010766583087388, 3425312.124291848856956 ], [ -12311.811718769895379, 3429383.985185713972896 ], [ -16270.010365180438384, 3433080.879120079334825 ], [ -16434.017221070011146, 3437385.771523684728891 ], [ -18762.743130747112446, 3439010.912302139215171 ], [ -15533.13253810047172, 3442601.652669708244503 ], [ -14363.753093978564721, 3437777.648446199018508 ], [ -11743.224999311147258, 3434900.066040203440934 ], [ -8639.616612780664582, 3435441.796916531398892 ], [ -8527.007446050643921, 3438206.792478973045945 ], [ -12674.636171206657309, 3445539.804683138150722 ], [ -12724.616812655352987, 3452609.668717741034925 ], [ -5829.87477396056056, 3454045.894282288849354 ], [ -1601.180006702721585, 3457216.997226821724325 ], [ -2841.873910399735905, 3460323.106320830062032 ], [ -9030.271315628197044, 3459334.068615523166955 ], [ -11981.017118542280514, 3462321.111147789284587 ], [ -10126.82874469779199, 3465873.858921826817095 ], [ -6828.133711653936189, 3463064.009892153553665 ], [ -692.296796598471701, 3462814.657805648632348 ], [ 56.466312654083595, 3472907.15797584829852 ], [ 1855.101010558370035, 3475222.021547623444349 ] ] ] } }
]
}
