{
"type": "FeatureCollection",
"name": "map",
"crs": { "type": "name", "properties": { "name": "urn:ogc:def:crs:EPSG::32614" } },
"features": [
{ "type": "Feature", "properties": { "drag_region": "West", "NAME": "Chase", "NAMELSAD": "Chase" }, "geometry": { "type": "Polygon", "coordinates": [ [ [ 168669.850444985670038, 4451676.053726583719254 ], [ 170011.767694511363516, 4490399.182106751017272 ], [ 229760.000456726585981, 4488562.280512574128807 ], [ 229039.293703574454412, 4450025.336554334498942 ], [ 168669.850444985670038, 4451676.053726583719254 ] ] ] } },
{ "type": "Feature", "properties": { "drag_region": "East", "NAME": "Nance", "NAMELSAD": "Nance" }, "geometry": { "type": "Polygon", "coordinates": [ [ [ 629406.471040860982612, 4608551.040416694246233 ], [ 645288.772090161102824, 4608698.633600362576544 ], [ 645271.919399231206626, 4610319.980396490544081 ], [ 650364.060160084743984, 4610470.099051522091031 ], [ 650346.057733344845474, 4612091.453580621629953 ], [ 663224.613561705918983, 4612341.357842680998147 ], [ 667995.067231469671242, 4614026.102220985107124 ], [ 678474.773317454149947, 4614271.217859583906829 ], [ 678535.820082797203213, 4590137.155412092804909 ], [ 662614.017379153403454, 4589726.469908243045211 ], [ 662634.629466297570616, 4588105.161530406214297 ], [ 649411.319712075288408, 4587949.105234545655549 ], [ 645538.013231389690191, 4584665.024090841412544 ], [ 630805.601750309579074, 4584527.485214236192405 ], [ 630985.648027145885862, 4598930.899317969568074 ], [ 629485.324446362326853, 4598918.47262501064688 ], [ 629406.471040860982612, 4608551.040416694246233 ] ] ] } },
{ "type": "Feature", "properties": { "drag_region": "Central", "NAME": "Clay", "NAMELSAD": "Clay" }, "geometry": { "type": "Polygon", "coordinates": [ [ [ 620380.878199357306585, 4455065.687916680239141 ], [ 658588.564982257317752, 4455573.833811966702342 ], [ 659103.397238193661906, 4416953.413697608746588 ], [ 620697.563986490946263, 4416446.069857607595623 ], [ 620380.878199357306585, 4455065.687916680239141 ] ] ] } },
{ "type": "Feature", "properties": { "drag_region": "West", "NAME": "Thomas", "NAMELSAD": "Thomas" }, "geometry": { "type": "Polygon", "coordinates": [ [ [ 297408.061651938245632, 4678797.667686299420893 ], [ 345199.548573300882708, 4677735.596397055312991 ], [ 344929.218232956831343, 4639292.446213310584426 ], [ 296876.46606249420438, 4640255.967678816989064 ], [ 297408.061651938245632, 4678797.667686299420893 ] ] ] } },
{ "type": "Feature", "properties": { "drag_region": "East", "NAME": "Garfield", "NAMELSAD": "Garfield" }, "geometry": { "type": "Polygon", "coordinates": [ [ [ 535421.389353633392602, 4687434.096066455356777 ], [ 573417.633759940392338, 4687533.377845454029739 ], [ 573823.504675768665038, 4648905.682743554934859 ], [ 535322.128336099325679, 4648900.954805566929281 ], [ 535421.389353633392602, 4687434.096066455356777 ] ] ] } },
{ "type": "Feature", "properties": { "drag_region": "West", "NAME": "Custer", "NAMELSAD": "Custer" }, "geometry": { "type": "Polygon", "coordinates": [ [ [ 367140.992240525316447, 4624353.793686179444194 ], [ 387733.257793260738254, 4623893.256403801031411 ], [ 453398.323496163706295, 4623715.030710882507265 ], [ 453303.178419372416101, 4585279.594090884551406 ], [ 454203.129035881371237, 4585182.058884576894343 ], [ 453811.526653196080588, 4546654.291984969750047 ], [ 367236.23158384510316, 4547370.406697669997811 ], [ 367784.336136630619876, 4585900.04846135340631 ], [ 366584.053204628289677, 4585917.281583471223712 ], [ 367140.992240525316447, 4624353.793686179444194 ] ] ] } },
{ "type": "Feature", "properties": { "drag_region": "East", "NAME": "Antelope", "NAMELSAD": "Antelope" }, "geometry": { "type": "Polygon", "coordinates": [ [ [ 626031.789621970849112, 4731905.216150387190282 ], [ 664113.82985970727168, 4732419.111497227102518 ], [ 665201.707192198606208, 4674524.259208920411766 ], [ 626805.415363237494603, 4674009.529174277558923 ], [ 626653.041547510074452, 4692513.473834148608148 ], [ 626053.055528637953103, 4693271.662033164873719 ], [ 626031.789621970849112, 4731905.216150387190282 ] ] ] } },
{ "type": "Feature", "properties": { "drag_region": "Central", "NAME": "Howard", "NAMELSAD": "Howard" }, "geometry": { "type": "Polygon", "coordinates": [ [ [ 576756.271979955374263, 4540916.076797798275948 ], [ 614864.578231857973151, 4541033.727523234672844 ], [ 615180.215539661934599, 4502504.88695368450135 ], [ 576568.53188073693309, 4502291.331806008704007 ], [ 576756.271979955374263, 4540916.076797798275948 ] ] ] } },
{ "type": "Feature", "properties": { "drag_region": "West", "NAME": "Arthur", "NAMELSAD": "Arthur" }, "geometry": { "type": "Polygon", "coordinates": [ [ [ 179909.934347997361328, 4636839.115518670529127 ], [ 227969.554635782638798, 4635427.981687873601913 ], [ 226892.186572052742122, 4596797.689963387325406 ], [ 178573.41130517347483, 4598206.6181765133515 ], [ 179909.934347997361328, 4636839.115518670529127 ] ] ] } },
{ "type": "Feature", "properties": { "drag_region": "Central", "NAME": "Polk", "NAMELSAD": "Polk" }, "geometry": { "type": "Polygon", "coordinates": [ [ [ 663389.537386886542663, 4517298.064936939626932 ], [ 668411.909652791800909, 4524140.058432965539396 ], [ 677315.253211308270693, 4532094.125080621801317 ], [ 682401.840677256695926, 4533510.033170630224049 ], [ 682374.108073216397315, 4535226.745022075250745 ], [ 688626.321247485233471, 4538574.099528041668236 ], [ 694617.115519892075099, 4539441.874128972180188 ], [ 701464.055714610847645, 4542620.528286440297961 ], [ 702192.454465202521533, 4503803.875047574751079 ], [ 663881.010769188636914, 4503187.607546582818031 ], [ 663389.537386886542663, 4517298.064936939626932 ] ] ] } },
{ "type": "Feature", "properties": { "drag_region": "Central", "NAME": "Seward", "NAMELSAD": "Seward" }, "geometry": { "type": "Polygon", "coordinates": [ [ [ 707235.308190259151161, 4499672.508508489467204 ], [ 745851.927470733528025, 4500400.97509628161788 ], [ 746774.558189853210934, 4461775.76638943143189 ], [ 707955.037832015077583, 4461048.756287596188486 ], [ 707235.308190259151161, 4499672.508508489467204 ] ] ] } },
{ "type": "Feature", "properties": { "drag_region": "Central", "NAME": "Phelps", "NAMELSAD": "Phelps" }, "geometry": { "type": "Polygon", "coordinates": [ [ [ 491502.867820829153061, 4453133.91876024287194 ], [ 496653.277071659453213, 4452239.66563160251826 ], [ 508483.808999795408454, 4452265.920581435784698 ], [ 510603.489761328906752, 4451492.641386997886002 ], [ 517884.154228142462671, 4451461.562109305523336 ], [ 525161.072838117019273, 4450102.600019385106862 ], [ 530926.340564350131899, 4450279.420305023901165 ], [ 530856.929168093833141, 4415856.027990925125778 ], [ 491536.592067106103059, 4416037.934234105050564 ], [ 491502.867820829153061, 4453133.91876024287194 ] ] ] } },
{ "type": "Feature", "properties": { "drag_region": "East", "NAME": "Cuming", "NAMELSAD": "Cuming" }, "geometry": { "type": "Polygon", "coordinates": [ [ [ 755807.609504483873025, 4689609.802165027707815 ], [ 794401.950984601164237, 4690513.867840385995805 ], [ 795504.332592251710594, 4651881.530046699568629 ], [ 756697.289891740307212, 4651074.164072836749256 ], [ 755807.609504483873025, 4689609.802165027707815 ] ] ] } },
{ "type": "Feature", "properties": { "drag_region": "Central", "NAME": "Hitchcock", "NAMELSAD": "Hitchcock" }, "geometry": { "type": "Polygon", "coordinates": [ [ [ 322978.822913288895506, 4373996.767596427351236 ], [ 323990.169129305577371, 4412618.961897720582783 ], [ 372150.979548042465467, 4411317.038321508094668 ], [ 371461.555669849854894, 4391965.211068497039378 ], [ 371388.53061605518451, 4372792.514580762945116 ], [ 322978.822913288895506, 4373996.767596427351236 ] ] ] } },
{ "type": "Feature", "properties": { "drag_region": "East", "NAME": "Stanton", "NAMELSAD": "Stanton" }, "geometry": { "type": "Polygon", "coordinates": [ [ [ 718262.158849182538688, 4689375.603809723630548 ], [ 747058.516128517105244, 4689888.539602817036211 ], [ 747948.196515773539431, 4651352.901510626077652 ], [ 718997.054161854903214, 4650745.38406749162823 ], [ 718262.158849182538688, 4689375.603809723630548 ] ] ] } },
{ "type": "Feature", "properties": { "drag_region": "East", "NAME": "Wayne", "NAMELSAD": "Wayne" }, "geometry": { "type": "Polygon", "coordinates": [ [ [ 718930.686272425460629, 4724835.700350321829319 ], [ 747902.312920263968408, 4725451.457459518685937 ], [ 748126.840399039210752, 4715816.965078046545386 ], [ 764115.446759226266295, 4716112.022877871990204 ], [ 764607.192541997763328, 4696843.190963708795607 ], [ 719483.766888959566131, 4695933.160241467878222 ], [ 718930.686272425460629, 4724835.700350321829319 ] ] ] } },
{ "type": "Feature", "properties": { "drag_region": "Central", "NAME": "Adams", "NAMELSAD": "Adams" }, "geometry": { "type": "Polygon", "coordinates": [ [ [ 579136.306772065465339, 4454083.46294931974262 ], [ 579436.565152550232597, 4455038.004806462675333 ], [ 617038.772130719968118, 4455156.83882821816951 ], [ 617355.457917853607796, 4416537.220769145525992 ], [ 579253.500850311247632, 4416417.843297470360994 ], [ 579136.306772065465339, 4454083.46294931974262 ] ] ] } },
{ "type": "Feature", "properties": { "drag_region": "Central", "NAME": "Gosper", "NAMELSAD": "Gosper" }, "geometry": { "type": "Polygon", "coordinates": [ [ [ 457356.266931834514253, 4454994.777299439534545 ], [ 481311.950541235448327, 4454765.713727083988488 ], [ 485848.581119048292749, 4453109.842545513994992 ], [ 485882.305365325242747, 4416013.858019376173615 ], [ 447477.01395462785149, 4416485.537042552605271 ], [ 447291.68633192247944, 4426120.324117930606008 ], [ 457033.145948346995283, 4426005.69680854678154 ], [ 457356.266931834514253, 4454994.777299439534545 ] ] ] } },
{ "type": "Feature", "properties": { "drag_region": "Central", "NAME": "Fillmore", "NAMELSAD": "Fillmore" }, "geometry": { "type": "Polygon", "coordinates": [ [ [ 663559.644337291247211, 4455471.83663060516119 ], [ 702072.30776355904527, 4456087.009170369245112 ], [ 702786.934242662624456, 4417465.403418851085007 ], [ 664074.476593227591366, 4416851.416516247205436 ], [ 663559.644337291247211, 4455471.83663060516119 ] ] ] } },
{ "type": "Feature", "properties": { "drag_region": "Central", "NAME": "Saunders", "NAMELSAD": "Saunders" }, "geometry": { "type": "Polygon", "coordinates": [ [ [ 752356.812655200017616, 4551784.882112327031791 ], [ 759588.429549510939978, 4550531.953429942950606 ], [ 765558.648848901269957, 4551734.750181139446795 ], [ 770427.284327026223764, 4549190.569968583993614 ], [ 780601.392184991040267, 4550328.338728697039187 ], [ 786118.134336583083495, 4546380.62524962797761 ], [ 788830.053669882006943, 4546077.456522391177714 ], [ 793125.212656496441923, 4543053.734167048707604 ], [ 794491.642887862282805, 4537557.419791843742132 ], [ 799468.0871815654682, 4532170.60080886259675 ], [ 798369.542879024404101, 4528700.251331482082605 ], [ 801527.497613855521195, 4523927.733476253226399 ], [ 803289.264231125125661, 4515676.042458239011467 ], [ 800988.944418256520294, 4511977.52655141800642 ], [ 802625.612573722959496, 4507827.045051921159029 ], [ 800313.415578090818599, 4504415.02720838226378 ], [ 790651.742105617420748, 4504223.333010911941528 ], [ 790557.470427047112025, 4507466.162600536830723 ], [ 753145.07876422489062, 4506569.253655119799078 ], [ 752215.942189297522418, 4545196.491379508748651 ], [ 752356.812655200017616, 4551784.882112327031791 ] ] ] } },
{ "type": "Feature", "properties": { "drag_region": "West", "NAME": "Dawes", "NAMELSAD": "Dawes" }, "geometry": { "type": "Polygon", "coordinates": [ [ [ 33915.975653683970449, 4811926.676951231434941 ], [ 92140.405807996779913, 4808950.122065163217485 ], [ 91064.275079517712584, 4785097.405258080922067 ], [ 92532.392980817036005, 4785031.46073090378195 ], [ 90819.32081572295283, 4746677.418069642037153 ], [ 32636.168168854870601, 4749224.128765352070332 ], [ 34686.674588121270062, 4787867.23422434553504 ], [ 32919.70820611299132, 4787865.841482212767005 ], [ 33915.975653683970449, 4811926.676951231434941 ] ] ] } },
{ "type": "Feature", "properties": { "drag_region": "Central", "NAME": "Saline", "NAMELSAD": "Saline" }, "geometry": { "type": "Polygon", "coordinates": [ [ [ 707907.410748763242736, 4456077.935170193202794 ], [ 746423.661269178963266, 4456797.732782062143087 ], [ 747033.334016334381886, 4418167.376942935399711 ], [ 708622.037227866821922, 4417456.329418675042689 ], [ 707907.410748763242736, 4456077.935170193202794 ] ] ] } },
{ "type": "Feature", "properties": { "drag_region": "Central", "NAME": "Buffalo", "NAMELSAD": "Buffalo" }, "geometry": { "type": "Polygon", "coordinates": [ [ [ 514242.000641287770122, 4497589.425755156204104 ], [ 573365.884873497067019, 4497539.429590682499111 ], [ 573488.498515957267955, 4458917.889811128377914 ], [ 573188.240135472500697, 4457963.347953985445201 ], [ 564699.943796228501014, 4456225.236405840143561 ], [ 558029.039407219039276, 4453735.719952385872602 ], [ 540429.558348689693958, 4454023.629790548235178 ], [ 534969.094117374392226, 4454700.177477288991213 ], [ 529203.826391141279601, 4454523.35719165019691 ], [ 521926.90778116666479, 4455882.319281570613384 ], [ 514646.243314353108872, 4455913.39855926297605 ], [ 514054.756962979852688, 4459063.156154107302427 ], [ 514242.000641287770122, 4497589.425755156204104 ] ] ] } },
{ "type": "Feature", "properties": { "drag_region": "Central", "NAME": "Harlan", "NAMELSAD": "Harlan" }, "geometry": { "type": "Polygon", "coordinates": [ [ [ 492232.897477063466795, 4411307.735330868512392 ], [ 530638.803150573163293, 4411132.396317469887435 ], [ 530561.270546157611534, 4372420.209200141951442 ], [ 492264.593158886651509, 4372593.022435558028519 ], [ 492232.897477063466795, 4411307.735330868512392 ] ] ] } },
{ "type": "Feature", "properties": { "drag_region": "Central", "NAME": "Dawson", "NAMELSAD": "Dawson" }, "geometry": { "type": "Polygon", "coordinates": [ [ [ 437372.75904758827528, 4499066.274938578717411 ], [ 504642.245317500899546, 4498429.589113014750183 ], [ 504455.001639192982111, 4459903.319511965848505 ], [ 505046.487990566238295, 4456753.561917121522129 ], [ 502926.807229032739997, 4457526.841111559420824 ], [ 491096.275300896784756, 4457500.586161726154387 ], [ 485945.866050066484604, 4458394.839290366508067 ], [ 481409.235472253640182, 4460050.710471936501563 ], [ 437137.795226085523609, 4460630.012222722172737 ], [ 437372.75904758827528, 4499066.274938578717411 ] ] ] } },
{ "type": "Feature", "properties": { "drag_region": "East", "NAME": "Valley", "NAMELSAD": "Valley" }, "geometry": { "type": "Polygon", "coordinates": [ [ [ 535218.16785230115056, 4640519.602878846228123 ], [ 573719.544329766184092, 4640527.542361903004348 ], [ 573830.761947981081903, 4601996.72360172867775 ], [ 535123.022775509743951, 4602084.166258848272264 ], [ 535218.16785230115056, 4640519.602878846228123 ] ] ] } },
{ "type": "Feature", "properties": { "drag_region": "West", "NAME": "Blaine", "NAMELSAD": "Blaine" }, "geometry": { "type": "Polygon", "coordinates": [ [ [ 359346.135258391790558, 4677636.879505712538958 ], [ 407437.50001269695349, 4677086.464763096533716 ], [ 407129.365529905830044, 4638648.439266856759787 ], [ 359075.804918047739193, 4639193.729321967810392 ], [ 359346.135258391790558, 4677636.879505712538958 ] ] ] } },
{ "type": "Feature", "properties": { "drag_region": "Central", "NAME": "Kearney", "NAMELSAD": "Kearney" }, "geometry": { "type": "Polygon", "coordinates": [ [ [ 536568.986203815438785, 4450367.983566954731941 ], [ 542029.450435130740516, 4449691.435880213975906 ], [ 559628.931493660085835, 4449403.526042051613331 ], [ 566299.835882669547573, 4451893.04249550588429 ], [ 574788.132221913547255, 4453631.15404365118593 ], [ 574905.326300159329548, 4415965.534391801804304 ], [ 536499.574807559023611, 4415944.591252855956554 ], [ 536568.986203815438785, 4450367.983566954731941 ] ] ] } },
{ "type": "Feature", "properties": { "drag_region": "Central", "NAME": "Pawnee", "NAMELSAD": "Pawnee" }, "geometry": { "type": "Polygon", "coordinates": [ [ [ 799381.76813686452806, 4403151.049875449389219 ], [ 838153.594834643648937, 4404265.14402861893177 ], [ 838823.704545591841452, 4375261.892226045019925 ], [ 800209.269596505677328, 4374159.97872216720134 ], [ 799381.76813686452806, 4403151.049875449389219 ] ] ] } },
{ "type": "Feature", "properties": { "drag_region": "Central", "NAME": "York", "NAMELSAD": "York" }, "geometry": { "type": "Polygon", "coordinates": [ [ [ 663141.276819136342965, 4498575.900917054153979 ], [ 701452.720515150227584, 4499192.168418046087027 ], [ 702172.450156906154007, 4460568.416197152808309 ], [ 663659.786730638355948, 4459953.243657388724387 ], [ 663141.276819136342965, 4498575.900917054153979 ] ] ] } },
{ "type": "Feature", "properties": { "drag_region": "East", "NAME": "Greeley", "NAMELSAD": "Greeley" }, "geometry": { "type": "Polygon", "coordinates": [ [ [ 582241.588126943795942, 4641482.14102862495929 ], [ 620146.195408186176792, 4641692.315329656004906 ], [ 620447.799891727976501, 4641313.259361813776195 ], [ 620760.889264296391048, 4603163.634135885164142 ], [ 582352.805745158810169, 4602951.322268450632691 ], [ 582241.588126943795942, 4641482.14102862495929 ] ] ] } },
{ "type": "Feature", "properties": { "drag_region": "Central", "NAME": "Johnson", "NAMELSAD": "Johnson" }, "geometry": { "type": "Polygon", "coordinates": [ [ [ 797766.73037581378594, 4436361.87156556174159 ], [ 831517.225564927561209, 4437504.882310822606087 ], [ 832480.216511802515015, 4408511.202084225602448 ], [ 798595.983352645300329, 4407465.114897831343114 ], [ 797766.73037581378594, 4436361.87156556174159 ] ] ] } },
{ "type": "Feature", "properties": { "drag_region": "East", "NAME": "Wheeler", "NAMELSAD": "Wheeler" }, "geometry": { "type": "Polygon", "coordinates": [ [ [ 581909.511171946302056, 4688277.293672917410731 ], [ 619905.640263040550053, 4688485.416479466482997 ], [ 620505.626281912671402, 4687727.228280449286103 ], [ 620816.910377854830585, 4649861.476842906326056 ], [ 582315.382087774574757, 4649649.598571017384529 ], [ 581909.511171946302056, 4688277.293672917410731 ] ] ] } },
{ "type": "Feature", "properties": { "drag_region": "West", "NAME": "Kimball", "NAMELSAD": "Kimball" }, "geometry": { "type": "Polygon", "coordinates": [ [ [ -36691.957052378129447, 4594729.965343616902828 ], [ 19754.185732915851986, 4591843.025080615654588 ], [ 17809.940283338859444, 4553299.691443171352148 ], [ 17253.901015658193501, 4548258.508637838996947 ], [ -39225.498476859211223, 4551220.143488525412977 ], [ -36691.957052378129447, 4594729.965343616902828 ] ] ] } },
{ "type": "Feature", "properties": { "drag_region": "Central", "NAME": "Richardson", "NAMELSAD": "Richardson" }, "geometry": { "type": "Polygon", "coordinates": [ [ [ 847143.672751017846167, 4375010.7593003353104 ], [ 846473.563040069653653, 4404014.011102909222245 ], [ 885241.615957292029634, 4405518.840012916363776 ], [ 891106.667642909451388, 4404125.432712506502867 ], [ 892009.315810537082143, 4396805.362209562212229 ], [ 899640.135200478020124, 4389851.299892713315785 ], [ 897495.984308891114779, 4382217.153376245871186 ], [ 907212.022293820395134, 4377263.934676951728761 ], [ 847143.672751017846167, 4375010.7593003353104 ] ] ] } },
{ "type": "Feature", "properties": { "drag_region": "Central", "NAME": "Red Willow", "NAMELSAD": "Red Willow" }, "geometry": { "type": "Polygon", "coordinates": [ [ [ 381178.651525034394581, 4411544.525857899338007 ], [ 428733.722472876193933, 4410845.915056118741632 ], [ 428518.159120677853934, 4372128.220480469055474 ], [ 380416.202593047113623, 4373020.002117154188454 ], [ 380489.227646841784008, 4392192.698604888282716 ], [ 381178.651525034394581, 4411544.525857899338007 ] ] ] } },
{ "type": "Feature", "properties": { "drag_region": "East", "NAME": "Boone", "NAMELSAD": "Boone" }, "geometry": { "type": "Polygon", "coordinates": [ [ [ 627256.871730528306216, 4664995.775058634579182 ], [ 665653.163559489184991, 4665510.505093277432024 ], [ 666540.218651960371062, 4622212.916683165356517 ], [ 661769.764982196735218, 4620528.17230486124754 ], [ 648891.209153835661709, 4620278.268042801879346 ], [ 648909.211580575443804, 4618656.913513702340424 ], [ 643817.070819722022861, 4618506.794858670793474 ], [ 643833.923510651802644, 4616885.448062542825937 ], [ 627951.622461351798847, 4616737.854878874495625 ], [ 627256.871730528306216, 4664995.775058634579182 ] ] ] } },
{ "type": "Feature", "properties": { "drag_region": "Central", "NAME": "Sherman", "NAMELSAD": "Sherman" }, "geometry": { "type": "Polygon", "coordinates": [ [ [ 533592.68712849507574, 4541207.78564293961972 ], [ 572000.317607905017212, 4541314.999809321947396 ], [ 571812.577508686576039, 4502690.254817532375455 ], [ 533201.08474580978509, 4502680.018743332475424 ], [ 533592.68712849507574, 4541207.78564293961972 ] ] ] } },
{ "type": "Feature", "properties": { "drag_region": "Central", "NAME": "Hall", "NAMELSAD": "Hall" }, "geometry": { "type": "Polygon", "coordinates": [ [ [ 579066.012335332925431, 4497204.843831940554082 ], [ 615566.127630302333273, 4497411.975815887562931 ], [ 616184.34709866263438, 4458697.171942100860178 ], [ 579188.625977793126367, 4458583.304052386432886 ], [ 579066.012335332925431, 4497204.843831940554082 ] ] ] } },
{ "type": "Feature", "properties": { "drag_region": "East", "NAME": "Brown", "NAMELSAD": "Brown" }, "geometry": { "type": "Polygon", "coordinates": [ [ [ 435051.226770283596125, 4784888.656433863565326 ], [ 440272.749897993111517, 4780522.848879761062562 ], [ 446404.568624973471742, 4777962.53664552140981 ], [ 450519.20728187734494, 4778293.818946987390518 ], [ 453727.586123034707271, 4776443.52209201734513 ], [ 462239.166565422608983, 4775969.540636702440679 ], [ 462808.081787644361611, 4774151.069849236868322 ], [ 474533.121495842467993, 4771180.062317722477019 ], [ 477475.456399944610894, 4771632.851388921961188 ], [ 477211.644691861758474, 4738627.664597136899829 ], [ 478393.309055013523903, 4738713.740213951095939 ], [ 478092.192700540123042, 4699987.275576328858733 ], [ 436234.97668840829283, 4700435.573548329994082 ], [ 436763.577002664038446, 4738971.79144973680377 ], [ 435582.625329214497469, 4738988.144353974610567 ], [ 436122.648962656792719, 4777622.018885095603764 ], [ 434948.253448684641626, 4777638.58868271112442 ], [ 435051.226770283596125, 4784888.656433863565326 ] ] ] } },
{ "type": "Feature", "properties": { "drag_region": "Central", "NAME": "Otoe", "NAMELSAD": "Otoe" }, "geometry": { "type": "Polygon", "coordinates": [ [ [ 798758.63258625078015, 4469581.622317080385983 ], [ 852069.961475162534043, 4471316.168992524035275 ], [ 848254.287821841891855, 4467741.161417819559574 ], [ 847773.447566173039377, 4464190.535317888483405 ], [ 852521.098596583819017, 4458821.240656953305006 ], [ 856521.55140192527324, 4457438.453844925388694 ], [ 859754.023162127006799, 4452208.765568397939205 ], [ 858637.408745566848665, 4449493.306772255338728 ], [ 858554.215888669481501, 4443473.191582533530891 ], [ 863451.410926228389144, 4442794.89077143650502 ], [ 799595.093830844853073, 4440588.440820280462503 ], [ 798758.63258625078015, 4469581.622317080385983 ] ] ] } },
{ "type": "Feature", "properties": { "drag_region": "East", "NAME": "Holt", "NAMELSAD": "Holt" }, "geometry": { "type": "Polygon", "coordinates": [ [ [ 536496.357283494784497, 4778591.524344793520868 ], [ 545015.010916802100837, 4782768.197752684354782 ], [ 552935.778297587996349, 4785047.86777672264725 ], [ 558799.232951980433427, 4788766.888399275951087 ], [ 561143.729261346859857, 4788576.941813908517361 ], [ 566719.365135220694356, 4782953.850215933285654 ], [ 570531.870803697500378, 4783150.802367537282407 ], [ 574057.076642007799819, 4780773.505503517575562 ], [ 576989.907023251871578, 4781162.759120799601078 ], [ 581106.30299372470472, 4778504.569834533147514 ], [ 585505.919783531338908, 4779188.808087456971407 ], [ 591685.134534365846775, 4775877.817449771799147 ], [ 601383.124079496716149, 4774501.718106998130679 ], [ 605193.504086798871867, 4775576.373169233091176 ], [ 614309.059034044388682, 4774023.589781063608825 ], [ 614604.835174878127873, 4737965.787172719836235 ], [ 615195.271396081661806, 4737970.64044573623687 ], [ 615216.537302748649381, 4699337.086328513920307 ], [ 538036.772207808331586, 4699032.850479201413691 ], [ 538143.20127590559423, 4737568.330785006284714 ], [ 537257.528037587995641, 4737570.841180323623121 ], [ 537369.852581135579385, 4776204.055414006114006 ], [ 536496.357283494784497, 4778591.524344793520868 ] ] ] } },
{ "type": "Feature", "properties": { "drag_region": "East", "NAME": "Washington", "NAMELSAD": "Washington" }, "geometry": { "type": "Polygon", "coordinates": [ [ [ 819021.070926143671386, 4635048.553329131565988 ], [ 845909.999447524663992, 4635896.551078358665109 ], [ 848435.335477875894867, 4631970.471659208647907 ], [ 846467.106129276682623, 4628180.047871632501483 ], [ 849883.103392673074268, 4624570.57620011549443 ], [ 849165.412332544568926, 4619198.519620576873422 ], [ 853749.138389347470365, 4616680.403625470586121 ], [ 854226.918850264395587, 4620230.343045482411981 ], [ 856925.185190524091013, 4620228.179265548475087 ], [ 857047.89607226185035, 4616698.804196070879698 ], [ 856580.971410847268999, 4612862.481550581753254 ], [ 862609.817311761085875, 4612118.82162060495466 ], [ 862597.127544664079323, 4604000.209112092852592 ], [ 829878.003095499123447, 4603107.48924530018121 ], [ 829727.822594108409248, 4607972.062140734866261 ], [ 826428.873190385405906, 4607870.925735777243972 ], [ 824831.318943069898523, 4611068.499242564663291 ], [ 821485.573611461441033, 4612591.065356914885342 ], [ 819843.109860149910673, 4617411.157688469626009 ], [ 819021.070926143671386, 4635048.553329131565988 ] ] ] } },
{ "type": "Feature", "properties": { "drag_region": "East", "NAME": "Colfax", "NAMELSAD": "Colfax" }, "geometry": { "type": "Polygon", "coordinates": [ [ [ 731781.777523498865776, 4642397.086247827857733 ], [ 760735.459058282431215, 4642947.906828496605158 ], [ 761506.545693601714447, 4611185.900927812792361 ], [ 752322.105036507826298, 4606197.984748931601644 ], [ 738908.711477281874977, 4601800.230043498799205 ], [ 732588.068321654573083, 4602528.860782620497048 ], [ 731781.777523498865776, 4642397.086247827857733 ] ] ] } },
{ "type": "Feature", "properties": { "drag_region": "West", "NAME": "Box Butte", "NAMELSAD": "Box Butte" }, "geometry": { "type": "Polygon", "coordinates": [ [ [ 37471.816247553550056, 4734868.995019947178662 ], [ 94768.84447692228423, 4732386.125610220246017 ], [ 94064.282617181059322, 4723144.823785254731774 ], [ 94078.279294399064383, 4703261.555888684466481 ], [ 93659.663348359681549, 4693721.236946847289801 ], [ 96929.611264676190331, 4693674.216370298527181 ], [ 96801.016898623769521, 4683834.950038724578917 ], [ 83107.780902947110008, 4684058.241305354051292 ], [ 38522.516142659980687, 4686501.166318320669234 ], [ 39019.403733632920193, 4696137.612876314669847 ], [ 35456.292427954540472, 4696322.396183801814914 ], [ 37471.816247553550056, 4734868.995019947178662 ] ] ] } },
{ "type": "Feature", "properties": { "drag_region": "Central", "NAME": "Hayes", "NAMELSAD": "Hayes" }, "geometry": { "type": "Polygon", "coordinates": [ [ [ 323197.56206212885445, 4457234.05682510510087 ], [ 371119.897691191639751, 4456395.053481301292777 ], [ 370716.068254659126978, 4451442.196537857875228 ], [ 370332.875990355678368, 4417391.529187406413257 ], [ 322476.855308976722881, 4418697.112866865471005 ], [ 323197.56206212885445, 4457234.05682510510087 ] ] ] } },
{ "type": "Feature", "properties": { "drag_region": "West", "NAME": "Cherry", "NAMELSAD": "Cherry" }, "geometry": { "type": "Polygon", "coordinates": [ [ [ 188605.838036838802509, 4798553.951949718408287 ], [ 225752.405429094680585, 4796909.101620427332819 ], [ 342207.010856816661544, 4794544.79066604655236 ], [ 341863.723233492521103, 4770409.389001446776092 ], [ 343038.118747464672197, 4770392.819203831255436 ], [ 342498.095114022376947, 4731758.944672710262239 ], [ 343679.046787471917924, 4731742.591768472455442 ], [ 343150.446473216172308, 4693206.373867065645754 ], [ 287046.806217018165626, 4694386.970631060190499 ], [ 188517.914904851175379, 4698159.276123051531613 ], [ 189893.995544104836881, 4736700.012899208813906 ], [ 187532.221514969482087, 4736785.020277424715459 ], [ 188909.790492769854609, 4774755.102799306623638 ], [ 187441.756587782350834, 4774808.692814846523106 ], [ 188605.838036838802509, 4798553.951949718408287 ] ] ] } },
{ "type": "Feature", "properties": { "drag_region": "East", "NAME": "Douglas", "NAMELSAD": "Douglas" }, "geometry": { "type": "Polygon", "coordinates": [ [ [ 820344.706967583158985, 4595914.552067699842155 ], [ 865068.031166248489171, 4597167.742643623612821 ], [ 863768.612172409310006, 4591391.574116736650467 ], [ 869868.560334484325722, 4589029.705843897536397 ], [ 866100.854087082552724, 4584979.467193547636271 ], [ 867817.831717873341404, 4579023.485384835861623 ], [ 867057.084709739894606, 4574985.24859162978828 ], [ 833042.150911556673236, 4573764.829021561890841 ], [ 829884.196176725556143, 4578537.346876790747046 ], [ 830982.740479266620241, 4582007.696354171261191 ], [ 826006.296185563434847, 4587394.515337152406573 ], [ 824639.865954197593965, 4592890.829712357372046 ], [ 820344.706967583158985, 4595914.552067699842155 ] ] ] } },
{ "type": "Feature", "properties": { "drag_region": "East", "NAME": "Dodge", "NAMELSAD": "Dodge" }, "geometry": { "type": "Polygon", "coordinates": [ [ [ 770207.851827404345386, 4642388.083192147314548 ], [ 808714.690807783859782, 4643333.828680866397917 ], [ 808608.682780581642874, 4636838.669251673854887 ], [ 809430.721714587882161, 4619201.273611011914909 ], [ 811073.18546589941252, 4614381.181279457174242 ], [ 814418.930797507870011, 4612858.61516510695219 ], [ 816016.485044823377393, 4609661.041658319532871 ], [ 819315.434448546380736, 4609762.178063277155161 ], [ 819465.614949937094934, 4604897.605167842470109 ], [ 807461.415200436720625, 4604537.134458711370826 ], [ 804749.495867137797177, 4604840.303185948170722 ], [ 799232.753715545753948, 4608788.016665017232299 ], [ 789058.645857580937445, 4607650.247904904186726 ], [ 784190.010379455983639, 4610194.428117459639907 ], [ 778219.791080065653659, 4608991.631366263143718 ], [ 770988.174185754731297, 4610244.560048647224903 ], [ 770207.851827404345386, 4642388.083192147314548 ] ] ] } },
{ "type": "Feature", "properties": { "drag_region": "East", "NAME": "Rock", "NAMELSAD": "Rock" }, "geometry": { "type": "Polygon", "coordinates": [ [ [ 488549.893289505329449, 4770832.780798622407019 ], [ 499999.580723972059786, 4769224.141572199761868 ], [ 508249.342179730068892, 4773183.237361802719533 ], [ 510022.003487580746878, 4775273.005700755864382 ], [ 516485.389657844963949, 4776102.813176209107041 ], [ 522952.684702718863264, 4778751.148918275721371 ], [ 523826.180000359658152, 4776363.679987488314509 ], [ 523713.855456812132616, 4737730.465753805823624 ], [ 524599.528695129789412, 4737727.955358488485217 ], [ 524493.099627032410353, 4699192.475052683614194 ], [ 489166.629590100841597, 4699187.204986029304564 ], [ 489467.745944574242458, 4737913.66962365154177 ], [ 488286.081581422477029, 4737827.59400683734566 ], [ 488549.893289505329449, 4770832.780798622407019 ] ] ] } },
{ "type": "Feature", "properties": { "drag_region": "East", "NAME": "Pierce", "NAMELSAD": "Pierce" }, "geometry": { "type": "Polygon", "coordinates": [ [ [ 671059.932090737624094, 4734427.254813243634999 ], [ 709434.887322959839366, 4735249.977584362961352 ], [ 710174.780958977877162, 4696617.59723306633532 ], [ 671588.070891645969823, 4695795.630506293848157 ], [ 671059.932090737624094, 4734427.254813243634999 ] ] ] } },
{ "type": "Feature", "properties": { "drag_region": "Central", "NAME": "Lancaster", "NAMELSAD": "Lancaster" }, "geometry": { "type": "Polygon", "coordinates": [ [ [ 752749.551504382048734, 4460835.073118662461638 ], [ 753052.821341804461554, 4460842.285608628764749 ], [ 752130.190622684778646, 4499467.494315478950739 ], [ 789542.582285507000051, 4500364.403260895982385 ], [ 791219.966610328061506, 4442376.980970205739141 ], [ 753208.757106816046871, 4441475.55235434602946 ], [ 752749.551504382048734, 4460835.073118662461638 ] ] ] } },
{ "type": "Feature", "properties": { "drag_region": "Central", "NAME": "Hamilton", "NAMELSAD": "Hamilton" }, "geometry": { "type": "Polygon", "coordinates": [ [ [ 620095.422576682292856, 4477925.204858707264066 ], [ 631464.636651680921204, 4490806.913446458056569 ], [ 636265.930473063839599, 4493716.597798261791468 ], [ 643724.2040700718062, 4501428.418460292741656 ], [ 653321.444276067311876, 4505550.824853605590761 ], [ 658054.494469064055011, 4512194.53504185192287 ], [ 659064.477762868162245, 4459461.420391829684377 ], [ 620250.30512266792357, 4458948.308364502154291 ], [ 620095.422576682292856, 4477925.204858707264066 ] ] ] } },
{ "type": "Feature", "properties": { "drag_region": "East", "NAME": "Madison", "NAMELSAD": "Madison" }, "geometry": { "type": "Polygon", "coordinates": [ [ [ 671933.673515490489081, 4688990.710308164358139 ], [ 710520.383582822280005, 4689812.677034936845303 ], [ 711255.278895494760945, 4651182.457292704842985 ], [ 672755.411557491868734, 4650460.763560144230723 ], [ 671933.673515490489081, 4688990.710308164358139 ] ] ] } },
{ "type": "Feature", "properties": { "drag_region": "Central", "NAME": "Merrick", "NAMELSAD": "Merrick" }, "geometry": { "type": "Polygon", "coordinates": [ [ [ 619474.655383262434043, 4540370.557501113042235 ], [ 620674.914307833532803, 4540380.523718875832856 ], [ 620494.868030997226015, 4525977.109615142457187 ], [ 635227.279512077337131, 4526114.648491747677326 ], [ 639100.585992762935348, 4529398.729635451920331 ], [ 652323.895746985217556, 4529554.785931312479079 ], [ 652303.283659841050394, 4531176.094309149309993 ], [ 668225.086363484850153, 4531586.779812999069691 ], [ 668384.273009886965156, 4541033.170342185534537 ], [ 677084.713125436683185, 4541264.084722746163607 ], [ 677225.004796192981303, 4532585.107968816533685 ], [ 672138.417330244556069, 4531169.199878808110952 ], [ 663235.073771728086285, 4523215.133231151849031 ], [ 653479.651312826084904, 4509729.429546879604459 ], [ 643882.411106830579229, 4505607.023153566755354 ], [ 636424.137509822612628, 4497895.202491535805166 ], [ 631622.843688439694233, 4494985.518139732070267 ], [ 620253.629613441065885, 4482103.809551981277764 ], [ 619474.655383262434043, 4540370.557501113042235 ] ] ] } },
{ "type": "Feature", "properties": { "drag_region": "East", "NAME": "Boyd", "NAMELSAD": "Boyd" }, "geometry": { "type": "Polygon", "coordinates": [ [ [ 535998.496603187406436, 4811294.939533269032836 ], [ 597437.157570008537732, 4811385.351110215298831 ], [ 600105.928004969493486, 4805773.123144808225334 ], [ 610099.958360604359768, 4800882.816523020155728 ], [ 613048.92915147531312, 4798616.740574189461768 ], [ 613452.844819744233973, 4785168.501175886020064 ], [ 604337.289872498717159, 4786721.284564055502415 ], [ 600526.909865196561441, 4785646.629501820541918 ], [ 590828.920320065692067, 4787022.728844594210386 ], [ 584649.705569231184199, 4790333.719482279382646 ], [ 580250.088779424550012, 4789649.481229355558753 ], [ 576133.69280895171687, 4792307.670515622012317 ], [ 573200.862427707645111, 4791918.416898339986801 ], [ 569675.65658939734567, 4794295.713762359693646 ], [ 565863.150920920539647, 4794098.761610755696893 ], [ 560287.515047046821564, 4799721.8532087309286 ], [ 557943.018737680278718, 4799911.799794098362327 ], [ 552079.564083287958056, 4796192.779171545058489 ], [ 544158.796702502062544, 4793913.109147506766021 ], [ 535640.143069194629788, 4789736.435739615932107 ], [ 535998.496603187406436, 4811294.939533269032836 ] ] ] } },
{ "type": "Feature", "properties": { "drag_region": "Central", "NAME": "Cass", "NAMELSAD": "Cass" }, "geometry": { "type": "Polygon", "coordinates": [ [ [ 797861.521210994105786, 4499624.8576879510656 ], [ 807523.194683467503637, 4499816.551885421387851 ], [ 809835.391679099644534, 4503228.569728960283101 ], [ 812932.633047119365074, 4500746.659883558750153 ], [ 819664.192444317159243, 4498094.948492816649377 ], [ 824719.061653895769268, 4500645.594513749703765 ], [ 827623.610420603887178, 4504178.735895777121186 ], [ 833891.117981176823378, 4506394.623528204858303 ], [ 837864.925488013890572, 4505003.025746616534889 ], [ 846912.052004721597768, 4505416.877016507089138 ], [ 848653.919599172775634, 4498984.919865855947137 ], [ 851440.804285681573674, 4497175.495117599144578 ], [ 850686.606572680757381, 4492945.749794818460941 ], [ 852958.500717638642527, 4488730.326149842701852 ], [ 850959.036019904422574, 4485410.485055177472532 ], [ 850597.973507778951898, 4478616.510473359376192 ], [ 851919.501501562655903, 4475607.993159129284322 ], [ 798608.172612650785595, 4473873.44648368563503 ], [ 797861.521210994105786, 4499624.8576879510656 ] ] ] } },
{ "type": "Feature", "properties": { "drag_region": "West", "NAME": "Perkins", "NAMELSAD": "Perkins" }, "geometry": { "type": "Polygon", "coordinates": [ [ [ 172261.562335429945961, 4534986.62337954621762 ], [ 239885.830787600396434, 4532932.3054333999753 ], [ 239013.704024215781828, 4498979.859605858102441 ], [ 171077.013013762014452, 4501030.968959640711546 ], [ 172261.562335429945961, 4534986.62337954621762 ] ] ] } },
{ "type": "Feature", "properties": { "drag_region": "Central", "NAME": "Nuckolls", "NAMELSAD": "Nuckolls" }, "geometry": { "type": "Polygon", "coordinates": [ [ [ 621838.225389022845775, 4373618.86864314135164 ], [ 621523.030121826333925, 4412140.849937180057168 ], [ 659928.866043124464341, 4412649.75209304317832 ], [ 660442.825000890414231, 4373936.205376931466162 ], [ 621838.225389022845775, 4373618.86864314135164 ] ] ] } },
{ "type": "Feature", "properties": { "drag_region": "Central", "NAME": "Furnas", "NAMELSAD": "Furnas" }, "geometry": { "type": "Polygon", "coordinates": [ [ [ 437154.528991432976909, 4411235.541121298447251 ], [ 485316.424246283015236, 4410833.596659802831709 ], [ 485348.119928106258158, 4372118.883764492347836 ], [ 436938.96563923463691, 4372517.846545648761094 ], [ 437154.528991432976909, 4411235.541121298447251 ] ] ] } },
{ "type": "Feature", "properties": { "drag_region": "East", "NAME": "Dixon", "NAMELSAD": "Dixon" }, "geometry": { "type": "Polygon", "coordinates": [ [ [ 753693.566171913174912, 4722901.288427869789302 ], [ 752403.569738001562655, 4778039.036300053820014 ], [ 755636.573368246201426, 4778020.33737902995199 ], [ 758097.519242670037784, 4773497.980056634172797 ], [ 761584.101457897690125, 4775206.329463823698461 ], [ 769898.248457658337429, 4772076.449594665318727 ], [ 770291.533616051077843, 4768268.19040147960186 ], [ 776476.164463745895773, 4768145.456767320632935 ], [ 779753.623777827830054, 4766706.913295721635222 ], [ 777828.33423465618398, 4761690.191010629758239 ], [ 784187.165893779601902, 4755563.981819018721581 ], [ 784567.171549041173421, 4752519.524878571741283 ], [ 777196.527267524856143, 4752317.510679598897696 ], [ 777675.438544664066285, 4723405.230527076870203 ], [ 753693.566171913174912, 4722901.288427869789302 ] ] ] } },
{ "type": "Feature", "properties": { "drag_region": "Central", "NAME": "Gage", "NAMELSAD": "Gage" }, "geometry": { "type": "Polygon", "coordinates": [ [ [ 754565.657862087711692, 4375439.506294337101281 ], [ 753506.56792840664275, 4433426.832181714475155 ], [ 791517.777431918657385, 4434328.260797574184835 ], [ 793174.531868391204625, 4376440.43297656159848 ], [ 754565.657862087711692, 4375439.506294337101281 ] ] ] } },
{ "type": "Feature", "properties": { "drag_region": "West", "NAME": "Logan", "NAMELSAD": "Logan" }, "geometry": { "type": "Polygon", "coordinates": [ [ [ 309758.368869894940872, 4631082.453104090876877 ], [ 347963.267248384421691, 4630424.947712468914688 ], [ 347406.328212487336714, 4591988.435609760694206 ], [ 308696.701408134482335, 4592650.905995897017419 ], [ 309758.368869894940872, 4631082.453104090876877 ] ] ] } },
{ "type": "Feature", "properties": { "drag_region": "East", "NAME": "Dakota", "NAMELSAD": "Dakota" }, "geometry": { "type": "Polygon", "coordinates": [ [ [ 791264.635772065492347, 4750452.531400207430124 ], [ 793090.0657212639926, 4748498.855108718387783 ], [ 800154.043958700727671, 4749178.91649460978806 ], [ 801712.674163195537403, 4746360.229739787057042 ], [ 806707.825989541132003, 4747177.267839257605374 ], [ 810861.107605364406481, 4746539.725382166914642 ], [ 812170.781677811173722, 4742378.59755199123174 ], [ 809641.88131615286693, 4738099.669232146814466 ], [ 809862.569099688204005, 4730849.594758241437376 ], [ 813200.516398583771661, 4728182.827600392512977 ], [ 814821.791918828501366, 4723649.677545147016644 ], [ 784332.142501394031569, 4722864.512235455214977 ], [ 783893.991490549175069, 4750250.517201234586537 ], [ 791264.635772065492347, 4750452.531400207430124 ] ] ] } },
{ "type": "Feature", "properties": { "drag_region": "Central", "NAME": "Nemaha", "NAMELSAD": "Nemaha" }, "geometry": { "type": "Polygon", "coordinates": [ [ [ 838097.571065164636821, 4437455.990306806750596 ], [ 868203.392971434630454, 4438519.429512701928616 ], [ 869584.208537706639618, 4442296.228524198755622 ], [ 872993.00875752652064, 4440705.73994764406234 ], [ 869190.748136918526143, 4436550.562262710183859 ], [ 869637.935382862342522, 4432746.745388572104275 ], [ 873108.672544213011861, 4429629.989140973426402 ], [ 872944.951126753352582, 4425898.627551932819188 ], [ 877002.157323244959116, 4415545.975596313364804 ], [ 882589.914792488096282, 4413278.079004891216755 ], [ 882403.492215116741136, 4410214.026521236635745 ], [ 882716.208467883989215, 4410035.145956992171705 ], [ 839060.562012039590627, 4408462.310080209746957 ], [ 838097.571065164636821, 4437455.990306806750596 ] ] ] } },
{ "type": "Feature", "properties": { "drag_region": "West", "NAME": "Deuel", "NAMELSAD": "Deuel" }, "geometry": { "type": "Polygon", "coordinates": [ [ [ 114148.12393963674549, 4568906.613610319793224 ], [ 160489.534469994337996, 4567128.206788619980216 ], [ 159934.121692833752604, 4542699.280198306776583 ], [ 112233.429678565531503, 4544619.328068483620882 ], [ 113348.563045016780961, 4549637.48788053356111 ], [ 114148.12393963674549, 4568906.613610319793224 ] ] ] } },
{ "type": "Feature", "properties": { "drag_region": "East", "NAME": "Thurston", "NAMELSAD": "Thurston" }, "geometry": { "type": "Polygon", "coordinates": [ [ [ 776895.780260569532402, 4715276.738644823431969 ], [ 784889.046273133368231, 4715485.622944205068052 ], [ 784848.28600683901459, 4717011.898130947723985 ], [ 815337.935424273484387, 4717797.063440639525652 ], [ 818166.765760965063237, 4712633.59435361251235 ], [ 815551.124010377330706, 4710928.665619342587888 ], [ 816309.782108773710206, 4705605.022748140618205 ], [ 823003.923386072972789, 4700468.715633181855083 ], [ 822959.833757307380438, 4692541.62044817302376 ], [ 819992.130892638117075, 4692352.12414244376123 ], [ 820103.158188687404618, 4688822.62149843107909 ], [ 799889.512952547054738, 4688311.306703711859882 ], [ 799654.799149754573591, 4696514.877476871013641 ], [ 777387.526043341029435, 4696007.906730660237372 ], [ 776895.780260569532402, 4715276.738644823431969 ] ] ] } },
{ "type": "Feature", "properties": { "drag_region": "West", "NAME": "Sheridan", "NAMELSAD": "Sheridan" }, "geometry": { "type": "Polygon", "coordinates": [ [ [ 107646.947447928454494, 4800318.000915777869523 ], [ 165577.076430544519098, 4797849.602647070772946 ], [ 164412.994981488067424, 4774104.343512198887765 ], [ 165881.028886475571198, 4774050.753496658988297 ], [ 164503.459908675198676, 4736080.670974777080119 ], [ 166865.233937810553471, 4735995.663596561178565 ], [ 165489.153298556921072, 4697454.926820403896272 ], [ 168160.802968246396631, 4697360.36114330869168 ], [ 167521.26485106756445, 4687640.529205431230366 ], [ 110424.836598799651256, 4689402.418065319769084 ], [ 110553.430964852072066, 4699241.684396893717349 ], [ 107283.483048535563285, 4699288.704973442479968 ], [ 107702.098994574946119, 4708829.023915279656649 ], [ 107688.102317356941057, 4728712.291811849921942 ], [ 108392.664177098165965, 4737953.593636815436184 ], [ 106325.862455654627411, 4738045.296920256689191 ], [ 108038.934620748710586, 4776399.339581518433988 ], [ 106570.816719449387165, 4776465.284108695574105 ], [ 107646.947447928454494, 4800318.000915777869523 ] ] ] } },
{ "type": "Feature", "properties": { "drag_region": "West", "NAME": "Sioux", "NAMELSAD": "Sioux" }, "geometry": { "type": "Polygon", "coordinates": [ [ [ -25078.876188982510939, 4809742.58944677747786 ], [ 19399.959658174484503, 4807206.240311432629824 ], [ 18403.692210603505373, 4783145.404842413961887 ], [ 20170.658592611784115, 4783146.797584546729922 ], [ 18120.152173345384654, 4744503.692125553265214 ], [ 21073.078312288271263, 4744348.147556128911674 ], [ 19057.554492689261679, 4705801.548719983547926 ], [ 22620.665798367641401, 4705616.76541249640286 ], [ 22123.778207394701894, 4695980.318854502402246 ], [ -31707.153941087774001, 4698767.799602722749114 ], [ -25078.876188982510939, 4809742.58944677747786 ] ] ] } },
{ "type": "Feature", "properties": { "drag_region": "Central", "NAME": "Sarpy", "NAMELSAD": "Sarpy" }, "geometry": { "type": "Polygon", "coordinates": [ [ [ 809298.611087591154501, 4522790.483837517909706 ], [ 843313.544885774375871, 4524010.903407585807145 ], [ 850303.626838669879362, 4522447.038531334139407 ], [ 847049.417049365118146, 4520705.833608884364367 ], [ 848573.72359278309159, 4511878.335790666751564 ], [ 847473.386373080546036, 4508878.102700732648373 ], [ 838426.25985637283884, 4508464.251430842094123 ], [ 834452.452349535888061, 4509855.849212430417538 ], [ 828184.944788962835446, 4507639.961580002680421 ], [ 825280.396022254833952, 4504106.820197975263 ], [ 820225.526812676107511, 4501556.174177042208612 ], [ 813493.967415478313342, 4504207.885567784309387 ], [ 810396.726047458592802, 4506689.795413185842335 ], [ 808760.0578919921536, 4510840.276912682689726 ], [ 811060.377704860875383, 4514538.792819503694773 ], [ 809298.611087591154501, 4522790.483837517909706 ] ] ] } },
{ "type": "Feature", "properties": { "drag_region": "West", "NAME": "Garden", "NAMELSAD": "Garden" }, "geometry": { "type": "Polygon", "coordinates": [ [ [ 113902.846125348136411, 4669084.949931031093001 ], [ 164455.206789800198749, 4667473.570562125183642 ], [ 163397.4497356134234, 4637901.613655946217477 ], [ 170262.951245240634307, 4637659.981422363780439 ], [ 168926.428202416747808, 4599027.484080206602812 ], [ 162927.581531129486393, 4599332.304921435192227 ], [ 162248.420973825268447, 4580064.223055929876864 ], [ 115907.010443467661389, 4581842.629877629689872 ], [ 116709.354754947838956, 4601112.107584206387401 ], [ 114308.315909696291783, 4601212.653904864564538 ], [ 115938.237666138404165, 4639848.210884722881019 ], [ 113550.095750393360504, 4639949.704282249324024 ], [ 112932.296389681476285, 4646475.098089492879808 ], [ 113902.846125348136411, 4669084.949931031093001 ] ] ] } },
{ "type": "Feature", "properties": { "drag_region": "Central", "NAME": "Dundy", "NAMELSAD": "Dundy" }, "geometry": { "type": "Polygon", "coordinates": [ [ [ 251146.302033639862202, 4414179.837504706345499 ], [ 313039.98892103403341, 4412488.908852305263281 ], [ 312028.642705017351545, 4373866.714551012031734 ], [ 249823.832504299993161, 4375744.500976130366325 ], [ 251146.302033639862202, 4414179.837504706345499 ] ] ] } },
{ "type": "Feature", "properties": { "drag_region": "Central", "NAME": "Butler", "NAMELSAD": "Butler" }, "geometry": { "type": "Polygon", "coordinates": [ [ [ 706956.181976939784363, 4543882.556713476777077 ], [ 713848.268404615810141, 4544492.684839337132871 ], [ 716585.220804002601653, 4542734.47561723459512 ], [ 722905.863959630019963, 4542005.844878112897277 ], [ 736319.257518855854869, 4546403.599583545699716 ], [ 745503.698175949743018, 4551391.515762426890433 ], [ 745372.063433078350499, 4544421.607786792330444 ], [ 746301.200008005835116, 4505794.370062403380871 ], [ 707684.580727531341836, 4505065.903474611230195 ], [ 706956.181976939784363, 4543882.556713476777077 ] ] ] } },
{ "type": "Feature", "properties": { "drag_region": "Central", "NAME": "Thayer", "NAMELSAD": "Thayer" }, "geometry": { "type": "Polygon", "coordinates": [ [ [ 664854.257207107613795, 4412184.770798122510314 ], [ 703261.896918832906522, 4412794.702564023435116 ], [ 703973.140005541150458, 4374079.884905891492963 ], [ 665368.216164873563685, 4373471.224082010798156 ], [ 664854.257207107613795, 4412184.770798122510314 ] ] ] } },
{ "type": "Feature", "properties": { "drag_region": "Central", "NAME": "Frontier", "NAMELSAD": "Frontier" }, "geometry": { "type": "Polygon", "coordinates": [ [ [ 381731.248850110801868, 4456387.716070441529155 ], [ 449049.756857161293738, 4455234.571646209806204 ], [ 448726.635873673774768, 4426245.491155317053199 ], [ 438985.176257249258924, 4426360.118464700877666 ], [ 439170.503879954630975, 4416725.33138932287693 ], [ 380944.227149274840485, 4417384.191776546649635 ], [ 381327.419413578289095, 4451434.859126998111606 ], [ 381731.248850110801868, 4456387.716070441529155 ] ] ] } },
{ "type": "Feature", "properties": { "drag_region": "East", "NAME": "Loup", "NAMELSAD": "Loup" }, "geometry": { "type": "Polygon", "coordinates": [ [ [ 486966.647751343203709, 4686915.891051476821303 ], [ 525558.513978475821204, 4686901.583677760325372 ], [ 525459.252960941870697, 4648368.442416871897876 ], [ 486658.513268552080262, 4648477.865555237047374 ], [ 486966.647751343203709, 4686915.891051476821303 ] ] ] } },
{ "type": "Feature", "properties": { "drag_region": "West", "NAME": "Scotts Bluff", "NAMELSAD": "Scotts Bluff" }, "geometry": { "type": "Polygon", "coordinates": [ [ [ -30542.978539267831366, 4680720.39537498075515 ], [ 26553.725858748613973, 4677669.759882340207696 ], [ 25086.350448206547298, 4648856.354976586997509 ], [ 24241.780765376650379, 4644020.920434781350195 ], [ -32535.333220142274513, 4646942.172890570014715 ], [ -30542.978539267831366, 4680720.39537498075515 ] ] ] } },
{ "type": "Feature", "properties": { "drag_region": "West", "NAME": "Grant", "NAMELSAD": "Grant" }, "geometry": { "type": "Polygon", "coordinates": [ [ [ 173362.386262759100646, 4672826.760473506525159 ], [ 178118.545938753522933, 4672657.796825356781483 ], [ 178758.084055932355113, 4682377.628763234242797 ], [ 226832.943537879851647, 4680371.629657258279622 ], [ 225737.357043009833433, 4641643.957431342452765 ], [ 172304.629208572267089, 4643254.803567327558994 ], [ 173362.386262759100646, 4672826.760473506525159 ] ] ] } },
{ "type": "Feature", "properties": { "drag_region": "East", "NAME": "Cedar", "NAMELSAD": "Cedar" }, "geometry": { "type": "Polygon", "coordinates": [ [ [ 706261.111820697202347, 4788899.256332638673484 ], [ 709789.218073179014027, 4788486.524628693237901 ], [ 711800.992811495903879, 4790718.980307352729142 ], [ 716223.129002433619462, 4789562.976589069701731 ], [ 720595.100846319692209, 4790985.526676812209189 ], [ 727975.513397576170973, 4788751.793132754974067 ], [ 728345.6355346289929, 4785132.886108432896435 ], [ 732778.687908201944083, 4783796.580125799402595 ], [ 735196.563975499244407, 4780700.095567915588617 ], [ 744620.329505592468195, 4779769.847481425851583 ], [ 745685.798460728838108, 4734266.591990713961422 ], [ 716714.17181289033033, 4733650.834881517104805 ], [ 716527.358793406398036, 4743380.675123959779739 ], [ 707082.209515351103619, 4743110.14736348297447 ], [ 706261.111820697202347, 4788899.256332638673484 ] ] ] } },
{ "type": "Feature", "properties": { "drag_region": "East", "NAME": "Burt", "NAMELSAD": "Burt" }, "geometry": { "type": "Polygon", "coordinates": [ [ [ 805477.316932698944584, 4680472.861649433150887 ], [ 825690.962168839294463, 4680984.176444152370095 ], [ 825579.934872790006921, 4684513.679088165052235 ], [ 828547.637737459270284, 4684703.175393894314766 ], [ 833081.246352222049609, 4682461.854868450202048 ], [ 831644.668703727424145, 4680887.434659807011485 ], [ 836137.760743399616331, 4679983.469630467705429 ], [ 835934.517688354477286, 4677111.918223604559898 ], [ 840712.149016057839617, 4676697.485322682186961 ], [ 840030.000801346730441, 4670371.740379218012094 ], [ 838278.588113186415285, 4669263.074305969290435 ], [ 843062.895160043146461, 4659968.539618822745979 ], [ 846715.461468402529135, 4657895.908424383960664 ], [ 845970.082553170854226, 4653477.419795587658882 ], [ 843647.050657156272791, 4651488.820680551230907 ], [ 845612.605363615439273, 4646398.274209837429225 ], [ 842381.06328681576997, 4644666.073057021945715 ], [ 815492.134765434777364, 4643818.075307794846594 ], [ 815598.142792636994272, 4650313.234736987389624 ], [ 806344.984737557126209, 4650044.094628905877471 ], [ 805477.316932698944584, 4680472.861649433150887 ] ] ] } },
{ "type": "Feature", "properties": { "drag_region": "Central", "NAME": "Jefferson", "NAMELSAD": "Jefferson" }, "geometry": { "type": "Polygon", "coordinates": [ [ [ 709725.609117166488431, 4373668.160007762722671 ], [ 709014.366030458244495, 4412382.977665894664824 ], [ 747425.662818925804459, 4413094.025190155021846 ], [ 748334.285607885452919, 4374377.53437758795917 ], [ 709725.609117166488431, 4373668.160007762722671 ] ] ] } },
{ "type": "Feature", "properties": { "drag_region": "West", "NAME": "Lincoln", "NAMELSAD": "Lincoln" }, "geometry": { "type": "Polygon", "coordinates": [ [ [ 257307.801822565845214, 4580217.551208623684943 ], [ 343728.3817642981885, 4578372.597339033149183 ], [ 343180.277211512729991, 4539842.955575349740684 ], [ 344085.262905574054457, 4539830.182090615853667 ], [ 343850.299084071302786, 4501393.919374759308994 ], [ 257113.670332963753026, 4502821.621204758994281 ], [ 258111.180234430008568, 4541638.166224635206163 ], [ 256301.094580391305499, 4541685.069508615881205 ], [ 257307.801822565845214, 4580217.551208623684943 ] ] ] } },
{ "type": "Feature", "properties": { "drag_region": "Central", "NAME": "Franklin", "NAMELSAD": "Franklin" }, "geometry": { "type": "Polygon", "coordinates": [ [ [ 536051.556130630313419, 4411653.261245477944613 ], [ 574457.307623230502941, 4411674.204384423792362 ], [ 574576.909736604895443, 4372961.973550708033144 ], [ 535974.02352621476166, 4372941.074128150008619 ], [ 536051.556130630313419, 4411653.261245477944613 ] ] ] } },
{ "type": "Feature", "properties": { "drag_region": "East", "NAME": "Platte", "NAMELSAD": "Platte" }, "geometry": { "type": "Polygon", "coordinates": [ [ [ 675193.769358068704605, 4642223.536230761557817 ], [ 723244.459290418308228, 4643132.687419013120234 ], [ 724050.750088574015535, 4603264.461953805759549 ], [ 721313.797689187107608, 4605022.6711759082973 ], [ 714421.71126151108183, 4604412.543050047941506 ], [ 707574.771066792309284, 4601233.888892579823732 ], [ 701583.976794385467656, 4600366.114291649311781 ], [ 695331.7636201166315, 4597018.759785682894289 ], [ 695219.204553400631994, 4603981.024688167497516 ], [ 686518.764437850913964, 4603750.110307606868446 ], [ 686298.531026105745696, 4618437.78222591150552 ], [ 675818.824940121266991, 4618192.666587312705815 ], [ 675193.769358068704605, 4642223.536230761557817 ] ] ] } },
{ "type": "Feature", "properties": { "drag_region": "West", "NAME": "Morrill", "NAMELSAD": "Morrill" }, "geometry": { "type": "Polygon", "coordinates": [ [ [ 43274.892152014799649, 4673516.411002323031425 ], [ 84594.384662767959526, 4671336.64073377661407 ], [ 100075.528570266003953, 4671131.803624314256012 ], [ 99104.978834599343827, 4648521.951782776042819 ], [ 99722.778195311228046, 4641996.557975532487035 ], [ 102110.920111056271708, 4641895.06457800604403 ], [ 100685.629946244327584, 4608124.648718785494566 ], [ 39487.400904643436661, 4610768.559770008549094 ], [ 40962.947058642836055, 4639867.571554764173925 ], [ 41807.516741472732974, 4644703.006096569821239 ], [ 43274.892152014799649, 4673516.411002323031425 ] ] ] } },
{ "type": "Feature", "properties": { "drag_region": "East", "NAME": "Keya Paha", "NAMELSAD": "Keya Paha" }, "geometry": { "type": "Polygon", "coordinates": [ [ [ 439516.582255507062655, 4813516.840700384229422 ], [ 516461.642530649143737, 4812852.573655301705003 ], [ 516103.288996656425297, 4791294.069861648604274 ], [ 509635.993951782525983, 4788645.734119581989944 ], [ 503172.607781518308911, 4787815.926644128747284 ], [ 501399.946473667630926, 4785726.158305175602436 ], [ 493150.18501790962182, 4781767.06251557264477 ], [ 481700.497583442891482, 4783375.701741995289922 ], [ 478758.162679340748582, 4782922.912670795805752 ], [ 467033.1229711426422, 4785893.920202310197055 ], [ 466464.207748920889571, 4787712.390989775769413 ], [ 457952.627306532987859, 4788186.372445090673864 ], [ 454744.248465375625528, 4790036.669300060719252 ], [ 450629.609808471752331, 4789705.386998594738543 ], [ 444497.791081491392106, 4792265.699232834391296 ], [ 439276.267953781876713, 4796631.506786936894059 ], [ 439516.582255507062655, 4813516.840700384229422 ] ] ] } },
{ "type": "Feature", "properties": { "drag_region": "West", "NAME": "McPherson", "NAMELSAD": "McPherson" }, "geometry": { "type": "Polygon", "coordinates": [ [ [ 239108.233202445087954, 4633995.870839978568256 ], [ 297003.956017050833907, 4632228.548411610536277 ], [ 295942.288555290375371, 4593797.001303416676819 ], [ 238030.865138715191279, 4595365.579115492291749 ], [ 239108.233202445087954, 4633995.870839978568256 ] ] ] } },
{ "type": "Feature", "properties": { "drag_region": "West", "NAME": "Cheyenne", "NAMELSAD": "Cheyenne" }, "geometry": { "type": "Polygon", "coordinates": [ [ [ 37326.033039740897948, 4593167.702772126533091 ], [ 38167.533089511125581, 4597907.616934895515442 ], [ 99365.762131112016505, 4595263.705883672460914 ], [ 99161.130539481848245, 4590398.564763034693897 ], [ 101562.169384733395418, 4590298.018442376516759 ], [ 99960.264178633253323, 4551759.415006013587117 ], [ 98845.130812182003865, 4546741.255193963646889 ], [ 34825.748322483239463, 4549583.18632934987545 ], [ 35381.787590163905406, 4554624.369134682230651 ], [ 37326.033039740897948, 4593167.702772126533091 ] ] ] } },
{ "type": "Feature", "properties": { "drag_region": "West", "NAME": "Banner", "NAMELSAD": "Banner" }, "geometry": { "type": "Polygon", "coordinates": [ [ [ -33328.342107618242153, 4638549.021321829408407 ], [ 23448.771877900682739, 4635627.768866040743887 ], [ 21973.225723901283345, 4606528.757081285119057 ], [ 21131.725674131055712, 4601788.842918516136706 ], [ -35314.417111162925721, 4604675.783181517384946 ], [ -33328.342107618242153, 4638549.021321829408407 ] ] ] } },
{ "type": "Feature", "properties": { "drag_region": "East", "NAME": "Knox", "NAMELSAD": "Knox" }, "geometry": { "type": "Polygon", "coordinates": [ [ [ 627661.231971093919128, 4791128.574323636479676 ], [ 631772.414406494703144, 4790304.905001003295183 ], [ 638849.306363856885582, 4786173.016759199090302 ], [ 640607.378685483708978, 4786381.308317348361015 ], [ 651559.216671027475968, 4778009.029788574203849 ], [ 657128.585241301450878, 4778934.740572998300195 ], [ 660616.552919188397937, 4781745.933608282357454 ], [ 663164.112581494264305, 4788839.951448937878013 ], [ 665495.598271777736954, 4789921.046177900396287 ], [ 671388.517468670150265, 4788000.561861478723586 ], [ 678733.784712012624368, 4787252.571080823428929 ], [ 682823.137901629554108, 4788367.26906728092581 ], [ 695142.108498649555258, 4788482.584916643798351 ], [ 695963.20619330345653, 4742693.475947488099337 ], [ 628360.923780196579173, 4741622.532316989265382 ], [ 627661.231971093919128, 4791128.574323636479676 ] ] ] } },
{ "type": "Feature", "properties": { "drag_region": "Central", "NAME": "Webster", "NAMELSAD": "Webster" }, "geometry": { "type": "Polygon", "coordinates": [ [ [ 578976.415948390960693, 4412134.44126099254936 ], [ 617383.188284047762863, 4412256.31555350869894 ], [ 617698.383551244274713, 4373734.334259469993412 ], [ 579096.018061765469611, 4373422.210427276790142 ], [ 578976.415948390960693, 4412134.44126099254936 ] ] ] } },
{ "type": "Feature", "properties": { "drag_region": "West", "NAME": "Hooker", "NAMELSAD": "Hooker" }, "geometry": { "type": "Polygon", "coordinates": [ [ [ 237049.254192320106085, 4680581.974527306854725 ], [ 284831.63635285012424, 4678910.233818386681378 ], [ 284300.040763406082988, 4640368.533810904249549 ], [ 235953.667697450087871, 4641854.302301391027868 ], [ 237049.254192320106085, 4680581.974527306854725 ] ] ] } },
{ "type": "Feature", "properties": { "drag_region": "West", "NAME": "Keith", "NAMELSAD": "Keith" }, "geometry": { "type": "Polygon", "coordinates": [ [ [ 172052.765993550769053, 4545417.447192224673927 ], [ 173280.664022574172122, 4588923.689927495084703 ], [ 238999.039171938697109, 4586806.613422401249409 ], [ 237992.331929764157394, 4548274.131722393445671 ], [ 239802.417583802860463, 4548227.228438412770629 ], [ 239677.034445721219527, 4543363.129246078431606 ], [ 172052.765993550769053, 4545417.447192224673927 ] ] ] } }
]
}
