{
"type": "FeatureCollection",
"name": "map",
"crs": { "type": "name", "properties": { "name": "urn:ogc:def:crs:EPSG::26918" } },
"features": [
{ "type": "Feature", "properties": { "drag_region": "North", "NAME": "New Castle", "NAMELSAD": "New Castle" }, "geometry": { "type": "Polygon", "coordinates": [ [ [ 417824.893455323821399, 4472740.354480343870819 ], [ 424040.074363490915857, 4480506.857184985652566 ], [ 428673.804200930462684, 4483712.995567881502211 ], [ 434521.665409310720861, 4485388.092607101425529 ], [ 442811.51789108599769, 4484955.928114989772439 ], [ 449858.960902701248415, 4481392.002846285700798 ], [ 450162.266374234866817, 4480532.479227179661393 ], [ 446151.200256297714077, 4477405.600843971595168 ], [ 444583.060270944086369, 4471597.689632696099579 ], [ 441796.768200224207249, 4468561.966123794205487 ], [ 439954.02724975819001, 4469240.08621786441654 ], [ 433130.864026257069781, 4461560.437913841567934 ], [ 433722.030956168135162, 4457837.947984657250345 ], [ 437093.849893053760752, 4454860.364015336148441 ], [ 437373.095302928006276, 4450186.751023855060339 ], [ 434887.490976524946745, 4447532.982042510062456 ], [ 434861.940476989140734, 4443624.058114633895457 ], [ 439155.245278579648584, 4438639.39953729044646 ], [ 441286.081538273370825, 4433001.847813487052917 ], [ 437877.285823897807859, 4431782.543181766755879 ], [ 435061.30900609708624, 4426747.207769410684705 ], [ 428238.669505649828352, 4424792.17291172593832 ], [ 419886.918408792931587, 4425525.383480815216899 ], [ 419344.104254265257623, 4434492.390836213715374 ], [ 417752.692034929583315, 4464540.794228642247617 ], [ 417824.893455323821399, 4472740.354480343870819 ] ] ] } },
{ "type": "Feature", "properties": { "drag_region": "Central", "NAME": "Kent", "NAMELSAD": "Kent" }, "geometry": { "type": "Polygon", "coordinates": [ [ [ 397291.963533278903924, 4417380.448137616738677 ], [ 405643.714630135800689, 4416647.237568527460098 ], [ 412466.354130583000369, 4418602.272426212206483 ], [ 415282.330948383780196, 4423637.607838568277657 ], [ 418691.126662759343162, 4424856.912470288574696 ], [ 425156.128909835475497, 4419007.14848421793431 ], [ 428221.607485492015257, 4412509.924639591015875 ], [ 429126.767876914120279, 4406976.421375662088394 ], [ 427562.162482476560399, 4403646.565957924351096 ], [ 428129.012003398034722, 4391631.802282524295151 ], [ 433079.871314945630729, 4387035.450955688022077 ], [ 435846.004789494676515, 4378254.909089685417712 ], [ 429943.425803083693609, 4379993.339783260598779 ], [ 428056.552730473107658, 4375234.844147109426558 ], [ 420891.24893676827196, 4373649.047856464982033 ], [ 417748.540612259414047, 4368327.742592502385378 ], [ 414620.246379156946205, 4366058.21468557883054 ], [ 400285.524950157152489, 4365586.505501219071448 ], [ 398389.308971297345124, 4400304.978596570901573 ], [ 397554.37984080798924, 4411752.972097285091877 ], [ 397291.963533278903924, 4417380.448137616738677 ] ] ] } },
{ "type": "Feature", "properties": { "drag_region": "South", "NAME": "Sussex", "NAMELSAD": "Sussex" }, "geometry": { "type": "Polygon", "coordinates": [ [ [ 456352.915414055460133, 4223662.077499626204371 ], [ 470687.636843055253848, 4224133.786683985963464 ], [ 473815.931076157721691, 4226403.314590909518301 ], [ 476958.639400666521396, 4231724.619854872114956 ], [ 484123.943194371415302, 4233310.416145516559482 ], [ 486010.816266981943045, 4238068.911781667731702 ], [ 491913.395253392984159, 4236330.481088092550635 ], [ 492523.018155978410505, 4232610.505241264589131 ], [ 502456.470693196111824, 4220858.008592965081334 ], [ 507438.776360949093942, 4218084.68162100110203 ], [ 510558.751564926467836, 4220368.611831152811646 ], [ 511802.296708242269233, 4216935.599691644310951 ], [ 513352.56662832328584, 4204637.266039348207414 ], [ 514588.877778980997391, 4181377.537993243895471 ], [ 489220.894253405800555, 4181526.826061060652137 ], [ 458534.90855321334675, 4182557.048103516921401 ], [ 457993.47725740482565, 4193714.738265715539455 ], [ 457431.921694270509761, 4202012.875056888908148 ], [ 456352.915414055460133, 4223662.077499626204371 ] ] ] } }
]
}
