{
"type": "FeatureCollection",
"name": "map",
"crs": { "type": "name", "properties": { "name": "urn:ogc:def:crs:EPSG::32619" } },
"features": [
{ "type": "Feature", "properties": { "drag_region": "North", "NAME": "Aroostook", "NAMELSAD": "Aroostook" }, "geometry": { "type": "Polygon", "coordinates": [ [ [ 646149.905200743349269, 5238354.593809158541262 ], [ 610728.188111444469541, 5229526.522235620766878 ], [ 611015.170167437521741, 5228765.588135323487222 ], [ 598998.392796047381125, 5225897.739200782030821 ], [ 597313.996233041048981, 5226458.257871629670262 ], [ 597640.112112596048974, 5259008.205691419541836 ], [ 596669.217431501951069, 5278091.550774928182364 ], [ 596401.075541011174209, 5315794.616897904314101 ], [ 576528.588077326770872, 5315685.332083124667406 ], [ 576523.051342799211852, 5317117.140265397727489 ], [ 566864.86056847916916, 5317182.910394202917814 ], [ 566820.185366343474016, 5336751.291532757692039 ], [ 497784.732368215394672, 5337178.546973295509815 ], [ 474681.498058682656847, 5337433.721514515578747 ], [ 476777.031187937944196, 5350868.557240835390985 ], [ 536023.223777129780501, 5435374.848744857124984 ], [ 539539.450235220370814, 5435079.303039090707898 ], [ 546840.29942754667718, 5431439.163898894563317 ], [ 549818.319600573857315, 5431818.680197678506374 ], [ 549002.476284840493463, 5426281.862548955716193 ], [ 549264.903452159953304, 5412820.485296852886677 ], [ 550350.404883647686802, 5411101.467887380160391 ], [ 560410.075725115835667, 5404136.373497068881989 ], [ 567199.399371840409003, 5408253.893746030516922 ], [ 574255.33467730646953, 5411139.131445443257689 ], [ 581860.507792571559548, 5411362.342750184237957 ], [ 584821.738190568285063, 5416342.060813182033598 ], [ 592956.891287920880131, 5417441.785539451986551 ], [ 599749.98526063573081, 5416346.056973425671458 ], [ 599703.032668304047547, 5422265.134743326343596 ], [ 604022.229233257006854, 5424496.960103571414948 ], [ 610803.826479037059471, 5423986.833713656291366 ], [ 617075.722892493708059, 5420614.520618846639991 ], [ 618194.413337777368724, 5417571.433431109413505 ], [ 627231.028465539333411, 5411185.495110026560724 ], [ 637189.922897859243676, 5398715.019163209944963 ], [ 637210.253594821086153, 5397283.046176970936358 ], [ 644910.151922739460133, 5392527.514700701460242 ], [ 645711.968371899100021, 5340501.777769967913628 ], [ 647556.226133199292235, 5274366.583441187627614 ], [ 647381.893194573000073, 5267585.641643948853016 ], [ 649930.665421832236461, 5264761.030751958489418 ], [ 645811.409465121920221, 5260974.639843814074993 ], [ 649814.794999977224506, 5254353.212863394059241 ], [ 645681.141240439028479, 5251044.279361988417804 ], [ 646149.905200743349269, 5238354.593809158541262 ] ] ] } },
{ "type": "Feature", "properties": { "drag_region": "Central", "NAME": "Washington", "NAMELSAD": "Washington" }, "geometry": { "type": "Polygon", "coordinates": [ [ [ 691899.812733545084484, 4958159.343609839677811 ], [ 700889.88602149952203, 4959989.160540849901736 ], [ 699359.894747810089029, 4969418.951413409784436 ], [ 691953.387056131730787, 5001208.481506024487317 ], [ 710907.563815507804975, 5005949.197130410000682 ], [ 717368.563496962888166, 5004044.282912715338171 ], [ 718176.661985698738135, 5005966.55870624538511 ], [ 721061.929829404805787, 5000572.058571235276759 ], [ 726424.011520641273819, 4997989.902213440276682 ], [ 734861.779893576866016, 4995946.381994982250035 ], [ 738746.510044530965388, 4997834.350223704241216 ], [ 741102.338135564350523, 4991960.829316805116832 ], [ 741487.955745151499286, 4986621.777455710805953 ], [ 737828.014213299844414, 4987314.453878411091864 ], [ 734783.034737739362754, 4985156.527365759946406 ], [ 736869.290266492869705, 4978703.663509905338287 ], [ 741479.55214252427686, 4972777.81421276461333 ], [ 739084.223239045124501, 4965761.827174891717732 ], [ 736344.245878300978802, 4961795.553722442127764 ], [ 743037.825064722215757, 4950849.934125225059688 ], [ 743081.158844723016955, 4948654.967624800279737 ], [ 748237.397506346926093, 4944939.915071326307952 ], [ 751850.538628210779279, 4947688.417963840067387 ], [ 752039.779521763208322, 4952084.312963487580419 ], [ 757177.93309746903833, 4949330.798346604220569 ], [ 762544.098916532355361, 4949164.4777657603845 ], [ 766336.30680252762977, 4943904.94314585160464 ], [ 768145.299776547006331, 4939077.715134838595986 ], [ 765915.951549221528694, 4937688.695378679782152 ], [ 768814.421521350275725, 4934701.238103470765054 ], [ 772433.725271632894874, 4925430.317618073895574 ], [ 776771.237482196651399, 4921908.11937918420881 ], [ 777334.455323728034273, 4910654.576205890625715 ], [ 774044.522991238045506, 4905799.517956867814064 ], [ 771199.655809496878646, 4905922.021907862275839 ], [ 770135.818708394886926, 4902841.366193194873631 ], [ 761282.416065092780627, 4891849.534385775215924 ], [ 754501.658255254733376, 4889315.828065572306514 ], [ 755685.354077028925531, 4887240.65960521157831 ], [ 751428.655047751031816, 4886387.631799176335335 ], [ 753054.009375659981743, 4890430.988379851914942 ], [ 751746.86403709964361, 4898518.442753586918116 ], [ 744125.998781665228307, 4895500.753960331901908 ], [ 747650.691912244539708, 4890033.799962476827204 ], [ 744314.510499708354473, 4885862.819733179174364 ], [ 741157.174263483262621, 4887042.850665187463164 ], [ 737556.732969078700989, 4881438.720978300087154 ], [ 733820.072273875004612, 4883088.941750803031027 ], [ 730990.133895863662474, 4881893.444229079410434 ], [ 731618.831935631576926, 4878563.602015151642263 ], [ 736251.519168249680661, 4874828.337684605270624 ], [ 730067.512491661240347, 4869277.81159851886332 ], [ 726281.48394993680995, 4873604.231977373361588 ], [ 724479.639391832519323, 4879014.974774785339832 ], [ 720787.631886220304295, 4878000.831993503496051 ], [ 719989.069540886092, 4874361.237579008564353 ], [ 717701.731128324288875, 4874611.99226422701031 ], [ 715619.349941543419845, 4880211.535588533617556 ], [ 713710.998219063738361, 4874265.506649117916822 ], [ 711161.892339330748655, 4872892.178183148615062 ], [ 708977.400569400051609, 4865798.558408263139427 ], [ 706952.425385362701491, 4867583.871109358966351 ], [ 705299.997076920815744, 4862980.403127502650023 ], [ 704103.459328218130395, 4866972.843392279930413 ], [ 700697.153684900724329, 4865210.71600257512182 ], [ 698616.232197502395138, 4871674.236867691390216 ], [ 695891.762152016744949, 4884524.911421409808099 ], [ 697597.663583290879615, 4884832.02888414170593 ], [ 695774.263925202772953, 4894258.230006353929639 ], [ 694355.276838661753573, 4893954.926598425023258 ], [ 688342.047734046238475, 4923281.620281826704741 ], [ 697946.619120638468303, 4925303.666840313002467 ], [ 694581.306268956861459, 4946069.438804185017943 ], [ 691899.812733545084484, 4958159.343609839677811 ] ] ] } },
{ "type": "Feature", "properties": { "drag_region": "South", "NAME": "York", "NAMELSAD": "York" }, "geometry": { "type": "Polygon", "coordinates": [ [ [ 244893.501788538589608, 4687633.692545488476753 ], [ 247185.663111234200187, 4686815.308400223962963 ], [ 253016.276788155722897, 4689066.432104771956801 ], [ 261407.283268655359279, 4689739.464081383310258 ], [ 262797.716054168704432, 4687227.788959526456892 ], [ 268313.816406381258275, 4688544.227714842185378 ], [ 271740.256057588208932, 4686565.842196062207222 ], [ 272534.703736088180449, 4682922.941357396543026 ], [ 271258.667032381112222, 4676935.066979772411287 ], [ 277592.324801566719543, 4675284.337485702708364 ], [ 280249.220778872084338, 4678097.606865284964442 ], [ 287340.751596397545654, 4670143.073927904479206 ], [ 284373.787706826871727, 4666187.309707444161177 ], [ 295541.970206121506635, 4658074.992462964728475 ], [ 292860.437802999687847, 4653824.612341189756989 ], [ 294496.971147195668891, 4647403.639555733650923 ], [ 292104.702628254075535, 4643339.609560681506991 ], [ 289173.728508738975506, 4641957.673011294566095 ], [ 289992.375021260522772, 4638794.430055995471776 ], [ 285880.295923503581434, 4636575.088708399794996 ], [ 281814.026282157108653, 4637029.533390512689948 ], [ 278860.370515267073642, 4634697.934326035901904 ], [ 275480.809774586581625, 4625408.650352202355862 ], [ 276903.838174270698801, 4623568.38937103189528 ], [ 272674.508247592777479, 4616014.233157270587981 ], [ 272925.718214804830495, 4613909.731394615024328 ], [ 268697.938090260897297, 4606930.339444946497679 ], [ 266042.665690203954, 4605743.05003129132092 ], [ 256842.705248918558937, 4612999.174893411807716 ], [ 256125.175304098345805, 4620268.868479708209634 ], [ 257961.806304838159122, 4624237.786079794168472 ], [ 246296.08638925361447, 4636718.560581784695387 ], [ 243797.771642400301062, 4641836.963930110447109 ], [ 246350.383698032877874, 4651418.06513690482825 ], [ 246255.831609776127152, 4659725.44780411850661 ], [ 245462.8873998572235, 4662989.95696032512933 ], [ 244893.501788538589608, 4687633.692545488476753 ] ] ] } },
{ "type": "Feature", "properties": { "drag_region": "Central", "NAME": "Hancock", "NAMELSAD": "Hancock" }, "geometry": { "type": "MultiPolygon", "coordinates": [ [ [ [ 599879.944240139215253, 4870915.594797141849995 ], [ 605576.877153991372325, 4868354.466253554448485 ], [ 609819.467948938254267, 4875144.477332866750658 ], [ 613239.23449044348672, 4873154.406594468280673 ], [ 615778.945337265729904, 4877269.312850818037987 ], [ 629117.813525890931487, 4879827.409752554260194 ], [ 624707.794530024984851, 4904038.66877372469753 ], [ 634598.242920162971132, 4905920.601031685248017 ], [ 632829.641419892548583, 4915450.856667670421302 ], [ 642700.112777546746656, 4917345.541798698715866 ], [ 640041.569766374770552, 4930874.655222732573748 ], [ 659445.405559285543859, 4934508.10152258630842 ], [ 662126.899094697320834, 4922418.196716931648552 ], [ 665492.211946378927678, 4901652.424753059633076 ], [ 655887.64055978669785, 4899630.37819457333535 ], [ 661900.869664402212948, 4870303.684511171653867 ], [ 663319.856750943232328, 4870606.987919100560248 ], [ 665143.25640903133899, 4861180.786796888336539 ], [ 663437.354977757204324, 4860873.669334156438708 ], [ 666161.825023242854513, 4848022.994780438020825 ], [ 668242.746510641183704, 4841559.473915321752429 ], [ 665995.659703430486843, 4838381.890295340679586 ], [ 664534.879300360800698, 4840940.728414423763752 ], [ 661207.526364669553004, 4832121.268903229385614 ], [ 656588.256936731282622, 4835791.08045363612473 ], [ 656550.738723881775513, 4839226.218759268522263 ], [ 653713.229763966519386, 4837191.783810169436038 ], [ 650559.304255597176962, 4838018.35321203712374 ], [ 651194.621108611579984, 4831726.37194933090359 ], [ 646679.284706698730588, 4824907.066112399101257 ], [ 649861.510275158798322, 4821788.542077478952706 ], [ 639842.788742441101931, 4820170.76646123174578 ], [ 633226.865270630922168, 4823172.642048666253686 ], [ 628574.581699308939278, 4833350.554564625024796 ], [ 630272.111244705622084, 4836129.328434216789901 ], [ 636543.367745730327442, 4838752.053391222842038 ], [ 633938.540323488647118, 4843026.289222497493029 ], [ 630247.782305659377016, 4839659.884638377465308 ], [ 630790.108585827983916, 4843862.374809460714459 ], [ 627935.602204353315756, 4843556.784745370969176 ], [ 628263.991822739946656, 4837070.047062821686268 ], [ 626834.316651618806645, 4837060.791626923717558 ], [ 626795.431515043252148, 4843167.720142500475049 ], [ 619967.821360322879627, 4837784.088172641582787 ], [ 621415.800571151776239, 4834452.135237366892397 ], [ 619721.115969237056561, 4830339.828811330720782 ], [ 623765.84659295831807, 4823969.08712194301188 ], [ 622930.957644198555499, 4819670.288130022585392 ], [ 616371.707371203810908, 4812288.670015902258456 ], [ 618960.21793471777346, 4811251.799338725395501 ], [ 615532.565881401766092, 4807513.849488125182688 ], [ 612656.762024686671793, 4808360.035817241296172 ], [ 607757.331149853183888, 4813398.628082965500653 ], [ 606589.667397396406159, 4819501.504659703932703 ], [ 610871.165777752059512, 4824383.182635740377009 ], [ 605416.201125686289743, 4828180.945367708802223 ], [ 607125.837552000069991, 4830667.34786962904036 ], [ 604260.964228429016657, 4831612.615137736313045 ], [ 599114.157778003951535, 4829595.900234948843718 ], [ 599377.152894810191356, 4840378.962360798381269 ], [ 602509.685700589441694, 4844585.034634306095541 ], [ 602782.460692238411866, 4849356.882572165690362 ], [ 601060.623049792135134, 4853264.821289194747806 ], [ 600192.694837637245655, 4858606.493545486591756 ], [ 597333.277230924111791, 4863753.461972637102008 ], [ 599879.944240139215253, 4870915.594797141849995 ] ] ], [ [ [ 635569.640255040139891, 4816605.977929754182696 ], [ 639579.77681389497593, 4817305.860778356902301 ], [ 637598.728455369942822, 4813949.97295291069895 ], [ 635569.640255040139891, 4816605.977929754182696 ] ] ], [ [ [ 625266.292811523308046, 4812813.805349566042423 ], [ 627224.673028498422354, 4820745.954922389239073 ], [ 628966.146913019940257, 4817512.973445527255535 ], [ 634454.410735911340453, 4812303.534170930273831 ], [ 630178.379118804470636, 4807979.034666312858462 ], [ 628720.938309287652373, 4811213.556491069495678 ], [ 625266.292811523308046, 4812813.805349566042423 ] ] ], [ [ [ 622852.621293344651349, 4833315.162552522495389 ], [ 623687.347701631719247, 4837327.793127720244229 ], [ 626875.589939241763204, 4830572.244217923842371 ], [ 622852.621293344651349, 4833315.162552522495389 ] ] ], [ [ [ 597985.382574446266517, 4821196.756734372116625 ], [ 601997.628789093345404, 4821396.580815020017326 ], [ 602867.944686822942458, 4817486.705352230928838 ], [ 597985.382574446266517, 4821196.756734372116625 ] ] ] ] } },
{ "type": "Feature", "properties": { "drag_region": "Central", "NAME": "Waldo", "NAMELSAD": "Waldo" }, "geometry": { "type": "MultiPolygon", "coordinates": [ [ [ [ 502742.220139978919178, 4858197.526956149376929 ], [ 507297.493297205772251, 4859126.973436661995947 ], [ 509600.010058172163554, 4864936.763232036493719 ], [ 513007.61843633314129, 4864539.757992180064321 ], [ 514412.55740674759727, 4860621.442895706743002 ], [ 524082.509259310201742, 4862212.26664375513792 ], [ 525766.70665538625326, 4852761.111786532215774 ], [ 553078.984862724202685, 4859151.295449590310454 ], [ 554789.634550464921631, 4857150.987898110412061 ], [ 552242.967541249818169, 4849988.855073605664074 ], [ 555102.385147962952033, 4844841.886646455153823 ], [ 555970.313360117841512, 4839500.214390163309872 ], [ 553703.013526108115911, 4832529.259704225696623 ], [ 549711.234825585968792, 4828705.345573504455388 ], [ 546565.547127865836956, 4831850.423044946976006 ], [ 544568.711992327007465, 4828795.296996142715216 ], [ 540283.396618884289637, 4828412.155593972653151 ], [ 544288.090805799816735, 4820684.374171981588006 ], [ 543432.217282390454784, 4816103.759384969249368 ], [ 539997.218426260631531, 4813908.333028957247734 ], [ 537991.125752942753024, 4808851.52856283262372 ], [ 530541.521749788080342, 4809526.211708991788328 ], [ 518833.348148178542033, 4821672.2956004999578 ], [ 512515.039575476199389, 4815493.656933278776705 ], [ 508239.609162636566907, 4819330.020964024588466 ], [ 507659.318616257980466, 4817710.713379195891321 ], [ 499942.525822742492892, 4819375.886119082570076 ], [ 504879.313217768911272, 4832802.040180414915085 ], [ 508587.318420062540099, 4832019.570809710770845 ], [ 510630.506729867076501, 4841743.240661258809268 ], [ 507212.433193015283905, 4842427.702918260358274 ], [ 508970.896102467901073, 4852343.311621217988431 ], [ 503566.744412240339443, 4853135.098314257338643 ], [ 505005.459268155624159, 4855989.938137549906969 ], [ 502742.220139978919178, 4858197.526956149376929 ] ] ], [ [ [ 542862.548989288508892, 4809137.943472259677947 ], [ 546581.365311336703598, 4815628.972598274238408 ], [ 547147.410028064623475, 4821736.405371690168977 ], [ 549717.911634979653172, 4824125.151843603700399 ], [ 551437.536054416792467, 4821646.952538027428091 ], [ 548867.945921636768617, 4818303.34346407931298 ], [ 549158.792752275126986, 4814868.63686999771744 ], [ 546875.199455329333432, 4808186.613822723738849 ], [ 544010.89897238148842, 4805417.212801916524768 ], [ 542862.548989288508892, 4809137.943472259677947 ] ] ] ] } },
{ "type": "Feature", "properties": { "drag_region": "North", "NAME": "Somerset", "NAMELSAD": "Somerset" }, "geometry": { "type": "Polygon", "coordinates": [ [ [ 339807.621467147080693, 5126978.015955812297761 ], [ 342042.484538479475304, 5126839.593416586518288 ], [ 346308.208679197879974, 5130674.263985868543386 ], [ 353076.902937884442508, 5134181.447382842190564 ], [ 350683.728569467784837, 5141001.890115648508072 ], [ 356647.415824456315022, 5147200.077524867840111 ], [ 363124.4420367263956, 5151390.703222746029496 ], [ 364599.967334311455488, 5156713.827311966568232 ], [ 362694.806774343422148, 5159416.936472052708268 ], [ 358801.266762228275184, 5159480.026916455477476 ], [ 358905.379193638684228, 5165779.492175660096109 ], [ 361741.992067761952057, 5169361.173554395325482 ], [ 359542.681957341032103, 5170733.586928276345134 ], [ 363783.558056673209649, 5175534.317811168730259 ], [ 365238.837988288607448, 5179903.213889310136437 ], [ 361149.36319623386953, 5184169.153678662143648 ], [ 365752.001392486912664, 5195075.47479869518429 ], [ 367990.107951332232915, 5196759.567634053528309 ], [ 367767.57353512494592, 5200295.493354693986475 ], [ 372508.262917314539663, 5203280.103231063112617 ], [ 376452.068511753517669, 5208857.017153855413198 ], [ 379496.811523763753939, 5209579.301269083283842 ], [ 382481.159447629062925, 5227011.287855925038457 ], [ 405584.39375716180075, 5226756.113314704969525 ], [ 405402.445458322647028, 5206805.984496927820146 ], [ 404574.608971256238874, 5206813.57959396392107 ], [ 404425.386122091207653, 5160422.224356723949313 ], [ 407768.461231630353723, 5161156.228032051585615 ], [ 410439.845550475991331, 5147770.530033834278584 ], [ 407642.287720214982983, 5146457.569960496388376 ], [ 406561.039526382170152, 5150285.028450538404286 ], [ 403494.909215156454593, 5150026.284675905480981 ], [ 405972.800398964842316, 5146758.466295114718378 ], [ 404207.850803516688757, 5136560.971737726591527 ], [ 400029.509988475183491, 5137459.470420162193477 ], [ 399666.139286053192336, 5128872.361870961263776 ], [ 403285.069224673730787, 5127310.721245338208973 ], [ 406030.998200704867486, 5121654.524487663060427 ], [ 403730.935423350951169, 5114898.268811009824276 ], [ 399783.695933943905402, 5112262.922884557396173 ], [ 409190.030975363741163, 5062930.14244189299643 ], [ 411938.741999813471921, 5053078.41609201580286 ], [ 420150.714697833755054, 5054547.802461767569184 ], [ 421301.888126816484146, 5057785.361800080165267 ], [ 432898.690316896128934, 5059823.592609180137515 ], [ 438447.232061563932803, 5030504.444978234358132 ], [ 439550.448335865570698, 5020767.072958866134286 ], [ 434999.277044863381889, 5020020.254902149550617 ], [ 433594.338074448925909, 5023938.569998622871935 ], [ 430186.729696287889965, 5024335.575238479301333 ], [ 427884.212935321498662, 5018525.785443104803562 ], [ 423328.93977809464559, 5017596.338962592184544 ], [ 422493.871662873367313, 5020654.971989898011088 ], [ 411107.067681636835914, 5018633.16625511739403 ], [ 411082.090227742679417, 5015388.700809181667864 ], [ 414740.51831672625849, 5009731.232038276270032 ], [ 412711.15011645166669, 5004879.101840974763036 ], [ 399065.654346461233217, 5008430.28987804427743 ], [ 397893.051093059708364, 5005005.991413164883852 ], [ 393099.566501830529887, 5009921.452713287435472 ], [ 387106.788649435096886, 5008841.685098914429545 ], [ 384635.826803194300737, 5016696.214550807140768 ], [ 381786.601746195112355, 5016348.691526856273413 ], [ 379204.793573605245911, 5037091.772028606384993 ], [ 371527.477399398048874, 5035666.852084192447364 ], [ 369969.200185625581071, 5045806.219025921076536 ], [ 373093.322075052245054, 5046430.767738786526024 ], [ 369699.124787833250593, 5066522.861642175354064 ], [ 358941.137196314462926, 5064681.535656998865306 ], [ 357628.598324737104122, 5070812.002559387125075 ], [ 349408.173645128088538, 5068659.815182623453438 ], [ 342276.593698016309645, 5109649.792730088345706 ], [ 343121.25115954951616, 5109824.832528653554618 ], [ 339807.621467147080693, 5126978.015955812297761 ] ] ] } },
{ "type": "Feature", "properties": { "drag_region": "South", "NAME": "Sagadahoc", "NAMELSAD": "Sagadahoc" }, "geometry": { "type": "Polygon", "coordinates": [ [ [ 375785.066486831812654, 4768151.923907327465713 ], [ 384379.276472838944755, 4766144.115029005333781 ], [ 387895.549863866122905, 4772786.6345643280074 ], [ 395054.436937637627125, 4771094.012352211400867 ], [ 395614.455470834393054, 4769562.04249831289053 ], [ 392927.318256328930147, 4758804.33417802490294 ], [ 390896.459923477028497, 4757011.025323623791337 ], [ 400083.281098621024285, 4754827.448779517784715 ], [ 398321.86516446218593, 4750834.921268003061414 ], [ 399431.879147259285673, 4745958.887884107418358 ], [ 396517.237554041435942, 4742263.056389331817627 ], [ 399912.111171482421923, 4734599.948106473311782 ], [ 395501.345822040981147, 4725669.333033639937639 ], [ 388828.294618908839766, 4723156.972065760754049 ], [ 387364.058811800787225, 4721358.915506495162845 ], [ 386848.081471749173943, 4727375.714393741451204 ], [ 384846.971162757487036, 4729400.65176404081285 ], [ 385801.268879200855736, 4737692.217557963915169 ], [ 384087.932920514547732, 4739332.758755930699408 ], [ 387351.56162655405933, 4748077.086568249389529 ], [ 385921.499501719081309, 4749046.326486712321639 ], [ 381260.818074976035859, 4744421.520397935993969 ], [ 377518.781759929202963, 4744846.515172597020864 ], [ 373280.827501712657977, 4751673.518946781754494 ], [ 371862.057455842907075, 4753313.735056437551975 ], [ 375785.066486831812654, 4768151.923907327465713 ] ] ] } },
{ "type": "Feature", "properties": { "drag_region": "South", "NAME": "Androscoggin", "NAMELSAD": "Androscoggin" }, "geometry": { "type": "Polygon", "coordinates": [ [ [ 333388.028674073051661, 4822074.653989001177251 ], [ 339160.918475302984007, 4826091.404237192124128 ], [ 344884.432493458734825, 4827059.665537130087614 ], [ 347013.599844628712162, 4815577.929432333447039 ], [ 344420.636235242011026, 4814181.717479268088937 ], [ 348889.700924178003334, 4806009.332767457701266 ], [ 348755.903059720410965, 4795799.546355249360204 ], [ 355317.03773864347022, 4792853.969409762881696 ], [ 352665.957473163027316, 4787351.494033771567047 ], [ 354380.632158819236793, 4786662.32845993898809 ], [ 350457.623127830331214, 4771824.139609049074352 ], [ 351876.393173700082116, 4770183.92349939327687 ], [ 348061.503978684195317, 4764697.835358178243041 ], [ 344864.963194786105305, 4762736.345073443837464 ], [ 338585.151568074477836, 4767023.456143748015165 ], [ 329241.511049453518353, 4777282.16345994733274 ], [ 325409.746781922061928, 4771713.453582220710814 ], [ 322250.023935556411743, 4772148.19026617333293 ], [ 316001.969501441693865, 4776934.239884256385267 ], [ 315771.10414512141142, 4780088.136347504332662 ], [ 328116.106593941687606, 4796579.477838638238609 ], [ 328971.748001699801534, 4796279.307984389364719 ], [ 333825.011743208160624, 4813382.466054272837937 ], [ 333388.028674073051661, 4822074.653989001177251 ] ] ] } },
{ "type": "Feature", "properties": { "drag_region": "South", "NAME": "Oxford", "NAMELSAD": "Oxford" }, "geometry": { "type": "Polygon", "coordinates": [ [ [ 265353.463133310258854, 4937702.446823251433671 ], [ 268948.055628988659009, 4909073.378319037146866 ], [ 265543.688676487421617, 4908671.697995017282665 ], [ 266738.951523129595444, 4898810.715038009919226 ], [ 269079.930576452112291, 4889211.612470515072346 ], [ 269104.1429344524513, 4877276.997969342395663 ], [ 281465.233468148100656, 4884084.613570201210678 ], [ 289351.31427404639544, 4865222.877615657635033 ], [ 286184.930104339960963, 4863468.569889090023935 ], [ 307473.1107159901876, 4858517.649237707257271 ], [ 307360.913131909386721, 4851360.901392828673124 ], [ 309640.522968945791945, 4851134.693787488155067 ], [ 310706.725757691310719, 4846155.350018926896155 ], [ 307820.106816175102722, 4844195.315245089121163 ], [ 308257.089885310153477, 4835503.127310360781848 ], [ 303403.826143801852595, 4818399.969240477308631 ], [ 302548.184736043680459, 4818700.13909472618252 ], [ 290203.182287223404273, 4802208.797603592276573 ], [ 290434.047643543744925, 4799054.901140344329178 ], [ 288152.339861911954358, 4800146.235497301444411 ], [ 285489.196530425280798, 4796186.72658010199666 ], [ 281230.272596052556764, 4799226.762555420398712 ], [ 280518.228926915558986, 4806972.250273942947388 ], [ 282289.715757057478186, 4809419.660928539931774 ], [ 279234.511428672354668, 4814729.260244954377413 ], [ 263222.173119214421604, 4804659.694859628565609 ], [ 260393.415342277556192, 4806727.691167259588838 ], [ 261141.882707327778917, 4801651.198580316267908 ], [ 265432.012111492513213, 4800506.298043523915112 ], [ 271576.159495012077969, 4791593.376138780266047 ], [ 267990.613463439920451, 4785559.562082638032734 ], [ 269095.186548017722089, 4783245.191755031235516 ], [ 264716.355582406802569, 4780857.105238636024296 ], [ 265752.828562168113422, 4775393.570993067696691 ], [ 257361.82208166847704, 4774720.539016456343234 ], [ 251531.208404746954329, 4772469.415311908349395 ], [ 249239.04708205134375, 4773287.799457172863185 ], [ 248841.942498339049052, 4828098.750413958914578 ], [ 248145.133989007619675, 4869268.356751361861825 ], [ 245734.973921711789444, 4941616.994183191098273 ], [ 251679.664740588050336, 4942898.404146194458008 ], [ 251758.237906338705216, 4946047.779812314547598 ], [ 258694.391500052122865, 4941963.421295726671815 ], [ 258326.501177964906674, 4938343.596132779493928 ], [ 260200.501436079211999, 4934193.204465603455901 ], [ 263266.172777258267161, 4932689.540934404358268 ], [ 265353.463133310258854, 4937702.446823251433671 ] ] ] } },
{ "type": "Feature", "properties": { "drag_region": "South", "NAME": "Cumberland", "NAMELSAD": "Cumberland" }, "geometry": { "type": "Polygon", "coordinates": [ [ [ 308287.148049458046444, 4750314.554646167904139 ], [ 314535.202483572764322, 4745528.505028084851801 ], [ 317694.925329938414507, 4745093.768344132229686 ], [ 321526.689597469870932, 4750662.478221858851612 ], [ 330870.330116090830415, 4740403.770905659534037 ], [ 337150.141742802457884, 4736116.659835355356336 ], [ 340346.682526700547896, 4738078.150120089761913 ], [ 344161.571721716434695, 4743564.238261304795742 ], [ 348399.525979932979681, 4736737.234487120062113 ], [ 352141.562294979812577, 4736312.239712459035218 ], [ 356802.243721722858027, 4740937.045801235362887 ], [ 358232.305846557836048, 4739967.805882772430778 ], [ 354968.67714051832445, 4731223.478070453740656 ], [ 356682.013099204632454, 4729582.936872486956418 ], [ 355727.715382761321962, 4721291.371078563854098 ], [ 352265.832620109780692, 4721710.986238291487098 ], [ 347885.838779888232239, 4717753.74622431397438 ], [ 346395.899164996342734, 4714050.049751963466406 ], [ 340617.520506258471869, 4714503.985023049637675 ], [ 338531.610796314314939, 4709855.404139988124371 ], [ 332749.948552676243708, 4710316.094548341818154 ], [ 329788.703395729302429, 4705682.453662289306521 ], [ 328850.251879874849692, 4700924.696521957404912 ], [ 330259.091435911483131, 4698136.824638861231506 ], [ 327895.138347444473766, 4695117.603627551347017 ], [ 324167.561399701517075, 4697941.084927327930927 ], [ 317740.615905548562296, 4694988.752880472689867 ], [ 306572.433406253927387, 4703101.070124952122569 ], [ 309539.397295824601315, 4707056.834345412440598 ], [ 302447.866478299139999, 4715011.367282792925835 ], [ 299790.970500993775204, 4712198.097903210669756 ], [ 293457.312731808167882, 4713848.827397280372679 ], [ 294733.349435515236109, 4719836.701774904504418 ], [ 293938.901757015264593, 4723479.602613570168614 ], [ 290512.462105808313936, 4725457.98813235014677 ], [ 284996.361753595760092, 4724141.549377034418285 ], [ 283605.92896808241494, 4726653.224498891271651 ], [ 282569.455988321104087, 4732116.758744459599257 ], [ 286948.286953932023607, 4734504.845260854810476 ], [ 285843.71386935422197, 4736819.215588461607695 ], [ 289429.259900926379487, 4742853.029644603841007 ], [ 283285.112517406814732, 4751765.951549347490072 ], [ 278994.983113242080435, 4752910.852086139842868 ], [ 278246.51574819185771, 4757987.344673083163798 ], [ 281075.273525128723122, 4755919.34836545214057 ], [ 297087.611834586714394, 4765988.913750777952373 ], [ 300142.816162971779704, 4760679.314434363506734 ], [ 298371.329332829918712, 4758231.903779766522348 ], [ 299083.373001966858283, 4750486.416061243973672 ], [ 303342.296936339582317, 4747446.38008592557162 ], [ 306005.440267826314084, 4751405.889003125019372 ], [ 308287.148049458046444, 4750314.554646167904139 ] ] ] } },
{ "type": "Feature", "properties": { "drag_region": "Central", "NAME": "Knox", "NAMELSAD": "Knox" }, "geometry": { "type": "MultiPolygon", "coordinates": [ [ [ [ 563845.093838067725301, 4763247.460742727853358 ], [ 566720.897694782819599, 4762401.274413611739874 ], [ 569903.567522802040912, 4757836.589509451761842 ], [ 568498.349508865503594, 4751245.85532415099442 ], [ 563898.944392156903632, 4750271.025519852526486 ], [ 563003.106199282570742, 4758377.743840638548136 ], [ 563845.093838067725301, 4763247.460742727853358 ] ] ], [ [ [ 540870.77714834921062, 4762333.354591589421034 ], [ 543164.596863102982752, 4766247.34207218978554 ], [ 550331.874840120086446, 4770552.288550910539925 ], [ 553499.733740545110777, 4765788.862166444770992 ], [ 550917.743918924825266, 4765019.360102813690901 ], [ 554958.091266488074325, 4757586.981004281900823 ], [ 551804.976784637430683, 4753857.710612803697586 ], [ 546630.196702854009345, 4752607.347630254924297 ], [ 543176.107302284683101, 4754892.898407214321196 ], [ 544610.91050729365088, 4757279.881545163691044 ], [ 543743.327266650390811, 4762049.644170608371496 ], [ 540870.77714834921062, 4762333.354591589421034 ] ] ], [ [ [ 543486.192916957312264, 4733520.678596245124936 ], [ 545789.065913962433115, 4737053.740842348895967 ], [ 546087.717648095684126, 4729898.29536079056561 ], [ 543486.192916957312264, 4733520.678596245124936 ] ] ], [ [ [ 503937.960119313269388, 4786362.74520371388644 ], [ 504518.250665691855829, 4787982.052788542583585 ], [ 508793.681078531488311, 4784145.688757796771824 ], [ 515111.989651233830955, 4790324.327425017952919 ], [ 526820.163252843427472, 4778178.243533509783447 ], [ 534269.767255998100154, 4777503.560387350618839 ], [ 532258.308076694258489, 4768916.98045907355845 ], [ 528519.128389414050616, 4761477.976775494404137 ], [ 533975.994920952944085, 4758611.172728825360537 ], [ 530237.449598848354071, 4755942.034975100308657 ], [ 533109.689320309320465, 4750501.318109249696136 ], [ 530228.869894841336645, 4746877.694524517282844 ], [ 522456.468747311795596, 4747271.264994365163147 ], [ 518695.58643818134442, 4740410.523262549191713 ], [ 514372.586022906471044, 4740328.116567043587565 ], [ 513777.294576226500794, 4734796.164149311371148 ], [ 510601.2924655356328, 4733949.062646618112922 ], [ 510620.626748829439748, 4738910.481458448804915 ], [ 512651.036067510663997, 4742433.185769802890718 ], [ 510063.917649228009395, 4743874.211720997467637 ], [ 509188.041282430582214, 4741015.330247759819031 ], [ 505724.439603714738041, 4739790.105434503406286 ], [ 506327.354380640143063, 4745607.641832052730024 ], [ 507216.561248618992977, 4751328.586717366240919 ], [ 510090.571892511798069, 4750553.158472148701549 ], [ 510677.978738313715439, 4753604.141810646280646 ], [ 513848.844972281018272, 4755691.658222609199584 ], [ 511566.760660746949725, 4760470.706254944205284 ], [ 512156.536384676408488, 4764571.438775127753615 ], [ 509607.526492065866478, 4773169.009640623815358 ], [ 504159.687680336355697, 4773288.998847999610007 ], [ 501875.259667173144408, 4775113.632386029697955 ], [ 500494.904381304746494, 4784758.617931796237826 ], [ 503937.960119313269388, 4786362.74520371388644 ] ] ] ] } },
{ "type": "Feature", "properties": { "drag_region": "South", "NAME": "Kennebec", "NAMELSAD": "Kennebec" }, "geometry": { "type": "Polygon", "coordinates": [ [ [ 370221.937746031675488, 4842857.840327908284962 ], [ 377069.204536159115378, 4842575.951734176836908 ], [ 377671.486094223801047, 4845049.675537520088255 ], [ 374849.75630045204889, 4847472.054828480817378 ], [ 377500.408843044482637, 4854023.093419145792723 ], [ 384320.387778313073795, 4852412.782689297571778 ], [ 386360.834165468870196, 4856397.588435315527022 ], [ 392353.612017864303198, 4857477.356049688532948 ], [ 397147.096609093481675, 4852561.894749565981328 ], [ 398319.699862495006528, 4855986.193214445374906 ], [ 411965.195632485440001, 4852435.005177375860512 ], [ 413994.563832760031801, 4857287.135374677367508 ], [ 410336.135743776452728, 4862944.604145582765341 ], [ 410361.113197670609225, 4866189.069591518491507 ], [ 421747.917178907140624, 4868210.875326299108565 ], [ 422582.9852941284189, 4865152.24229899328202 ], [ 424846.224422305123881, 4862944.65348039381206 ], [ 423407.509566389897373, 4860089.813657101243734 ], [ 428811.661256617459003, 4859298.026964061893523 ], [ 427053.198347164783627, 4849382.418261104263365 ], [ 430471.271884016634431, 4848697.95600410271436 ], [ 428428.083574212098029, 4838974.286152554675937 ], [ 424720.078371918469202, 4839756.755523258820176 ], [ 419783.290976891992614, 4826330.601461926475167 ], [ 418308.331244287255686, 4819373.972996709868312 ], [ 416289.430453424400184, 4817287.852653985843062 ], [ 408283.180464273842517, 4819350.129108580760658 ], [ 406804.612463253317401, 4813636.508992080576718 ], [ 407574.020698936656117, 4802274.959703758358955 ], [ 399547.526395394816063, 4803870.621841702610254 ], [ 398987.507862198050134, 4805402.591695601120591 ], [ 391828.620788426545914, 4807095.213907717727125 ], [ 388312.347397399367765, 4800452.694372395053506 ], [ 379718.137411392235663, 4802460.503250717185438 ], [ 378003.462725736026186, 4803149.668824549764395 ], [ 380654.542991216410883, 4808652.144200541079044 ], [ 374093.408312293409836, 4811597.721146027557552 ], [ 374227.206176751002204, 4821807.507558235898614 ], [ 369758.141487814951688, 4829979.892270046286285 ], [ 372351.105097201652825, 4831376.104223111644387 ], [ 370221.937746031675488, 4842857.840327908284962 ] ] ] } },
{ "type": "Feature", "properties": { "drag_region": "North", "NAME": "Penobscot", "NAMELSAD": "Penobscot" }, "geometry": { "type": "Polygon", "coordinates": [ [ [ 520945.725580761325546, 5051091.350868959911168 ], [ 560203.793468812480569, 5058770.438655864447355 ], [ 558214.935419664718211, 5067928.852472215890884 ], [ 566381.836612158222124, 5069664.028249042108655 ], [ 560127.109566359664313, 5101525.884437180124223 ], [ 551719.393045765347779, 5099798.48307133000344 ], [ 552555.891752844327129, 5107529.550249569118023 ], [ 551991.341669136076234, 5116500.704732946120203 ], [ 562331.650988031877205, 5118995.987770676612854 ], [ 562711.557221290888265, 5198028.234995392151177 ], [ 572369.747995610930957, 5197962.464866586960852 ], [ 572375.284730138489977, 5196530.656684313900769 ], [ 592247.772193822776899, 5196639.941499093547463 ], [ 592515.914084313553758, 5158936.875376117415726 ], [ 593486.808765407651663, 5139853.530292608775198 ], [ 593160.692885852651671, 5107303.582472818903625 ], [ 594845.089448858983815, 5106743.063801971264184 ], [ 606861.86682024912443, 5109610.912736512720585 ], [ 606574.884764256072231, 5110371.846836810000241 ], [ 623042.425094178877771, 5114459.20278596226126 ], [ 630448.932785857236013, 5082669.672693347558379 ], [ 631978.924059546669014, 5073239.881820787675679 ], [ 622988.850771592231467, 5071410.064889777451754 ], [ 603585.01497868145816, 5067776.618589923717082 ], [ 606243.557989853434265, 5054247.5051658898592 ], [ 596373.086632199236192, 5052352.820034861564636 ], [ 598141.68813246965874, 5042822.564398876391351 ], [ 588251.23974233167246, 5040940.632140915840864 ], [ 592661.258738197619095, 5016729.373119745403528 ], [ 579322.390549572417513, 5014171.276218009181321 ], [ 576782.679702750174329, 5010056.369961659424007 ], [ 573362.913161244941875, 5012046.440700057893991 ], [ 569120.322366298059933, 5005256.429620745591819 ], [ 563423.389452445902862, 5007817.558164332993329 ], [ 561712.739764705183916, 5009817.865715812891722 ], [ 534400.461557367234491, 5003427.682052754797041 ], [ 532716.264161291182972, 5012878.836909977719188 ], [ 527597.48359973076731, 5012034.831218645907938 ], [ 526494.267325429129414, 5021772.203238014131784 ], [ 520945.725580761325546, 5051091.350868959911168 ] ] ] } },
{ "type": "Feature", "properties": { "drag_region": "North", "NAME": "Piscataquis", "NAMELSAD": "Piscataquis" }, "geometry": { "type": "Polygon", "coordinates": [ [ [ 455811.869914075767156, 5261795.429766221903265 ], [ 524847.322912203846499, 5261368.174325684085488 ], [ 524891.998114339541644, 5241799.793187129311264 ], [ 524512.091881080530584, 5162767.545962413772941 ], [ 514171.782562184787821, 5160272.262924683280289 ], [ 514736.332645893038716, 5151301.10844130627811 ], [ 513899.833938814117573, 5143570.041263067163527 ], [ 522307.5504594083759, 5145297.44262891728431 ], [ 528562.277505206991918, 5113435.586440779268742 ], [ 520395.376312713429797, 5111700.410663953050971 ], [ 522384.234361861192156, 5102541.996847601607442 ], [ 483126.16647381009534, 5094862.909060697071254 ], [ 471529.364283730450552, 5092824.678251597099006 ], [ 470378.19085474772146, 5089587.118913284502923 ], [ 462166.218156727438327, 5088117.732543532736599 ], [ 459417.507132277707569, 5097969.45889340993017 ], [ 450011.172090857871808, 5147302.239336074329913 ], [ 453958.411580264917575, 5149937.585262526758015 ], [ 456258.474357618833892, 5156693.840939179994166 ], [ 453512.545381587697193, 5162350.037696855142713 ], [ 449893.615442967158742, 5163911.678322478197515 ], [ 450256.986145389149897, 5172498.786871679127216 ], [ 454435.326960430655163, 5171600.288189243525267 ], [ 456200.276555878808722, 5181797.782746631652117 ], [ 453722.385372070420999, 5185065.60112742241472 ], [ 456788.515683296136558, 5185324.344902055338025 ], [ 457869.763877128949389, 5181496.886412013322115 ], [ 460667.321707389957737, 5182809.846485351212323 ], [ 457995.937388544320129, 5196195.544483568519354 ], [ 454652.862279005174059, 5195461.540808240883052 ], [ 454802.08512817020528, 5241852.896045480854809 ], [ 455629.921615236613434, 5241845.300948444753885 ], [ 455811.869914075767156, 5261795.429766221903265 ] ] ] } },
{ "type": "Feature", "properties": { "drag_region": "South", "NAME": "Lincoln", "NAMELSAD": "Lincoln" }, "geometry": { "type": "Polygon", "coordinates": [ [ [ 415647.732961148838513, 4776186.227270239032805 ], [ 423674.227264690678567, 4774590.565132294781506 ], [ 422904.81902900733985, 4785952.114420616999269 ], [ 424383.387030027864967, 4791665.734537117183208 ], [ 432389.637019178422634, 4789603.458082522265613 ], [ 434408.537810041278135, 4791689.578425246290863 ], [ 435883.497542646015063, 4798646.206890462897718 ], [ 443600.290336161502637, 4796981.034150576218963 ], [ 440157.234598152979743, 4795376.906878658570349 ], [ 441537.589884021377657, 4785731.921332892030478 ], [ 443822.017897184588946, 4783907.28779486194253 ], [ 449269.856708914099727, 4783787.298587486147881 ], [ 451818.866601524641737, 4775189.727721990086138 ], [ 451229.090877595182974, 4771088.995201806537807 ], [ 453511.175189129251521, 4766309.947169471532106 ], [ 450340.308955161948688, 4764222.430757508613169 ], [ 449752.902109360031318, 4761171.447419011034071 ], [ 446878.891465467226226, 4761946.875664228573442 ], [ 445989.684597488376312, 4756225.930778915062547 ], [ 441667.875131340057123, 4755769.94801568146795 ], [ 441930.242653513385449, 4750806.985158759169281 ], [ 437298.516433094220702, 4747302.124024500139058 ], [ 435827.853749208559748, 4742540.133361735381186 ], [ 432397.280852530326229, 4747428.027153698727489 ], [ 431790.670803217508364, 4742947.501086088828743 ], [ 427440.28556283947546, 4739924.625712148845196 ], [ 423995.718048270384315, 4742431.570626800879836 ], [ 423079.857316078210715, 4736141.295486568473279 ], [ 419945.388661796867382, 4741224.132878399454057 ], [ 416550.5150443558814, 4748887.241161257959902 ], [ 419465.156637573731132, 4752583.072656033560634 ], [ 418355.142654776631389, 4757459.106039929203689 ], [ 420116.558588935469743, 4761451.63355144392699 ], [ 410929.737413791473955, 4763635.210095549933612 ], [ 412960.595746643375605, 4765428.518949951045215 ], [ 415647.732961148838513, 4776186.227270239032805 ] ] ] } },
{ "type": "Feature", "properties": { "drag_region": "South", "NAME": "Franklin", "NAMELSAD": "Franklin" }, "geometry": { "type": "Polygon", "coordinates": [ [ [ 303588.032854998367839, 5021989.113505728542805 ], [ 306901.662547400803305, 5004835.930078569799662 ], [ 306057.00508586759679, 5004660.89028000459075 ], [ 313188.585032979375683, 4963670.912732539698482 ], [ 321409.009712588391267, 4965823.100109303370118 ], [ 322721.548584165750071, 4959692.63320691511035 ], [ 333479.536175684537739, 4961533.959192091599107 ], [ 336873.7334629035322, 4941441.865288702771068 ], [ 333749.611573476868216, 4940817.316575837321579 ], [ 335307.888787249336019, 4930677.949634108692408 ], [ 342985.204961456533056, 4932102.869578522630036 ], [ 345567.0131340463995, 4911359.789076772518456 ], [ 348416.238191045587882, 4911707.312100723385811 ], [ 350887.200037286384031, 4903852.782648830674589 ], [ 348846.75365013058763, 4899867.976902812719345 ], [ 342026.774714861996472, 4901478.287632660940289 ], [ 339376.122172269562725, 4894927.249041995964944 ], [ 342197.851966041314881, 4892504.869751035235822 ], [ 341595.570407976629212, 4890031.145947691984475 ], [ 334748.303617849189322, 4890313.034541423432529 ], [ 329024.789599693496712, 4889344.773241485469043 ], [ 326138.518739979772363, 4887288.057767132297158 ], [ 325072.315951234253589, 4892267.40153569355607 ], [ 322792.706114197848365, 4892493.609141034074128 ], [ 322904.903698278649244, 4899650.356985912658274 ], [ 301616.723086628422607, 4904601.277637295424938 ], [ 304783.107256334857084, 4906355.585363863036036 ], [ 296897.0264504365623, 4925217.321318406611681 ], [ 284535.935916740912944, 4918409.705717547796667 ], [ 284511.723558740573935, 4930344.320218720473349 ], [ 282170.744505418057088, 4939943.42278621532023 ], [ 280975.481658775883261, 4949804.405743222683668 ], [ 284379.848611277120654, 4950206.08606724254787 ], [ 280785.256115598720498, 4978835.154571456834674 ], [ 282543.106836041726638, 4981850.88947606831789 ], [ 283289.823291725479066, 4990045.743301970884204 ], [ 281664.280957692652009, 4992756.00280296523124 ], [ 285111.402206995990127, 4996116.116547745652497 ], [ 287351.227957714407239, 4995780.396368755958974 ], [ 290631.152275083004497, 4991508.561883584596217 ], [ 296513.841436764341779, 4990526.911629842594266 ], [ 296870.357134230143856, 4994243.24363640230149 ], [ 290299.753780086990446, 5002304.96636300906539 ], [ 290084.763318528304808, 5005365.000706996768713 ], [ 296461.4110573225189, 5015447.765639909543097 ], [ 300431.000032991520129, 5017945.570807828567922 ], [ 303588.032854998367839, 5021989.113505728542805 ] ] ] } }
]
}
