{
"type": "FeatureCollection",
"name": "map",
"crs": { "type": "name", "properties": { "name": "urn:ogc:def:crs:EPSG::26918" } },
"features": [
{ "type": "Feature", "properties": { "drag_region": "Central", "NAME": "Middlesex", "NAMELSAD": "Middlesex" }, "geometry": { "type": "Polygon", "coordinates": [ [ [ 685646.28627444722224, 4560756.812219128012657 ], [ 692005.064464094582945, 4548150.764282695949078 ], [ 701279.550602916046046, 4548718.753480994142592 ], [ 703115.904668959672563, 4537891.451252895407379 ], [ 692361.793879432836547, 4536132.429965461604297 ], [ 693372.402465303544886, 4532439.240146518684924 ], [ 696690.975975897861645, 4531965.926936723291874 ], [ 697109.375047356006689, 4528064.311213930137455 ], [ 699899.656737012322992, 4525285.039799460209906 ], [ 700649.63070953974966, 4520438.951037675142288 ], [ 696804.673872312647291, 4518221.858059849590063 ], [ 695845.363521633087657, 4520102.389908914454281 ], [ 691335.908915440784767, 4519968.600394990295172 ], [ 684193.861025199526921, 4517185.110153728164732 ], [ 683514.183953983476385, 4519934.09538006503135 ], [ 677650.26350844220724, 4525306.818705048412085 ], [ 677479.534021216561086, 4531506.541925529949367 ], [ 674020.36585800210014, 4537234.555670842528343 ], [ 666268.023738168296404, 4535310.42397231888026 ], [ 666985.619980259332806, 4542296.698013015091419 ], [ 665216.859671070356853, 4552654.200504191219807 ], [ 668435.146349037764594, 4555506.749750504270196 ], [ 668366.8693783627823, 4558082.093197508715093 ], [ 685646.28627444722224, 4560756.812219128012657 ] ] ] } },
{ "type": "Feature", "properties": { "drag_region": "Central", "NAME": "New Haven", "NAMELSAD": "New Haven" }, "geometry": { "type": "Polygon", "coordinates": [ [ [ 620878.3180499128066, 4553006.298210261389613 ], [ 624452.05976520339027, 4553663.423834037035704 ], [ 625148.247906650765799, 4549576.32947601005435 ], [ 624085.717193308868445, 4543920.285704895853996 ], [ 629756.66095473675523, 4544725.423826094716787 ], [ 632799.773558324202895, 4542796.579851108603179 ], [ 636312.263973073335364, 4546034.804657693952322 ], [ 640185.286408110754564, 4546802.701045873574913 ], [ 641954.046717299730517, 4536445.198554697446525 ], [ 641236.450475208694115, 4529458.924514001235366 ], [ 648988.792595042497851, 4531383.056212524883449 ], [ 652447.960758256958798, 4525655.042467212304473 ], [ 652618.690245482604951, 4519455.31924673076719 ], [ 658482.610691023874097, 4514082.595921747386456 ], [ 659162.287762239924632, 4511333.610695410519838 ], [ 656415.656254534376785, 4512688.070901243947446 ], [ 648595.617689967155457, 4512568.877069226466119 ], [ 646556.952836561831646, 4510032.709124114364386 ], [ 641086.384442443843, 4512084.358012654818594 ], [ 629121.77045517298393, 4509207.957831461913884 ], [ 628081.541586497914977, 4514908.767365742474794 ], [ 625415.149130965350196, 4513222.658045628108084 ], [ 619882.916290150256827, 4505268.584237275645137 ], [ 616271.763867668574676, 4505186.745647706091404 ], [ 611556.459550959756598, 4500502.465663423761725 ], [ 610327.303988973726518, 4501620.867914877831936 ], [ 611409.184532242943533, 4507274.023491538129747 ], [ 614542.397129501099698, 4515262.9435203820467 ], [ 610561.204620961565524, 4518610.604722114279866 ], [ 604376.375607447698712, 4526971.059115661308169 ], [ 594045.576420402154326, 4533441.125893164426088 ], [ 593070.42417101142928, 4537334.066021781414747 ], [ 606822.283689114148729, 4538950.273109323345125 ], [ 605826.533863421413116, 4543509.325139470398426 ], [ 611781.540195741690695, 4545069.652977983467281 ], [ 614681.968379917321727, 4549237.6889718323946 ], [ 620878.3180499128066, 4553006.298210261389613 ] ] ] } },
{ "type": "Feature", "properties": { "drag_region": "East", "NAME": "Windham", "NAMELSAD": "Windham" }, "geometry": { "type": "Polygon", "coordinates": [ [ [ 829729.925393940065987, 4688903.165221692062914 ], [ 854713.44234481442254, 4689220.366399760358036 ], [ 855074.922585288411938, 4687514.353480856865644 ], [ 855456.653506169212051, 4677307.009587859734893 ], [ 857142.224776020389982, 4656162.91732254717499 ], [ 857494.669591159909032, 4646719.04501357767731 ], [ 851796.650064315414056, 4646986.432168023660779 ], [ 844064.302223903592676, 4645562.266824600286782 ], [ 827197.241355455014855, 4648709.149206696078181 ], [ 826637.336888569057919, 4647544.733052727766335 ], [ 819561.089159598690458, 4653616.78923281468451 ], [ 826284.440151528571732, 4658228.31813321262598 ], [ 825388.457491648150608, 4667270.677752454765141 ], [ 820917.524019010015763, 4667124.399541387334466 ], [ 820474.982104113907553, 4680765.314290759153664 ], [ 830288.952388516161591, 4681186.38069446478039 ], [ 829729.925393940065987, 4688903.165221692062914 ] ] ] } },
{ "type": "Feature", "properties": { "drag_region": "East", "NAME": "New London", "NAMELSAD": "New London" }, "geometry": { "type": "Polygon", "coordinates": [ [ [ 792191.353186264866963, 4595484.034119792282581 ], [ 796915.881841847090982, 4597724.71402173768729 ], [ 803787.174102865275927, 4598220.897502524778247 ], [ 803056.133707224740647, 4602494.763203449547291 ], [ 808618.04226984817069, 4606392.90989444218576 ], [ 810578.085691029322334, 4610561.339725685305893 ], [ 817654.333419999689795, 4604489.283545598387718 ], [ 818214.237886885646731, 4605653.699699566699564 ], [ 835081.298755334224552, 4602506.817317470908165 ], [ 842813.646595746045932, 4603930.982660894282162 ], [ 848511.666122590540908, 4603663.595506448298693 ], [ 848692.997812890564092, 4598798.607947384938598 ], [ 848534.417384744738229, 4578828.606869490817189 ], [ 844962.110469015780836, 4577933.186130508780479 ], [ 846127.559213611762971, 4570716.556344510056078 ], [ 843825.025323156849481, 4567862.830892577767372 ], [ 841656.675858007976785, 4569599.3112134905532 ], [ 836543.452050155261531, 4569608.332239151932299 ], [ 830314.303938602795824, 4567099.526039192453027 ], [ 824896.323868612875231, 4567201.892883981578052 ], [ 821066.15665603778325, 4564782.440023849718273 ], [ 816170.913846776471473, 4567295.815811255015433 ], [ 814481.791393547668122, 4563708.424741070717573 ], [ 803699.064906448940746, 4562128.736496452242136 ], [ 802949.090933921514079, 4566974.825258237309754 ], [ 800158.809244265197776, 4569754.096672707237303 ], [ 799740.410172807052732, 4573655.712395500391722 ], [ 796421.836662212735973, 4574129.025605295784771 ], [ 795411.228076342027634, 4577822.215424238704145 ], [ 806165.33886586886365, 4579581.236711672507226 ], [ 804328.984799825237133, 4590408.53893977124244 ], [ 795054.498661003774032, 4589840.549741473048925 ], [ 792191.353186264866963, 4595484.034119792282581 ] ] ] } },
{ "type": "Feature", "properties": { "drag_region": "Central", "NAME": "Fairfield", "NAMELSAD": "Fairfield" }, "geometry": { "type": "Polygon", "coordinates": [ [ [ 550901.636626624152996, 4511663.641859652474523 ], [ 551799.235029542818666, 4529519.076628585346043 ], [ 552430.594954783562571, 4545080.96879658382386 ], [ 554278.385409262846224, 4541964.538218686357141 ], [ 558695.422710317187011, 4529162.762309405952692 ], [ 559056.769790757214651, 4525734.597699895501137 ], [ 563802.665213088737801, 4528397.715919310227036 ], [ 564755.029270324506797, 4525553.255820661783218 ], [ 570193.25740199862048, 4523367.626856796443462 ], [ 580524.056589044164866, 4516897.560079293325543 ], [ 586708.885602558031678, 4508537.10568574629724 ], [ 590690.078111097565852, 4505189.444484014064074 ], [ 587556.865513839409687, 4497200.524455170147121 ], [ 586474.984970570192672, 4491547.36887850984931 ], [ 587704.140532556222752, 4490428.966627055779099 ], [ 585948.666329002240673, 4488005.588194761425257 ], [ 581986.93650758441072, 4490116.109109566546977 ], [ 574870.36598462681286, 4484436.697207205928862 ], [ 572736.555822774767876, 4485634.770061244256794 ], [ 565856.676405192469247, 4482831.456010019406676 ], [ 567403.364356671343558, 4480761.633348643779755 ], [ 564444.839441645657644, 4477653.433865098282695 ], [ 555716.081967129022814, 4476447.993634066544473 ], [ 549163.878824834479019, 4471186.443777011707425 ], [ 546424.185241821454838, 4472573.026140507310629 ], [ 541948.344910882762633, 4469164.168050310574472 ], [ 542201.793358957860619, 4472315.940183858387172 ], [ 536023.40059355343692, 4481952.912034005858004 ], [ 556303.55905963643454, 4494679.453822697512805 ], [ 550431.942456106073223, 4503832.970226212404668 ], [ 550901.636626624152996, 4511663.641859652474523 ] ] ] } },
{ "type": "Feature", "properties": { "drag_region": "East", "NAME": "Tolland", "NAMELSAD": "Tolland" }, "geometry": { "type": "Polygon", "coordinates": [ [ [ 762905.115570494905114, 4691817.335983308963478 ], [ 793822.601610901532695, 4692307.89786284044385 ], [ 796503.460930016823113, 4692207.191452928818762 ], [ 797062.487924593035132, 4684490.406925701536238 ], [ 787248.517640190664679, 4684069.340521995909512 ], [ 787691.059555086772889, 4670428.425772624090314 ], [ 792161.993027725024149, 4670574.703983691520989 ], [ 793057.975687605328858, 4661532.344364449381828 ], [ 786334.624695675447583, 4656920.815464051440358 ], [ 784374.58127449429594, 4652752.385632808320224 ], [ 778812.672711870865896, 4648854.238941815681756 ], [ 779543.713107511401176, 4644580.373240890912712 ], [ 772672.420846493216231, 4644084.189760103821754 ], [ 772577.815430690068752, 4647231.917104345746338 ], [ 769153.163642703788355, 4651712.308998945169151 ], [ 766303.757240725914016, 4667285.309895589947701 ], [ 763929.573410951998085, 4666834.090434839017689 ], [ 764657.094038338400424, 4672583.394555631093681 ], [ 762883.293565501691774, 4672054.492029579356313 ], [ 762896.252749504288658, 4681888.147964611649513 ], [ 764673.125125244725496, 4682226.370212466455996 ], [ 762905.115570494905114, 4691817.335983308963478 ] ] ] } },
{ "type": "Feature", "properties": { "drag_region": "West", "NAME": "Litchfield", "NAMELSAD": "Litchfield" }, "geometry": { "type": "Polygon", "coordinates": [ [ [ 540228.509453523904085, 4703553.991259786300361 ], [ 544682.286364359082654, 4703729.669146026484668 ], [ 575899.107803612016141, 4703130.284302778542042 ], [ 579763.502002426888794, 4703123.781837130896747 ], [ 578165.37147855758667, 4695070.03452081233263 ], [ 590046.171035151928663, 4696021.390898329205811 ], [ 587871.153522812761366, 4687569.078693433664739 ], [ 585791.439952830085531, 4687327.940226828679442 ], [ 584709.53795442241244, 4682720.950913687236607 ], [ 585433.131539625581354, 4677393.647940215654671 ], [ 579787.565180522855371, 4676402.085915216244757 ], [ 582885.009397926740348, 4658818.796134377829731 ], [ 576688.659727931255475, 4655050.186895948834717 ], [ 573788.231543755624443, 4650882.150902099907398 ], [ 567833.225211435230449, 4649321.823063586838543 ], [ 568828.975037127966061, 4644762.771033439785242 ], [ 555077.115519025363028, 4643146.563945897854865 ], [ 556052.267768416088074, 4639253.623817280866206 ], [ 550614.039636741857976, 4641439.252781146205962 ], [ 549661.675579506205395, 4644283.71287979464978 ], [ 544915.780157174682245, 4641620.59466037992388 ], [ 544554.433076734654605, 4645048.759269890375435 ], [ 540137.395775680197403, 4657850.535179170779884 ], [ 538289.605321201030165, 4660966.965757068246603 ], [ 540228.509453523904085, 4703553.991259786300361 ] ] ] } },
{ "type": "Feature", "properties": { "drag_region": "West", "NAME": "Hartford", "NAMELSAD": "Hartford" }, "geometry": { "type": "Polygon", "coordinates": [ [ [ 631708.76015271700453, 4706284.310669834725559 ], [ 647759.286912322626449, 4706389.934982401318848 ], [ 647571.643738902988844, 4702089.88877067156136 ], [ 651718.794080304098316, 4702769.542933489196002 ], [ 652513.064890234265476, 4706513.00965884886682 ], [ 665007.845497643458657, 4706278.948948151431978 ], [ 673019.518604284035973, 4706889.6020846683532 ], [ 674787.528159033856355, 4697298.636313825845718 ], [ 673010.655783293303102, 4696960.414065971039236 ], [ 672997.696599290822633, 4687126.758130938746035 ], [ 674771.497072127531283, 4687655.660656990483403 ], [ 674043.976444741128944, 4681906.356536198407412 ], [ 676418.16027451492846, 4682357.575996949337423 ], [ 679267.566676492919214, 4666784.575100304558873 ], [ 682692.218464479083195, 4662304.183205705136061 ], [ 682786.823880282347091, 4659156.455861463211477 ], [ 678062.295224700123072, 4656915.775959517806768 ], [ 674566.662509791669436, 4663878.339517630636692 ], [ 657287.245613707229495, 4661203.620496011339128 ], [ 657355.522584382211789, 4658628.277049006894231 ], [ 654137.235906414804049, 4655775.727802693843842 ], [ 650264.213471377384849, 4655007.831414514221251 ], [ 646751.72305662825238, 4651769.606607928872108 ], [ 643708.610453040804714, 4653698.450582914985716 ], [ 638037.66669161291793, 4652893.312461716122925 ], [ 639100.197404954815283, 4658549.356232830323279 ], [ 638404.009263507439755, 4662636.450590857304633 ], [ 634830.267548216856085, 4661979.324967081658542 ], [ 631732.823330813087523, 4679562.614747920073569 ], [ 637378.38968991569709, 4680554.176772919483483 ], [ 636654.796104712528177, 4685881.479746391065419 ], [ 637736.698103120201267, 4690488.469059532508254 ], [ 639816.411673102877103, 4690729.607526137493551 ], [ 641991.4291854420444, 4699181.919731033034623 ], [ 630110.629628847702406, 4698230.563353516161442 ], [ 631708.76015271700453, 4706284.310669834725559 ] ] ] } }
]
}
