{
"type": "FeatureCollection",
"name": "map",
"crs": { "type": "name", "properties": { "name": "urn:ogc:def:crs:EPSG::32614" } },
"features": [
{ "type": "Feature", "properties": { "drag_region": "West", "NAME": "Lawrence", "NAMELSAD": "Lawrence" }, "geometry": { "type": "Polygon", "coordinates": [ [ [ -26125.883287321659736, 4944185.315741511061788 ], [ -16383.560531451599672, 4944449.822753093205392 ], [ -12552.934468657593243, 4946325.858467960730195 ], [ -9202.546712526644114, 4944976.395457564853132 ], [ -7379.928923489176668, 4946783.490120547823608 ], [ 12838.501787958899513, 4945521.725823141634464 ], [ 10103.987153078429401, 4906905.702533627860248 ], [ 19851.908382923167665, 4906464.378667254932225 ], [ 19152.536876918398775, 4893581.957778092473745 ], [ -29082.931205405446235, 4896375.827541887760162 ], [ -26125.883287321659736, 4944185.315741511061788 ] ] ] } },
{ "type": "Feature", "properties": { "drag_region": "East", "NAME": "Minnehaha", "NAMELSAD": "Minnehaha" }, "geometry": { "type": "Polygon", "coordinates": [ [ [ 768804.381668866146356, 4812098.51408096216619 ], [ 823038.546298304805532, 4813738.758099273778498 ], [ 824231.156642884481698, 4774905.706136431545019 ], [ 769678.495293166255578, 4773361.715441714972258 ], [ 768804.381668866146356, 4812098.51408096216619 ] ] ] } },
{ "type": "Feature", "properties": { "drag_region": "East", "NAME": "Turner", "NAMELSAD": "Turner" }, "geometry": { "type": "Polygon", "coordinates": [ [ [ 737660.451274821767583, 4760876.792471753433347 ], [ 776254.596463144989684, 4761729.099805314093828 ], [ 777404.862014173646457, 4715457.270869868807495 ], [ 758121.461317383102141, 4715007.022550572641194 ], [ 757909.929018320399337, 4724642.678485114127398 ], [ 738655.790054725599475, 4724151.467703834176064 ], [ 737660.451274821767583, 4760876.792471753433347 ] ] ] } },
{ "type": "Feature", "properties": { "drag_region": "East", "NAME": "Aurora", "NAMELSAD": "Aurora" }, "geometry": { "type": "Polygon", "coordinates": [ [ [ 592305.276206672424451, 4819971.113132869824767 ], [ 630618.087241620523855, 4820457.111267638392746 ], [ 631272.327801381004974, 4810920.569152040407062 ], [ 631882.197164229350165, 4771709.941926877945662 ], [ 593577.911540152737871, 4771601.449368944391608 ], [ 593192.916567629901692, 4810431.969265694729984 ], [ 592327.423155109630898, 4810429.905516026541591 ], [ 592305.276206672424451, 4819971.113132869824767 ] ] ] } },
{ "type": "Feature", "properties": { "drag_region": "East", "NAME": "Lake", "NAMELSAD": "Lake" }, "geometry": { "type": "Polygon", "coordinates": [ [ [ 739041.868162922328338, 4861371.625920636579394 ], [ 777474.409376679104753, 4862342.586319989524782 ], [ 778464.81164813588839, 4823698.885876525193453 ], [ 739802.812497908249497, 4822919.131796564906836 ], [ 739041.868162922328338, 4861371.625920636579394 ] ] ] } },
{ "type": "Feature", "properties": { "drag_region": "Central", "NAME": "Hyde", "NAMELSAD": "Hyde" }, "geometry": { "type": "Polygon", "coordinates": [ [ [ 511704.528562148450874, 5018721.609465476125479 ], [ 540326.926230741548352, 5018452.713798283599317 ], [ 539893.627510304795578, 4979615.424062157049775 ], [ 541034.067398946615867, 4979611.13622544053942 ], [ 540890.86324119719211, 4940488.885425788350403 ], [ 518803.406626158161089, 4940320.355591276660562 ], [ 511941.630902268341742, 4943139.337652013637125 ], [ 512238.722791047242936, 4979876.20544524025172 ], [ 511098.298602349124849, 4979885.555502090603113 ], [ 511704.528562148450874, 5018721.609465476125479 ] ] ] } },
{ "type": "Feature", "properties": { "drag_region": "West", "NAME": "Bennett", "NAMELSAD": "Bennett" }, "geometry": { "type": "Polygon", "coordinates": [ [ [ 164195.121206586627522, 4770873.503122973255813 ], [ 235709.153230433992576, 4768487.939425963908434 ], [ 234550.981809393211734, 4724983.255427045747638 ], [ 202067.781048956676386, 4725731.034328375011683 ], [ 164921.21365670079831, 4727375.884657666087151 ], [ 165450.804815379931824, 4741782.443873595446348 ], [ 163115.021393255039584, 4741868.813522690907121 ], [ 164195.121206586627522, 4770873.503122973255813 ] ] ] } },
{ "type": "Feature", "properties": { "drag_region": "East", "NAME": "Buffalo", "NAMELSAD": "Buffalo" }, "geometry": { "type": "Polygon", "coordinates": [ [ [ 513344.610237512912136, 4861250.41169304959476 ], [ 565261.570978447562084, 4861568.669210854917765 ], [ 565287.49265051248949, 4832467.102205263450742 ], [ 530717.071512224036269, 4832431.126324236392975 ], [ 531034.194964469294064, 4839204.233133055269718 ], [ 524157.703794623783324, 4844962.319594915024936 ], [ 518412.748377332289238, 4845949.67016835231334 ], [ 514703.026648833649233, 4850076.794243283569813 ], [ 516182.249171544390265, 4856555.500013222917914 ], [ 513344.610237512912136, 4861250.41169304959476 ] ] ] } },
{ "type": "Feature", "properties": { "drag_region": "East", "NAME": "Miner", "NAMELSAD": "Miner" }, "geometry": { "type": "Polygon", "coordinates": [ [ [ 687902.559647320304066, 4859225.218113326467574 ], [ 726337.283489894936793, 4859875.6553153404966 ], [ 727098.227824880857952, 4821423.161191268824041 ], [ 688437.723443022696301, 4820868.415304637514055 ], [ 687902.559647320304066, 4859225.218113326467574 ] ] ] } },
{ "type": "Feature", "properties": { "drag_region": "Central", "NAME": "Clark", "NAMELSAD": "Clark" }, "geometry": { "type": "Polygon", "coordinates": [ [ [ 676116.999526194063947, 5054343.309414643794298 ], [ 714491.230713629629463, 5054751.484714161604643 ], [ 716026.855201950878836, 4987288.931986514478922 ], [ 687227.585175000596792, 4986916.120446058921516 ], [ 686807.472980420687236, 4996549.951377056539059 ], [ 677127.694246966042556, 4996421.515937657095492 ], [ 677047.074686455540359, 5025434.834483162499964 ], [ 676480.236300570191815, 5025427.704983873292804 ], [ 676116.999526194063947, 5054343.309414643794298 ] ] ] } },
{ "type": "Feature", "properties": { "drag_region": "East", "NAME": "Gregory", "NAMELSAD": "Gregory" }, "geometry": { "type": "Polygon", "coordinates": [ [ [ 516842.714452832529787, 4755339.716270026750863 ], [ 535993.850319401244633, 4755148.877103043720126 ], [ 534820.323439957341179, 4751718.5187106160447 ], [ 539164.622098585241474, 4748269.110184197314084 ], [ 546425.891054848558269, 4747964.425085540860891 ], [ 554258.336148731294088, 4735264.600628150627017 ], [ 561535.739033543737605, 4728393.452716425992548 ], [ 568237.889038544497453, 4727062.707850185222924 ], [ 569989.438008222379722, 4724870.842202167026699 ], [ 569997.188844626420178, 4719623.81280888337642 ], [ 571752.205185482860543, 4716860.024004876613617 ], [ 578466.706689498387277, 4715920.965762428939342 ], [ 585208.156182554550469, 4708215.193396285176277 ], [ 591053.340917564346455, 4707953.112149736844003 ], [ 598672.326184106408618, 4704176.004920366220176 ], [ 600746.206190920085646, 4699608.81139410007745 ], [ 516487.446588355058338, 4699625.211105888709426 ], [ 516842.714452832529787, 4755339.716270026750863 ] ] ] } },
{ "type": "Feature", "properties": { "drag_region": "East", "NAME": "Douglas", "NAMELSAD": "Douglas" }, "geometry": { "type": "Polygon", "coordinates": [ [ [ 604511.795655100955628, 4763480.186938378959894 ], [ 652102.078000703826547, 4763722.254772792570293 ], [ 652408.548481526784599, 4762198.849491513334215 ], [ 653040.223670024191961, 4730241.775856873951852 ], [ 606597.069744307198562, 4749463.252984792925417 ], [ 604271.817699348088354, 4749168.491557925008237 ], [ 604511.795655100955628, 4763480.186938378959894 ] ] ] } },
{ "type": "Feature", "properties": { "drag_region": "Central", "NAME": "Marshall", "NAMELSAD": "Marshall" }, "geometry": { "type": "Polygon", "coordinates": [ [ [ 678274.450913291308098, 5164857.34222908783704 ], [ 736428.104864373221062, 5165875.711185968481004 ], [ 737356.090112413745373, 5123976.650800027884543 ], [ 726711.241361763444729, 5123750.698498013429344 ], [ 726085.14114360883832, 5126984.252335191704333 ], [ 678766.762279270216823, 5126298.349863544106483 ], [ 678274.450913291308098, 5164857.34222908783704 ] ] ] } },
{ "type": "Feature", "properties": { "drag_region": "Central", "NAME": "Codington", "NAMELSAD": "Codington" }, "geometry": { "type": "Polygon", "coordinates": [ [ [ 726780.673862357856706, 5057581.87979708891362 ], [ 774747.908816495910287, 5058561.42470455635339 ], [ 775535.039079647394828, 5039291.62695946265012 ], [ 775752.134958331240341, 5020102.973304467275739 ], [ 727780.744505350245163, 5019033.284162640571594 ], [ 726780.673862357856706, 5057581.87979708891362 ] ] ] } },
{ "type": "Feature", "properties": { "drag_region": "East", "NAME": "Hutchinson", "NAMELSAD": "Hutchinson" }, "geometry": { "type": "Polygon", "coordinates": [ [ [ 664007.454595446353778, 4761708.229536384344101 ], [ 721750.696241978206672, 4762760.623698025010526 ], [ 722746.035021882038563, 4726035.298930105753243 ], [ 667604.964880270999856, 4725107.988424868322909 ], [ 664945.600264766719192, 4728227.75062046572566 ], [ 664313.92507626931183, 4760184.824255105108023 ], [ 664007.454595446353778, 4761708.229536384344101 ] ] ] } },
{ "type": "Feature", "properties": { "drag_region": "West", "NAME": "Butte", "NAMELSAD": "Butte" }, "geometry": { "type": "Polygon", "coordinates": [ [ [ -17022.064646995349904, 5006026.587897448800504 ], [ -15583.73597738002718, 5006319.919797666370869 ], [ -14110.629076463184902, 5029891.364184264093637 ], [ 71003.318680494834553, 5025137.612997394986451 ], [ 67129.165640745297424, 4957505.480817509815097 ], [ -943.08826095618133, 4961273.914910146966577 ], [ -2765.706049993648776, 4959466.8202471639961 ], [ -6116.093806124597904, 4960816.283257559873164 ], [ -9946.719868918604334, 4958940.247542692348361 ], [ -19689.042624788664398, 4958675.740531110204756 ], [ -17022.064646995349904, 5006026.587897448800504 ] ] ] } },
{ "type": "Feature", "properties": { "drag_region": "Central", "NAME": "Hand", "NAMELSAD": "Hand" }, "geometry": { "type": "Polygon", "coordinates": [ [ [ 548523.364072647877038, 5018930.498353880830109 ], [ 596417.602668170817196, 5018926.144960789941251 ], [ 596986.180346902227029, 4941157.387934071943164 ], [ 549087.301083103520796, 4940966.669981385581195 ], [ 549230.505240852944553, 4980088.920781037770212 ], [ 548090.065352211007848, 4980093.208617754280567 ], [ 548523.364072647877038, 5018930.498353880830109 ] ] ] } },
{ "type": "Feature", "properties": { "drag_region": "East", "NAME": "Kingsbury", "NAMELSAD": "Kingsbury" }, "geometry": { "type": "Polygon", "coordinates": [ [ [ 691121.456046630628407, 4911072.99545871373266 ], [ 748720.92674117826391, 4911946.521013075485826 ], [ 749601.830436605378054, 4873396.331769855692983 ], [ 691664.996203433605842, 4872236.842516313306987 ], [ 691121.456046630628407, 4911072.99545871373266 ] ] ] } },
{ "type": "Feature", "properties": { "drag_region": "East", "NAME": "Davison", "NAMELSAD": "Davison" }, "geometry": { "type": "Polygon", "coordinates": [ [ [ 638599.690327900461853, 4809454.661887872032821 ], [ 667161.061105322674848, 4809654.207090298645198 ], [ 667936.535770799964666, 4770635.463388077914715 ], [ 639209.559690748923458, 4770244.034662709571421 ], [ 638599.690327900461853, 4809454.661887872032821 ] ] ] } },
{ "type": "Feature", "properties": { "drag_region": "East", "NAME": "Lyman", "NAMELSAD": "Lyman" }, "geometry": { "type": "Polygon", "coordinates": [ [ [ 465403.596697715460323, 4856800.04137135669589 ], [ 469627.929228075779974, 4849500.616345710121095 ], [ 478822.699763045995496, 4850076.119409739971161 ], [ 487979.891716843412723, 4846179.892729572020471 ], [ 492594.359986374038272, 4848625.72625700943172 ], [ 489755.736783247150015, 4852940.954223202541471 ], [ 484886.705608564079739, 4854125.362358726561069 ], [ 483758.727956363349222, 4856425.172266097739339 ], [ 487509.090771726099774, 4859065.750595735386014 ], [ 494370.866495615919121, 4856246.76853499840945 ], [ 497208.50542964739725, 4851551.856855171732605 ], [ 495729.282906936656218, 4845073.151085232384503 ], [ 499439.004635435296223, 4840946.02701030112803 ], [ 505183.960052726790309, 4839958.676436863839626 ], [ 512060.451222572301049, 4834200.589975004084408 ], [ 511743.327770327043254, 4827427.483166185207665 ], [ 512011.804013380955439, 4822846.443439291790128 ], [ 515746.062050413573161, 4819205.808752574957907 ], [ 511097.749758221849333, 4811687.078837862238288 ], [ 507334.249116888735443, 4809796.458064100705087 ], [ 507585.092602399468888, 4802066.850681321695447 ], [ 503524.863600275770295, 4799988.981588399969041 ], [ 503505.911400016688276, 4796554.275549305602908 ], [ 510163.189085166668519, 4796616.273414178751409 ], [ 512749.480251364933793, 4792120.833014423027635 ], [ 513023.119249130308162, 4788207.947188656777143 ], [ 517640.941426221514121, 4782657.039277212694287 ], [ 516468.269108329957817, 4779131.056493848562241 ], [ 490643.12572826188989, 4779367.960766335017979 ], [ 490074.91753958928166, 4780994.179866130463779 ], [ 490263.874886564793997, 4806181.869379493407905 ], [ 486816.396399300312623, 4808784.913605437614024 ], [ 485338.010058721643873, 4804694.058441327884793 ], [ 484501.162369170517195, 4808326.847315612249076 ], [ 479827.273530902864877, 4802738.041995347477496 ], [ 476068.077814527146984, 4802773.202495651319623 ], [ 470533.968785090430174, 4799012.027768179774284 ], [ 467668.666257078293711, 4801618.939238933846354 ], [ 459562.334776264091488, 4801044.155188826844096 ], [ 459004.759921992896125, 4802768.551252162083983 ], [ 450585.24599318561377, 4800395.384030725806952 ], [ 444543.099751040921547, 4802769.621889277361333 ], [ 442775.914597123221029, 4800600.32742097042501 ], [ 441374.775727306143381, 4803674.729400430805981 ], [ 437297.217446840717457, 4801827.797308741137385 ], [ 432704.881411586538889, 4804095.256505799479783 ], [ 432650.60789402469527, 4818602.454862129874527 ], [ 430631.042183488607407, 4818635.507010944187641 ], [ 431269.775207278376911, 4857183.242420832626522 ], [ 465403.596697715460323, 4856800.04137135669589 ] ] ] } },
{ "type": "Feature", "properties": { "drag_region": "Central", "NAME": "Edmunds", "NAMELSAD": "Edmunds" }, "geometry": { "type": "Polygon", "coordinates": [ [ [ 515006.429969287884887, 5115609.359888835810125 ], [ 591714.987919446313754, 5115115.149655214510858 ], [ 591997.270741174230352, 5114448.030259969644248 ], [ 592128.186935495352373, 5076559.308996808715165 ], [ 514665.696296605223324, 5076957.135710808448493 ], [ 515006.429969287884887, 5115609.359888835810125 ] ] ] } },
{ "type": "Feature", "properties": { "drag_region": "West", "NAME": "Fall River", "NAMELSAD": "Fall River" }, "geometry": { "type": "Polygon", "coordinates": [ [ [ -31767.06072158558527, 4790201.939822683110833 ], [ 53585.085626476618927, 4785455.065189391374588 ], [ 51048.065257941547316, 4732499.425668945536017 ], [ -34684.142552566074301, 4737224.002297926694155 ], [ -31767.06072158558527, 4790201.939822683110833 ] ] ] } },
{ "type": "Feature", "properties": { "drag_region": "Central", "NAME": "Potter", "NAMELSAD": "Potter" }, "geometry": { "type": "Polygon", "coordinates": [ [ [ 458272.777280380832963, 5070484.320185609161854 ], [ 512353.684423082275316, 5069773.977682184427977 ], [ 512079.491054397891276, 5031028.652217825874686 ], [ 446332.787440032348968, 5031925.268997053615749 ], [ 445095.045341447927058, 5042160.952475267462432 ], [ 447713.633115647709928, 5046315.683549700304866 ], [ 456465.489174461283255, 5045312.246638359501958 ], [ 453708.891101702640299, 5049747.40186417195946 ], [ 452934.633435220457613, 5054246.542264587245882 ], [ 456710.089620886952616, 5060772.247715624049306 ], [ 458272.777280380832963, 5070484.320185609161854 ] ] ] } },
{ "type": "Feature", "properties": { "drag_region": "East", "NAME": "Sanborn", "NAMELSAD": "Sanborn" }, "geometry": { "type": "Polygon", "coordinates": [ [ [ 638989.881357130361721, 4857894.230548901483417 ], [ 677425.967007937841117, 4858128.825173722580075 ], [ 677961.130803640233353, 4819772.022365033626556 ], [ 639878.208793211728334, 4819542.293180853128433 ], [ 639223.968233451247215, 4829078.835296451114118 ], [ 638989.881357130361721, 4857894.230548901483417 ] ] ] } },
{ "type": "Feature", "properties": { "drag_region": "West", "NAME": "Todd", "NAMELSAD": "Todd" }, "geometry": { "type": "Polygon", "coordinates": [ [ [ 257373.143095647392329, 4765567.137889468111098 ], [ 339355.154455373005476, 4763970.129554476588964 ], [ 338932.171439343073871, 4734872.27666908223182 ], [ 340391.936554551008157, 4734851.264647931791842 ], [ 340186.376341892057098, 4720445.921837498433888 ], [ 256214.971674606611487, 4722062.453890549950302 ], [ 257373.143095647392329, 4765567.137889468111098 ] ] ] } },
{ "type": "Feature", "properties": { "drag_region": "West", "NAME": "Perkins", "NAMELSAD": "Perkins" }, "geometry": { "type": "Polygon", "coordinates": [ [ [ 91516.925116911355872, 5041019.310512366704643 ], [ 95481.535252477217, 5098702.199874407611787 ], [ 96647.186612114193849, 5122275.431737280450761 ], [ 169806.482806565938517, 5118990.62775388546288 ], [ 166044.651614663889632, 5018304.842996662482619 ], [ 90571.848911382374354, 5021742.074177117086947 ], [ 91516.925116911355872, 5041019.310512366704643 ] ] ] } },
{ "type": "Feature", "properties": { "drag_region": "West", "NAME": "Hughes", "NAMELSAD": "Hughes" }, "geometry": { "type": "Polygon", "coordinates": [ [ [ 333261.295942124910653, 4928614.082235420122743 ], [ 401973.785880293464288, 4927788.240817114710808 ], [ 401676.693991514563095, 4891051.373023888096213 ], [ 397926.331176151812542, 4888410.794694250449538 ], [ 399054.30882835254306, 4886110.984786879271269 ], [ 403923.340003035613336, 4884926.57665135525167 ], [ 406761.963206162501592, 4880611.348685162141919 ], [ 402147.494936631876044, 4878165.51515772473067 ], [ 392990.302982834458817, 4882061.74183789268136 ], [ 383795.532447864243295, 4881486.238773862831295 ], [ 379571.199917503923643, 4888785.66379950940609 ], [ 383355.879055169702042, 4893896.693242555484176 ], [ 380807.640881318657193, 4896692.359831671230495 ], [ 375939.793019602017011, 4896939.859498202800751 ], [ 367977.976581088500097, 4901525.780217442661524 ], [ 361705.691017546050716, 4903425.179783069528639 ], [ 356269.413472576008644, 4903600.122480574995279 ], [ 345735.985641796258278, 4907107.676208073273301 ], [ 344178.175849943887442, 4916487.786886273883283 ], [ 342498.878895544738043, 4918520.937801335938275 ], [ 337364.181468772410881, 4918897.780344179831445 ], [ 332476.068761752394494, 4917174.033102225512266 ], [ 328799.971265749947634, 4919153.189636089839041 ], [ 329435.334875916771125, 4922481.962802028283477 ], [ 332910.004289976146538, 4925088.756239271722734 ], [ 333261.295942124910653, 4928614.082235420122743 ] ] ] } },
{ "type": "Feature", "properties": { "drag_region": "West", "NAME": "Custer", "NAMELSAD": "Custer" }, "geometry": { "type": "Polygon", "coordinates": [ [ [ -25218.062160071654944, 4845694.165639059618115 ], [ 84717.486437746061711, 4840157.681990464217961 ], [ 83854.576717119518435, 4833790.386017845012248 ], [ 80246.995608948433073, 4830797.364520327188075 ], [ 72156.884642958844779, 4818641.280400275252759 ], [ 66457.778402255004039, 4820819.839593153446913 ], [ 63848.566722433228279, 4814727.108973454684019 ], [ 58276.380976990360068, 4813559.058706333860755 ], [ 57586.834945900860475, 4799246.332783745601773 ], [ -27765.311402161343722, 4803993.207417037338018 ], [ -25218.062160071654944, 4845694.165639059618115 ] ] ] } },
{ "type": "Feature", "properties": { "drag_region": "East", "NAME": "Brule", "NAMELSAD": "Brule" }, "geometry": { "type": "Polygon", "coordinates": [ [ [ 535081.448857882525772, 4820438.734200128354132 ], [ 579158.621316344244406, 4820489.976120912469923 ], [ 579180.768264781450853, 4810948.768504069186747 ], [ 580046.261677301605232, 4810950.83225373737514 ], [ 580431.256649824441411, 4772120.312356987036765 ], [ 539806.729837264632806, 4772237.713079916313291 ], [ 540979.062513776938431, 4775668.290311155840755 ], [ 536361.240336685674265, 4781219.198222599923611 ], [ 536087.60133892041631, 4785132.084048366174102 ], [ 533501.31017272209283, 4789627.524448121897876 ], [ 526844.032487572170794, 4789565.526583248749375 ], [ 526862.984687831252813, 4793000.232622343115509 ], [ 530923.213689954951406, 4795078.101715264841914 ], [ 530672.370204444159754, 4802807.709098043851554 ], [ 534435.870845777215436, 4804698.329871805384755 ], [ 539084.183137968997471, 4812217.059786518104374 ], [ 535349.925100936321542, 4815857.694473234936595 ], [ 535081.448857882525772, 4820438.734200128354132 ] ] ] } },
{ "type": "Feature", "properties": { "drag_region": "West", "NAME": "Pennington", "NAMELSAD": "Pennington" }, "geometry": { "type": "Polygon", "coordinates": [ [ [ -10741.680408761909348, 4855220.722214356996119 ], [ -8777.149771691547357, 4887188.69178113155067 ], [ 39458.318310632297653, 4884394.822017336264253 ], [ 124725.108340428894735, 4880230.273749572224915 ], [ 123372.615155608087662, 4882293.4449626756832 ], [ 124438.747792340625892, 4887219.750460783950984 ], [ 127431.698842222496751, 4890155.304213907569647 ], [ 126720.629447816681932, 4893816.614133916795254 ], [ 129401.677677813437185, 4903265.15618918929249 ], [ 132664.077785344154108, 4906000.241407607682049 ], [ 132358.423569029080682, 4912607.595871204510331 ], [ 139293.541106206423137, 4914337.716337280347943 ], [ 143755.772843159851618, 4911391.906191156245768 ], [ 147791.989261552866083, 4912192.594483580440283 ], [ 154071.239874417427927, 4919505.408121600747108 ], [ 156956.12891259038588, 4920258.692333698272705 ], [ 154569.138535543170292, 4862920.760776066221297 ], [ 153414.412065772863571, 4862867.437357632443309 ], [ 152256.330218697490636, 4831189.045477979816496 ], [ 151019.182828545977827, 4829036.778324169106781 ], [ 142680.484387353528291, 4830685.115880297496915 ], [ 139729.690876078268047, 4829268.68339675385505 ], [ 88523.555408276079106, 4831427.403497379273176 ], [ 94723.377360258178669, 4840323.921095624566078 ], [ 98330.95846842926403, 4843316.942593142390251 ], [ 99193.868189055807306, 4849684.238565761595964 ], [ -10741.680408761909348, 4855220.722214356996119 ] ] ] } },
{ "type": "Feature", "properties": { "drag_region": "Central", "NAME": "Spink", "NAMELSAD": "Spink" }, "geometry": { "type": "Polygon", "coordinates": [ [ [ 605423.071968061616644, 5066818.757168974727392 ], [ 663173.881289987242781, 5066901.860042430460453 ], [ 663659.769911387120374, 5028252.001344392076135 ], [ 664226.608297272468917, 5028259.130843681283295 ], [ 664307.227857782971114, 4999245.812298175878823 ], [ 606797.003492721240036, 4999067.755620434880257 ], [ 606690.799076852621511, 5028268.332176936790347 ], [ 605840.605455557466485, 5028265.289211489260197 ], [ 605423.071968061616644, 5066818.757168974727392 ] ] ] } },
{ "type": "Feature", "properties": { "drag_region": "East", "NAME": "Union", "NAMELSAD": "Union" }, "geometry": { "type": "Polygon", "coordinates": [ [ [ 804175.902831701678224, 4697070.099967536516488 ], [ 832809.363134621991776, 4697879.770226189866662 ], [ 828244.9193915623473, 4694018.588926445692778 ], [ 829866.221533454139717, 4688719.496048117987812 ], [ 827604.508876815554686, 4685978.713763664476573 ], [ 829420.219919156166725, 4684027.285769614391029 ], [ 826657.51527015666943, 4678312.061613233759999 ], [ 826258.107027746737003, 4671903.002970480360091 ], [ 823075.831541022285819, 4670283.210708854719996 ], [ 822337.483945858781226, 4665297.178808056749403 ], [ 819177.993457633303478, 4662725.348111662082374 ], [ 819675.348782576620579, 4655483.250012358650565 ], [ 824158.873302367050201, 4653032.691924834623933 ], [ 829326.624868395621888, 4647454.065802663564682 ], [ 830732.254727937863208, 4639761.528629692271352 ], [ 832517.232684467569925, 4639241.571428027004004 ], [ 831465.581233771634288, 4634913.688213529996574 ], [ 835387.899683820665814, 4632070.850637447088957 ], [ 830392.747857475071214, 4631253.812537976540625 ], [ 828834.117652980261482, 4634072.499292799271643 ], [ 821770.139415543526411, 4633392.437906907871366 ], [ 819944.709466345026158, 4635346.114198396913707 ], [ 819564.703811083454639, 4638390.571138843894005 ], [ 813205.872151960036717, 4644516.780330454930663 ], [ 815131.161695131682791, 4649533.502615546807647 ], [ 811853.70238104974851, 4650972.046087145805359 ], [ 805669.07153335493058, 4651094.779721304774284 ], [ 805275.786374962190166, 4654903.038914490491152 ], [ 804175.902831701678224, 4697070.099967536516488 ] ] ] } },
{ "type": "Feature", "properties": { "drag_region": "East", "NAME": "Bon Homme", "NAMELSAD": "Bon Homme" }, "geometry": { "type": "Polygon", "coordinates": [ [ [ 665863.383940561907366, 4713477.721397252753377 ], [ 701458.158474219962955, 4713963.586354799568653 ], [ 702322.315367703558877, 4678766.02809361089021 ], [ 698232.962178086629137, 4677651.330107153393328 ], [ 690887.694934744155034, 4678399.320887808687985 ], [ 684994.775737851858139, 4680319.805204230360687 ], [ 682663.290047568269074, 4679238.710475267842412 ], [ 680115.730385262519121, 4672144.692634612321854 ], [ 676627.762707375455648, 4669333.499599328264594 ], [ 671058.394137101480737, 4668407.788814904168248 ], [ 660106.556151557713747, 4676780.067343678325415 ], [ 663003.736510239075869, 4680244.47557585965842 ], [ 662370.64830279792659, 4684721.958933963440359 ], [ 664638.482450887328014, 4691806.177822271361947 ], [ 663142.786745028570294, 4694843.284343049861491 ], [ 663332.975279027130455, 4704481.649391048587859 ], [ 665863.383940561907366, 4713477.721397252753377 ] ] ] } },
{ "type": "Feature", "properties": { "drag_region": "East", "NAME": "Clay", "NAMELSAD": "Clay" }, "geometry": { "type": "Polygon", "coordinates": [ [ [ 764966.502218088833615, 4700339.769260739907622 ], [ 793891.675699273589998, 4701035.59195092972368 ], [ 794991.559242534101941, 4658868.530897883698344 ], [ 786677.412242773454636, 4661998.410767042078078 ], [ 783190.830027545802295, 4660290.061359852552414 ], [ 780729.884153121965937, 4664812.418682248331606 ], [ 768073.114992784103379, 4665761.365689761936665 ], [ 765655.238925486803055, 4668857.850247645750642 ], [ 764966.502218088833615, 4700339.769260739907622 ] ] ] } },
{ "type": "Feature", "properties": { "drag_region": "Central", "NAME": "Grant", "NAMELSAD": "Grant" }, "geometry": { "type": "Polygon", "coordinates": [ [ [ 757734.582203435013071, 5079755.975615071132779 ], [ 774901.398153981077485, 5080157.372504106722772 ], [ 775946.209329912438989, 5083430.125203315168619 ], [ 816731.493239897303283, 5084578.927964583039284 ], [ 818339.996772589744069, 5078229.119323479942977 ], [ 819359.538826973410323, 5045877.530047707259655 ], [ 785684.867037481628358, 5044812.354896318167448 ], [ 784897.736774330143817, 5064082.152641411870718 ], [ 758089.326272731064819, 5063627.609481413848698 ], [ 757734.582203435013071, 5079755.975615071132779 ] ] ] } },
{ "type": "Feature", "properties": { "drag_region": "Central", "NAME": "Dewey", "NAMELSAD": "Dewey" }, "geometry": { "type": "Polygon", "coordinates": [ [ [ 343562.287156291422434, 5100062.431655947118998 ], [ 431936.785541285178624, 5097965.589493061415851 ], [ 432726.333615228533745, 5094802.148926651105285 ], [ 437107.245853337342851, 5087762.531142915599048 ], [ 433619.772091603837907, 5080754.472880746237934 ], [ 437715.620603275252506, 5072765.8532923925668 ], [ 436152.93294378137216, 5063053.780822407454252 ], [ 432377.476758114877157, 5056528.075371370650828 ], [ 433151.734424597059842, 5052028.934970955364406 ], [ 435908.332497355702799, 5047593.779745142906904 ], [ 427156.476438542129472, 5048597.216656483709812 ], [ 424537.888664342346601, 5044442.485582050867379 ], [ 425979.933461170818191, 5029621.320853494107723 ], [ 420226.647301156190224, 5025236.606691204942763 ], [ 414718.733560025051702, 5019229.284968908876181 ], [ 409340.390408589504659, 5020288.113095017150044 ], [ 404349.856178413145244, 5026307.853594080545008 ], [ 401224.454157787258737, 5026182.084400771185756 ], [ 400821.72205825621495, 5020557.848892150446773 ], [ 394272.394183751544915, 5019935.712339294143021 ], [ 392049.33581757103093, 5022181.236651763319969 ], [ 384914.418233433854766, 5020818.000088573433459 ], [ 376551.993495606351644, 5015959.968574595637619 ], [ 374037.152299323352054, 5017741.740237386897206 ], [ 367523.786574786761776, 5018768.985159334726632 ], [ 368245.019958493765444, 5046157.068899906240404 ], [ 339670.001432759745512, 5046975.199239728040993 ], [ 340954.061559555935673, 5051902.773454410023987 ], [ 342141.975654917187057, 5090457.966073812916875 ], [ 343265.908963812980801, 5090423.333286566659808 ], [ 343562.287156291422434, 5100062.431655947118998 ] ] ] } },
{ "type": "Feature", "properties": { "drag_region": "East", "NAME": "Yankton", "NAMELSAD": "Yankton" }, "geometry": { "type": "Polygon", "coordinates": [ [ [ 713573.922000958933495, 4713659.639836057089269 ], [ 752374.356572506716475, 4714592.296165027655661 ], [ 753274.625578967388719, 4673474.721217392012477 ], [ 748841.573205394437537, 4674811.027200025506318 ], [ 748471.45106834161561, 4678429.93422434758395 ], [ 741091.038517085136846, 4680663.667768404819071 ], [ 736719.066673199064098, 4679241.117680662311614 ], [ 732296.930482261348516, 4680397.121398945339024 ], [ 730285.155743944458663, 4678164.665720285847783 ], [ 726757.049491462646984, 4678577.397424231283367 ], [ 714438.078894442645833, 4678462.081574868410826 ], [ 713573.922000958933495, 4713659.639836057089269 ] ] ] } },
{ "type": "Feature", "properties": { "drag_region": "West", "NAME": "Jackson", "NAMELSAD": "Jackson" }, "geometry": { "type": "Polygon", "coordinates": [ [ [ 162996.24094791727839, 4821217.70125631429255 ], [ 171334.939389109727927, 4819569.363700185902417 ], [ 172572.086779261240736, 4821721.630853996612132 ], [ 173730.16862633661367, 4853400.022733649238944 ], [ 250289.346677710767835, 4851133.512612722814083 ], [ 249862.020564801059663, 4834054.240476871840656 ], [ 248154.85295430070255, 4835051.861321246251464 ], [ 242038.9100649143802, 4833013.080653155222535 ], [ 236720.83700912212953, 4828571.110157399438322 ], [ 235531.07963655074127, 4784205.164321772754192 ], [ 164017.047612703347113, 4786590.728018782101572 ], [ 164377.060732426296454, 4796227.362292975187302 ], [ 162054.597224338387605, 4796314.597743756137788 ], [ 162996.24094791727839, 4821217.70125631429255 ] ] ] } },
{ "type": "Feature", "properties": { "drag_region": "East", "NAME": "Lincoln", "NAMELSAD": "Lincoln" }, "geometry": { "type": "Polygon", "coordinates": [ [ [ 789260.049198604887351, 4760078.517844534479082 ], [ 815666.92057665262837, 4760789.381254362873733 ], [ 817178.929544455022551, 4758732.429400825873017 ], [ 815248.582114060525782, 4755143.474481569603086 ], [ 821819.446910402853973, 4749224.154109022580087 ], [ 821839.632472297758795, 4738720.630398043431342 ], [ 817777.41380266204942, 4738124.186791670508683 ], [ 819932.919660671497695, 4734176.484026620164514 ], [ 819464.373360032681376, 4730247.782059163786471 ], [ 826469.20928597310558, 4730169.234245628118515 ], [ 827291.902658284176141, 4722268.146385288797319 ], [ 830020.907664716476575, 4719008.896208082325757 ], [ 828685.547836948069744, 4714861.933538636192679 ], [ 790410.314749633544125, 4713806.688909089192748 ], [ 789260.049198604887351, 4760078.517844534479082 ] ] ] } },
{ "type": "Feature", "properties": { "drag_region": "West", "NAME": "Meade", "NAMELSAD": "Meade" }, "geometry": { "type": "Polygon", "coordinates": [ [ [ 35701.600366102953558, 4948450.858167666010559 ], [ 83555.42355635635613, 4945944.188372435048223 ], [ 86484.500390576911741, 4994299.084217070601881 ], [ 161957.303093858412467, 4990861.853036615997553 ], [ 159798.739111804286949, 4932364.475625187158585 ], [ 156628.557018847553991, 4931621.676226881332695 ], [ 150349.306405982992146, 4924308.86258886102587 ], [ 146313.089987590035889, 4923508.174296436831355 ], [ 141850.858250636549201, 4926453.98444256093353 ], [ 134915.740713459206745, 4924723.863976485095918 ], [ 135221.394929774280172, 4918116.509512888267636 ], [ 131958.994822243577801, 4915381.424294469878078 ], [ 129277.946592246837099, 4905932.882239197380841 ], [ 129989.015986652651918, 4902271.572319188155234 ], [ 126996.06493677078106, 4899336.018566064536572 ], [ 125929.932300038242829, 4894409.713067956268787 ], [ 127282.425484859049902, 4892346.541854852810502 ], [ 42015.63545506245282, 4896511.09012261684984 ], [ 42715.00696106722171, 4909393.511011779308319 ], [ 32967.085731222483446, 4909834.834878152236342 ], [ 35701.600366102953558, 4948450.858167666010559 ] ] ] } },
{ "type": "Feature", "properties": { "drag_region": "Central", "NAME": "Walworth", "NAMELSAD": "Walworth" }, "geometry": { "type": "Polygon", "coordinates": [ [ [ 444174.920568887842819, 5118034.893879976123571 ], [ 500443.931061529612634, 5117188.763023576699197 ], [ 500103.197388846951071, 5078536.538845549337566 ], [ 456726.103948734991718, 5079161.854386541992426 ], [ 452630.255437063577119, 5087150.473974895663559 ], [ 456117.729198797082063, 5094158.532237065024674 ], [ 451736.816960688272957, 5101198.15002080053091 ], [ 450947.268886744917836, 5104361.590587210841477 ], [ 447095.523921168234665, 5108818.528257550671697 ], [ 442884.989251652674284, 5108606.474870165809989 ], [ 439575.366668292786926, 5111626.521351589821279 ], [ 444174.920568887842819, 5118034.893879976123571 ] ] ] } },
{ "type": "Feature", "properties": { "drag_region": "West", "NAME": "Jones", "NAMELSAD": "Jones" }, "geometry": { "type": "Polygon", "coordinates": [ [ [ 270918.295651442196686, 4856273.099441264756024 ], [ 272357.29395226878114, 4856237.202063424512744 ], [ 272836.762783201702405, 4875511.492816089652479 ], [ 327358.563895168714225, 4874379.399431778118014 ], [ 326767.400302129855845, 4838694.195856248028576 ], [ 328786.966012665943708, 4838661.143707433715463 ], [ 328841.239530227787327, 4824153.945351103320718 ], [ 325986.214005355664995, 4826395.658454823307693 ], [ 318153.262470760382712, 4824907.56653608661145 ], [ 309001.990005662490148, 4830325.693053904920816 ], [ 301074.187130214937497, 4824182.396634617820382 ], [ 295600.267948103777599, 4825250.242654538713396 ], [ 295925.583916152303573, 4826961.548206438310444 ], [ 293295.4970098984777, 4825681.130014528520405 ], [ 290506.872005775745492, 4830418.987371092662215 ], [ 288762.884844022395555, 4829980.139227296225727 ], [ 285964.283548879844602, 4834052.150782752782106 ], [ 280853.915743341261987, 4837892.86781504098326 ], [ 279354.613012882589828, 4835541.483202867209911 ], [ 275996.332625400391407, 4840013.250119308941066 ], [ 270490.969538532488514, 4839193.827305413782597 ], [ 270918.295651442196686, 4856273.099441264756024 ] ] ] } },
{ "type": "Feature", "properties": { "drag_region": "West", "NAME": "Harding", "NAMELSAD": "Harding" }, "geometry": { "type": "Polygon", "coordinates": [ [ [ -10066.679801348160254, 5132971.210787924937904 ], [ 75332.773265891737537, 5128147.230813418515027 ], [ 74167.121906254760688, 5104573.998950545676053 ], [ 70202.51177068889956, 5046891.109588504768908 ], [ -14911.435986269119894, 5051644.860775373876095 ], [ -10066.679801348160254, 5132971.210787924937904 ] ] ] } },
{ "type": "Feature", "properties": { "drag_region": "Central", "NAME": "Corson", "NAMELSAD": "Corson" }, "geometry": { "type": "Polygon", "coordinates": [ [ [ 296156.776259392558131, 5170000.480831468477845 ], [ 412442.475378829287365, 5166622.931650039739907 ], [ 420924.148780747025739, 5158258.520619404502213 ], [ 421657.85505848826142, 5152326.519371217116714 ], [ 426759.097203546087258, 5140211.682497631758451 ], [ 424441.129067699715961, 5135285.665217031724751 ], [ 419103.479990234074648, 5133945.009893007576466 ], [ 417035.053931636677589, 5127776.031154534779489 ], [ 412435.500031041621696, 5121367.658626148477197 ], [ 415745.122614401509054, 5118347.612144724465907 ], [ 419955.657283917069435, 5118559.665532109327614 ], [ 423807.402249493752606, 5114102.727861769497395 ], [ 335432.903864499996416, 5116199.570024655200541 ], [ 294191.843115314142779, 5117604.242284674197435 ], [ 296156.776259392558131, 5170000.480831468477845 ] ] ] } },
{ "type": "Feature", "properties": { "drag_region": "East", "NAME": "Tripp", "NAMELSAD": "Tripp" }, "geometry": { "type": "Polygon", "coordinates": [ [ [ 439952.770982558140531, 4783842.682944307103753 ], [ 441353.909852375218179, 4780768.280964846722782 ], [ 443121.095006292918697, 4782937.575433153659105 ], [ 449163.241248437610921, 4780563.337574602104723 ], [ 457582.755177244893275, 4782936.504796038381755 ], [ 458140.330031516088638, 4781212.108732703141868 ], [ 466246.661512330290861, 4781786.892782810144126 ], [ 469111.964040342427325, 4779179.981312056072056 ], [ 474646.073069779144134, 4782941.156039527617395 ], [ 478405.268786154862028, 4782905.995539223775268 ], [ 483079.157624422514345, 4788494.800859488546848 ], [ 483916.005313973641023, 4784862.011985204182565 ], [ 485394.391654552309774, 4788952.867149313911796 ], [ 488841.870141816791147, 4786349.822923369705677 ], [ 488652.91279484127881, 4761162.133410006761551 ], [ 489221.12098351388704, 4759535.914310211315751 ], [ 495895.128497013298329, 4759489.849204707890749 ], [ 495539.86063253582688, 4703775.344040569849312 ], [ 441414.898993137583602, 4704332.79979691747576 ], [ 441620.459205796534661, 4718738.142607350833714 ], [ 440160.694090588600375, 4718759.154628501273692 ], [ 440724.203508607868571, 4757492.971657000482082 ], [ 439564.459925786475651, 4757605.425362561829388 ], [ 439952.770982558140531, 4783842.682944307103753 ] ] ] } },
{ "type": "Feature", "properties": { "drag_region": "East", "NAME": "Jerauld", "NAMELSAD": "Jerauld" }, "geometry": { "type": "Polygon", "coordinates": [ [ [ 580078.808283301070333, 4859692.219156449660659 ], [ 627690.205434166360646, 4859907.311577834188938 ], [ 627924.292310487246141, 4831091.916325382888317 ], [ 580104.729955365881324, 4830590.652150858193636 ], [ 580078.808283301070333, 4859692.219156449660659 ] ] ] } },
{ "type": "Feature", "properties": { "drag_region": "East", "NAME": "Moody", "NAMELSAD": "Moody" }, "geometry": { "type": "Polygon", "coordinates": [ [ [ 791125.786623118910939, 4863730.215953149832785 ], [ 825828.845643127802759, 4864809.750307196751237 ], [ 827020.240076686488464, 4826261.042349555529654 ], [ 792116.188894575694576, 4825086.515509685501456 ], [ 791125.786623118910939, 4863730.215953149832785 ] ] ] } },
{ "type": "Feature", "properties": { "drag_region": "Central", "NAME": "Sully", "NAMELSAD": "Sully" }, "geometry": { "type": "Polygon", "coordinates": [ [ [ 441834.947450595500413, 5022920.893207808956504 ], [ 499647.300113474659156, 5022180.60292811691761 ], [ 499041.070153675333131, 4983344.548964731395245 ], [ 431469.004404204897583, 4984161.040326186455786 ], [ 424099.66984644101467, 4986498.690408241935074 ], [ 422173.850220963300671, 4989973.886364184319973 ], [ 424977.559672674862668, 5002041.686681663617492 ], [ 423622.850613462505862, 5005409.940840413793921 ], [ 416881.038745924946852, 5009271.939996122382581 ], [ 417283.770845455990639, 5014896.175504743121564 ], [ 420409.172866081877146, 5015021.944698052480817 ], [ 425399.707096258236561, 5009002.204198989085853 ], [ 430778.050247693783604, 5007943.376072880811989 ], [ 436285.963988824922126, 5013950.697795176878572 ], [ 442039.250148839550093, 5018335.411957466043532 ], [ 441834.947450595500413, 5022920.893207808956504 ] ] ] } },
{ "type": "Feature", "properties": { "drag_region": "Central", "NAME": "Faulk", "NAMELSAD": "Faulk" }, "geometry": { "type": "Polygon", "coordinates": [ [ [ 526480.816274721059017, 5070740.513971815817058 ], [ 593521.181109875324182, 5070428.690938747487962 ], [ 593938.714597371174023, 5031875.222981262020767 ], [ 526206.622906036674976, 5031995.188507457263768 ], [ 526480.816274721059017, 5070740.513971815817058 ] ] ] } },
{ "type": "Feature", "properties": { "drag_region": "East", "NAME": "McCook", "NAMELSAD": "McCook" }, "geometry": { "type": "Polygon", "coordinates": [ [ [ 713280.376402505324222, 4810836.859793491661549 ], [ 751941.891827354789712, 4811504.095059209503233 ], [ 752816.005451655015349, 4772767.296419962309301 ], [ 714219.9384766764706, 4772105.352744656614959 ], [ 713280.376402505324222, 4810836.859793491661549 ] ] ] } },
{ "type": "Feature", "properties": { "drag_region": "West", "NAME": "Mellette", "NAMELSAD": "Mellette" }, "geometry": { "type": "Polygon", "coordinates": [ [ [ 269563.257248753448948, 4828111.026805621571839 ], [ 275068.620335621351842, 4828930.449619516730309 ], [ 278426.900723103550263, 4824458.682703074999154 ], [ 279926.203453562222421, 4826810.067315248772502 ], [ 285036.571259100805037, 4822969.350282960571349 ], [ 287835.172554243355989, 4818897.338727504014969 ], [ 289579.159715996705927, 4819336.186871300451458 ], [ 292367.784720119438134, 4814598.329514736309648 ], [ 294997.871626373264007, 4815878.747706646099687 ], [ 294672.555658324738033, 4814167.442154746502638 ], [ 300146.474840435897931, 4813099.596134825609624 ], [ 308074.277715883450583, 4819242.892554112710059 ], [ 317225.550180981343146, 4813824.766036294400692 ], [ 325058.501715576625429, 4815312.857955031096935 ], [ 327913.527240448747762, 4813071.14485131110996 ], [ 332505.86327570292633, 4810803.685654252767563 ], [ 336583.421556168352254, 4812650.617745942436159 ], [ 336195.110499396687374, 4786413.360164197161794 ], [ 337354.854082218080293, 4786300.906458635814488 ], [ 337214.327680228743702, 4776664.942315530963242 ], [ 255232.316320503159659, 4778261.950650522485375 ], [ 256422.073693074547919, 4822627.896486149169505 ], [ 261740.146748866798589, 4827069.866981904953718 ], [ 267856.089638253091834, 4829108.647649995982647 ], [ 269563.257248753448948, 4828111.026805621571839 ] ] ] } },
{ "type": "Feature", "properties": { "drag_region": "Central", "NAME": "Roberts", "NAMELSAD": "Roberts" }, "geometry": { "type": "Polygon", "coordinates": [ [ [ 751424.572774062631652, 5163576.247945188544691 ], [ 802899.68485558021348, 5164934.569904978387058 ], [ 802157.486656128661707, 5152683.969364307820797 ], [ 798384.701811519800685, 5148176.522471235133708 ], [ 795211.899857559008524, 5142065.283115624450147 ], [ 789172.785154798533767, 5138167.313331922516227 ], [ 782346.637136658886448, 5132057.629250479862094 ], [ 781065.472404761356302, 5127629.863584632985294 ], [ 788603.17583140800707, 5118475.484675859101117 ], [ 791322.597664289874956, 5111579.266946183517575 ], [ 795402.588858919683844, 5106442.293470252305269 ], [ 800469.297755990177393, 5106208.234514624811709 ], [ 808164.599988614674658, 5102810.818434656597674 ], [ 812269.977319805882871, 5097493.420901978388429 ], [ 771484.693409821018577, 5096344.618140710517764 ], [ 770439.882233889657073, 5093071.865441502071917 ], [ 753273.066283343592659, 5092670.468552466481924 ], [ 751424.572774062631652, 5163576.247945188544691 ] ] ] } },
{ "type": "Feature", "properties": { "drag_region": "West", "NAME": "Oglala Lakota", "NAMELSAD": "Oglala Lakota" }, "geometry": { "type": "Polygon", "coordinates": [ [ [ 91322.619802065542899, 4812145.220117090269923 ], [ 142528.755269867717288, 4809986.500016464851797 ], [ 145479.548781143006636, 4811402.932500008493662 ], [ 144537.90505756411585, 4786499.8289874503389 ], [ 146860.368565652024699, 4786412.593536669388413 ], [ 145420.25563259748742, 4747771.269662193953991 ], [ 147756.03905472237966, 4747684.900013098493218 ], [ 147226.447896043246146, 4733278.340797169134021 ], [ 72325.260722464998253, 4736535.066458308137953 ], [ 75551.827122089569457, 4803803.431901342235506 ], [ 81124.012867532437667, 4804971.48216846305877 ], [ 83733.224547354213428, 4811064.212788161821663 ], [ 89432.330788058054168, 4808885.65359528362751 ], [ 91322.619802065542899, 4812145.220117090269923 ] ] ] } },
{ "type": "Feature", "properties": { "drag_region": "West", "NAME": "Stanley", "NAMELSAD": "Stanley" }, "geometry": { "type": "Polygon", "coordinates": [ [ [ 266171.207906580297276, 4952655.936184927821159 ], [ 272684.573631116887555, 4951628.691262979991734 ], [ 275199.414827399887145, 4949846.919600188732147 ], [ 283561.839565227390267, 4954704.951114166527987 ], [ 290696.75714936456643, 4956068.187677356414497 ], [ 292919.815515545080416, 4953822.663364887237549 ], [ 299469.143390049808659, 4954444.7999177435413 ], [ 306210.955257587367669, 4950582.800762034952641 ], [ 307565.664316799724475, 4947214.546603284776211 ], [ 304761.95486508810427, 4935146.746285805478692 ], [ 306687.774490565876476, 4931671.550329863093793 ], [ 314057.109048329759389, 4929333.900247807614505 ], [ 313705.817396180937067, 4925808.574251659214497 ], [ 310231.147982121561654, 4923201.780814415775239 ], [ 309595.784371954738162, 4919873.007648477330804 ], [ 313271.881867957185023, 4917893.851114613004029 ], [ 318159.99457497720141, 4919617.598356567323208 ], [ 323294.692001749528572, 4919240.755813723430037 ], [ 324973.988956148736179, 4917207.604898661375046 ], [ 326531.798748001107015, 4907827.494220460765064 ], [ 337065.226578780799173, 4904319.940492962487042 ], [ 342501.504123750841245, 4904144.997795457020402 ], [ 348773.789687293348834, 4902245.598229830153286 ], [ 356735.60612580680754, 4897659.677510590292513 ], [ 361603.453987523447722, 4897412.177844058722258 ], [ 364151.692161374492571, 4894616.511254942975938 ], [ 360367.013023708714172, 4889505.481811896897852 ], [ 326233.191533271688968, 4889888.682861372828484 ], [ 326185.622102520777844, 4887026.151027014479041 ], [ 262194.180011939723045, 4888401.009397685527802 ], [ 262705.527811965672299, 4907771.274155583232641 ], [ 263563.860974571900442, 4907748.636447221040726 ], [ 264581.212827442912385, 4946299.836298531852663 ], [ 266003.289535841438919, 4946262.349594218656421 ], [ 266171.207906580297276, 4952655.936184927821159 ] ] ] } },
{ "type": "Feature", "properties": { "drag_region": "West", "NAME": "Ziebach", "NAMELSAD": "Ziebach" }, "geometry": { "type": "Polygon", "coordinates": [ [ [ 178090.253399189095944, 4943301.482820833101869 ], [ 182045.715429066854995, 5050088.406442690640688 ], [ 223286.776178252708632, 5048683.734182671643794 ], [ 222990.397985774266999, 5039044.635813291184604 ], [ 221866.464676878473256, 5039079.268600537441671 ], [ 220678.550581517221872, 5000524.075981134548783 ], [ 219394.490454721031711, 4995596.501766452565789 ], [ 247969.508980455051642, 4994778.3714266307652 ], [ 247248.275596748047974, 4967390.287686059251428 ], [ 240267.417752452485729, 4961656.630088789388537 ], [ 230009.908196159114596, 4961276.395221810787916 ], [ 228797.318766336364206, 4958732.862963055260479 ], [ 222448.661635401484091, 4955959.615608043968678 ], [ 217985.506749633292202, 4949791.125366535969079 ], [ 207981.659092723566573, 4949150.225865979678929 ], [ 205178.475605744170025, 4950673.958009829744697 ], [ 198557.758997892960906, 4948887.207867156714201 ], [ 193561.623880205443129, 4944662.451557808555663 ], [ 182744.336079867265653, 4945616.480911074206233 ], [ 178090.253399189095944, 4943301.482820833101869 ] ] ] } },
{ "type": "Feature", "properties": { "drag_region": "Central", "NAME": "Campbell", "NAMELSAD": "Campbell" }, "geometry": { "type": "Polygon", "coordinates": [ [ [ 438437.21728902409086, 5165773.2479751938954 ], [ 498806.074406638043001, 5164646.802936211228371 ], [ 498738.89762365660863, 5126085.19224023912102 ], [ 443029.795841831481084, 5126926.347479688934982 ], [ 445098.221900428878143, 5133095.326218161731958 ], [ 450435.870977894519456, 5134435.981542185880244 ], [ 452753.839113740890753, 5139361.998822785913944 ], [ 447652.596968683064915, 5151476.835696371272206 ], [ 446918.890690941829234, 5157408.836944558657706 ], [ 438437.21728902409086, 5165773.2479751938954 ] ] ] } },
{ "type": "Feature", "properties": { "drag_region": "East", "NAME": "Brookings", "NAMELSAD": "Brookings" }, "geometry": { "type": "Polygon", "coordinates": [ [ [ 768259.883388228015974, 4914540.730657601729035 ], [ 821862.204219223582186, 4916086.588830702938139 ], [ 823061.102403557044454, 4877535.99217910785228 ], [ 769140.787083655130118, 4875990.541414381936193 ], [ 768259.883388228015974, 4914540.730657601729035 ] ] ] } },
{ "type": "Feature", "properties": { "drag_region": "West", "NAME": "Haakon", "NAMELSAD": "Haakon" }, "geometry": { "type": "Polygon", "coordinates": [ [ [ 178201.80812554404838, 4925875.989399131387472 ], [ 183141.183861005993094, 4928180.502675580792129 ], [ 193958.47166134417057, 4927226.473322315141559 ], [ 198954.606779031688347, 4931451.229631663300097 ], [ 205575.323386882897466, 4933237.979774336330593 ], [ 208378.506873862294015, 4931714.247630486264825 ], [ 218382.354530772019643, 4932355.147131042554975 ], [ 222845.509416540211532, 4938523.637372550554574 ], [ 229194.166547475091647, 4941296.884727561846375 ], [ 230406.755977297842037, 4943840.416986317373812 ], [ 240664.26553359121317, 4944220.651853295974433 ], [ 247645.123377886775415, 4949954.309450565837324 ], [ 247477.205007147917058, 4943560.722859856672585 ], [ 246055.128298749332316, 4943598.209564169868827 ], [ 245037.776445878378581, 4905047.00971285905689 ], [ 244179.443283272150438, 4905069.647421221248806 ], [ 243668.095483246201184, 4885699.382663323543966 ], [ 253137.736461860185955, 4885456.61767696402967 ], [ 252658.26763092726469, 4866182.326924298889935 ], [ 175814.817748496861896, 4868538.057841499336064 ], [ 178201.80812554404838, 4925875.989399131387472 ] ] ] } },
{ "type": "Feature", "properties": { "drag_region": "Central", "NAME": "Beadle", "NAMELSAD": "Beadle" }, "geometry": { "type": "Polygon", "coordinates": [ [ [ 609682.284898924408481, 4984985.090346935205162 ], [ 676872.287997440784238, 4985291.582464075647295 ], [ 677835.940348823671229, 4936821.598590677604079 ], [ 610144.658161787199788, 4936416.909876719117165 ], [ 609682.284898924408481, 4984985.090346935205162 ] ] ] } },
{ "type": "Feature", "properties": { "drag_region": "East", "NAME": "Hanson", "NAMELSAD": "Hanson" }, "geometry": { "type": "Polygon", "coordinates": [ [ [ 673911.837570762610994, 4810175.08423248399049 ], [ 702764.263463677489199, 4810406.815736670047045 ], [ 703703.825537848635577, 4771675.308687835000455 ], [ 674687.312236239900813, 4771156.340530263260007 ], [ 673911.837570762610994, 4810175.08423248399049 ] ] ] } },
{ "type": "Feature", "properties": { "drag_region": "Central", "NAME": "Hamlin", "NAMELSAD": "Hamlin" }, "geometry": { "type": "Polygon", "coordinates": [ [ [ 728552.471604284713976, 5010462.73160988278687 ], [ 776523.862057265709154, 5011532.420751709491014 ], [ 777274.856586841517128, 4982618.341802486218512 ], [ 729088.025449613574892, 4981548.774516684003174 ], [ 728552.471604284713976, 5010462.73160988278687 ] ] ] } },
{ "type": "Feature", "properties": { "drag_region": "Central", "NAME": "Day", "NAMELSAD": "Day" }, "geometry": { "type": "Polygon", "coordinates": [ [ [ 678302.225627694861032, 5067373.685729518532753 ], [ 677970.701103989384137, 5115763.646980460733175 ], [ 725289.079968328005634, 5116449.549452108331025 ], [ 725915.180186482612044, 5113215.995614930056036 ], [ 736560.028937132912688, 5113441.947916944511235 ], [ 737835.281267669401132, 5068306.862776505760849 ], [ 678302.225627694861032, 5067373.685729518532753 ] ] ] } },
{ "type": "Feature", "properties": { "drag_region": "Central", "NAME": "McPherson", "NAMELSAD": "McPherson" }, "geometry": { "type": "Polygon", "coordinates": [ [ [ 513845.29967233777279, 5162868.182064993306994 ], [ 590913.959259244147688, 5162461.984157235361636 ], [ 591046.589550331467763, 5123807.385518450289965 ], [ 513778.122889356338419, 5124306.571369021199644 ], [ 513845.29967233777279, 5162868.182064993306994 ] ] ] } },
{ "type": "Feature", "properties": { "drag_region": "East", "NAME": "Charles Mix", "NAMELSAD": "Charles Mix" }, "geometry": { "type": "Polygon", "coordinates": [ [ [ 551447.267962534329854, 4757323.286272183060646 ], [ 599326.577288486296311, 4757323.171351602301002 ], [ 599086.599332733429037, 4743011.475971148349345 ], [ 601411.851377692539245, 4743306.237398016266525 ], [ 647855.005303409532644, 4724084.76027009729296 ], [ 650514.369918913813308, 4720964.998074499890208 ], [ 647983.961257379152812, 4711968.92606829572469 ], [ 647793.772723380592652, 4702330.561020296998322 ], [ 649289.468429239350371, 4699293.454499518498778 ], [ 647021.634281149832532, 4692209.23561121057719 ], [ 647654.722488591098227, 4687731.752253106795251 ], [ 644757.542129909736104, 4684267.344020925462246 ], [ 642999.469808282912709, 4684059.052462776191533 ], [ 635922.57785092073027, 4688190.940704580396414 ], [ 631811.395415519946255, 4689014.610027213580906 ], [ 628862.424624648992904, 4691280.685976044274867 ], [ 618868.394269014126621, 4696170.992597832344472 ], [ 614125.743827239493839, 4706350.414089505560696 ], [ 606506.758560697431676, 4710127.521318876184523 ], [ 600661.57382568763569, 4710389.602565424516797 ], [ 593920.124332631472498, 4718095.374931568279862 ], [ 587205.622828615945764, 4719034.433174015954137 ], [ 585450.606487759505399, 4721798.221978022716939 ], [ 585442.855651355464943, 4727045.251371306367218 ], [ 583691.306681677582674, 4729237.117019324563444 ], [ 576989.156676676822826, 4730567.861885565333068 ], [ 569711.753791864379309, 4737439.009797289967537 ], [ 561879.30869798164349, 4750138.834254680201411 ], [ 554618.039741718326695, 4750443.519353336654603 ], [ 550273.7410830904264, 4753892.92787975538522 ], [ 551447.267962534329854, 4757323.286272183060646 ] ] ] } },
{ "type": "Feature", "properties": { "drag_region": "Central", "NAME": "Brown", "NAMELSAD": "Brown" }, "geometry": { "type": "Polygon", "coordinates": [ [ [ 604690.706927871680818, 5158592.189045828767121 ], [ 662567.849413126707077, 5158680.528689811006188 ], [ 663269.033455787226558, 5081465.829340592958033 ], [ 605236.536235008155927, 5081381.749748637899756 ], [ 604690.706927871680818, 5158592.189045828767121 ] ] ] } },
{ "type": "Feature", "properties": { "drag_region": "Central", "NAME": "Deuel", "NAMELSAD": "Deuel" }, "geometry": { "type": "Polygon", "coordinates": [ [ [ 790036.117553548072465, 4984662.841000994667411 ], [ 789068.027145288418978, 5032765.573605213314295 ], [ 822742.698934780200943, 5033830.748756602406502 ], [ 824232.637117564794607, 4995382.117561174556613 ], [ 824251.807914913049899, 4985639.845902199856937 ], [ 790036.117553548072465, 4984662.841000994667411 ] ] ] } }
]
}
