{
"type": "FeatureCollection",
"name": "map",
"crs": { "type": "name", "properties": { "name": "urn:ogc:def:crs:EPSG::32604" } },
"features": [
{ "type": "Feature", "properties": { "drag_region": "Central", "NAME": "Maui", "NAMELSAD": "Maui" }, "geometry": { "type": "MultiPolygon", "coordinates": [ [ [ [ 688281.647117618122138, 2375328.657538319472224 ], [ 690053.915492708445527, 2381919.669752524234354 ], [ 694081.748271773918532, 2387307.241067442111671 ], [ 699297.972009713645093, 2387956.076262476854026 ], [ 704197.838662601658143, 2384890.386527775321156 ], [ 708046.144832092453726, 2377527.12615116359666 ], [ 711855.611217744299211, 2372828.442028149496764 ], [ 720776.45168450626079, 2375731.214171867351979 ], [ 727444.327422528178431, 2379172.41248904587701 ], [ 737189.153032704605721, 2377339.280392953194678 ], [ 737215.464953868300654, 2375816.767667811363935 ], [ 743651.749227277003229, 2371074.508775523863733 ], [ 747414.112523093470372, 2369713.341985666658729 ], [ 749351.017383577651344, 2365940.237222343217582 ], [ 761005.224288814119063, 2362630.607246901839972 ], [ 762931.750027181697078, 2359619.977354357019067 ], [ 763024.061713463277556, 2354671.087659829296172 ], [ 760106.709794800379314, 2350523.330253476742655 ], [ 755311.310751160955988, 2346627.79082409478724 ], [ 753060.624453681637533, 2346872.770980773493648 ], [ 746758.753328547463752, 2343333.842768468894064 ], [ 741502.056126050767489, 2344194.125478306785226 ], [ 730357.784543388639577, 2338960.971295409370214 ], [ 722510.126080637215637, 2337976.196579992305487 ], [ 716107.108366753323935, 2340348.597406994085759 ], [ 713174.25723483832553, 2360287.263463669456542 ], [ 710527.715500824153423, 2362149.147449117153883 ], [ 705329.436225909856148, 2359785.128460494335741 ], [ 695539.997834299807437, 2364396.382842499297112 ], [ 690602.168681275215931, 2369843.292931021656841 ], [ 688281.647117618122138, 2375328.657538319472224 ] ] ], [ [ [ 688518.465010062558576, 2332324.948826674371958 ], [ 691100.093805807176977, 2335120.747738035861403 ], [ 701501.632460669963621, 2340695.862795606255531 ], [ 705287.303761000512168, 2337897.90323571767658 ], [ 703852.752588073723018, 2333689.424289401154965 ], [ 705749.221605615806766, 2332100.250711025670171 ], [ 700908.112664680811577, 2330220.030079330783337 ], [ 699014.767806116025895, 2331619.448463963344693 ], [ 692306.050409428193234, 2329333.896266325842589 ], [ 688518.465010062558576, 2332324.948826674371958 ] ] ], [ [ [ 655055.715241592028178, 2404185.986370232421905 ], [ 662919.120510656386614, 2401527.311285031959414 ], [ 665200.884965179371648, 2398132.07970967842266 ], [ 667411.799248903989792, 2400159.138343894388527 ], [ 665144.763681570766494, 2402412.609222212340683 ], [ 670369.069736370118335, 2402101.423083431553096 ], [ 680411.184412081260234, 2403952.102625352796167 ], [ 686783.076418506447226, 2401664.099234280176461 ], [ 683874.714740749797784, 2396389.113277530763298 ], [ 677228.303053172421642, 2391443.516347600612789 ], [ 669793.706423969124444, 2389344.747217116877437 ], [ 656697.436100938473828, 2392219.718303474131972 ], [ 646964.112052737618797, 2395049.412559867836535 ], [ 641385.767710022977553, 2393651.782729083672166 ], [ 630575.717699813656509, 2393053.970285153947771 ], [ 624591.52531843574252, 2394606.362175317946821 ], [ 626775.668844901840203, 2399575.869415893685073 ], [ 630100.487222398049198, 2402370.539286690764129 ], [ 629294.553731936844997, 2407878.691613886039704 ], [ 635631.087805505725555, 2407759.206358308903873 ], [ 636764.159896733704954, 2406440.373436889611185 ], [ 655055.715241592028178, 2404185.986370232421905 ] ] ], [ [ [ 650588.055692913592793, 2373023.22414145199582 ], [ 653170.651960286428221, 2375623.098637696355581 ], [ 658018.620500119403005, 2376158.80799716943875 ], [ 667750.213148371782154, 2374476.005407717544585 ], [ 674175.496752983191982, 2368852.972284882795066 ], [ 677230.145702135981992, 2364042.07432075496763 ], [ 673949.822459988645278, 2357813.648000730667263 ], [ 666883.179322053794749, 2354961.706697311718017 ], [ 660533.575812660739757, 2354405.114116745069623 ], [ 657845.706215996178798, 2360079.406803085468709 ], [ 656638.555784218362533, 2367008.965918607078493 ], [ 651371.766954861697741, 2369988.595276617445052 ], [ 650588.055692913592793, 2373023.22414145199582 ] ] ] ] } },
{ "type": "Feature", "properties": { "drag_region": "East", "NAME": "Hawaii", "NAMELSAD": "Hawaii" }, "geometry": { "type": "Polygon", "coordinates": [ [ [ 869647.220211888314225, 2135945.411559130065143 ], [ 870327.174940162571147, 2140145.49318679375574 ], [ 877348.999553849105723, 2147504.097550598438829 ], [ 881851.69796323182527, 2148251.655391671694815 ], [ 886579.194811945431866, 2157192.026864101178944 ], [ 892502.684848625329323, 2162253.531836900860071 ], [ 893525.791771877091378, 2167795.100254619028419 ], [ 886969.591461826814339, 2176621.076616530306637 ], [ 885387.25036839756649, 2180875.769680553115904 ], [ 884825.103105012676679, 2190861.847068669740111 ], [ 887761.099287838325836, 2194439.760159225668758 ], [ 894532.2448029484367, 2193712.243896958883852 ], [ 901347.458161469898187, 2190798.072595546022058 ], [ 902533.632174309692346, 2187774.358640159014612 ], [ 910877.977067362749949, 2183750.752862247172743 ], [ 916602.884291177964769, 2179391.070427814032882 ], [ 921099.117925644502975, 2180054.954902057535946 ], [ 930555.759555160650052, 2177205.380184065550566 ], [ 945372.662524825544097, 2170190.903566396795213 ], [ 950300.535332170664333, 2168489.899244461208582 ], [ 958705.006886936724186, 2162867.208851430099458 ], [ 964848.600254579214379, 2157576.593596063088626 ], [ 971414.472234357264824, 2150486.806429621297866 ], [ 970388.696526011102833, 2145984.634336771443486 ], [ 970963.388473206548952, 2137422.379152726847678 ], [ 973999.61916127812583, 2136539.822486384771764 ], [ 980001.442095142090693, 2137823.793196870945394 ], [ 982767.648020630236715, 2132457.362415682058781 ], [ 982519.004384556319565, 2127019.646411397960037 ], [ 991001.446969049866311, 2119406.906419836916029 ], [ 999391.285244400496595, 2115892.865777566563338 ], [ 1001326.936713829520158, 2113938.597320673521608 ], [ 999919.641227795393206, 2109710.423611185047776 ], [ 995129.689605287858285, 2104733.737733589485288 ], [ 988817.553813395206816, 2100104.084596995264292 ], [ 983655.413679091841914, 2094646.452327371807769 ], [ 975050.943763946183026, 2090827.430100593948737 ], [ 967596.06066205969546, 2086181.370717184385285 ], [ 960077.388641686295159, 2084300.447683114791289 ], [ 954001.461585860466585, 2085597.461996141588315 ], [ 950619.772777773672715, 2084667.587409747531638 ], [ 943951.427080500288866, 2078239.975613457849249 ], [ 937954.187054747599177, 2075734.414534776704386 ], [ 933133.883932084892876, 2071064.512443620013073 ], [ 927872.282854135963134, 2069434.957796931499615 ], [ 923446.634797731763683, 2063728.776921671116725 ], [ 923886.542517782072537, 2060594.946662016911432 ], [ 920929.62369725399185, 2057013.796670004492626 ], [ 919146.918000867939554, 2051361.130792360054329 ], [ 911692.986486939829774, 2045220.255746522219852 ], [ 905908.33963337878231, 2050919.866547371959314 ], [ 897495.444128333241679, 2055715.875410108594224 ], [ 889126.197053891955875, 2058326.260973751777783 ], [ 885186.015677244751714, 2067299.970951718976721 ], [ 886884.6316158848349, 2078086.95675656828098 ], [ 888137.545978546491824, 2092484.05138794821687 ], [ 884183.448305608239025, 2102503.933883472345769 ], [ 884482.203629634459503, 2106888.291205116081983 ], [ 881068.011728992802091, 2107969.696178931277245 ], [ 878990.692402382497676, 2118784.844088385347277 ], [ 876242.202943974756636, 2125018.901622935198247 ], [ 872838.648401148384437, 2125720.698663169518113 ], [ 869647.220211888314225, 2135945.411559130065143 ] ] ] } },
{ "type": "Feature", "properties": { "drag_region": "Central", "NAME": "Kalawao", "NAMELSAD": "Kalawao" }, "geometry": { "type": "Polygon", "coordinates": [ [ [ 655055.715241592028178, 2404185.986370232421905 ], [ 660608.867008897708729, 2407205.704616282600909 ], [ 662151.342866304679774, 2403229.840814636554569 ], [ 665144.763681570766494, 2402412.609222212340683 ], [ 667411.799248903989792, 2400159.138343894388527 ], [ 665200.884965179371648, 2398132.07970967842266 ], [ 662919.120510656386614, 2401527.311285031959414 ], [ 655055.715241592028178, 2404185.986370232421905 ] ] ] } },
{ "type": "Feature", "properties": { "drag_region": "Central", "NAME": "Honolulu", "NAMELSAD": "Honolulu" }, "geometry": { "type": "Polygon", "coordinates": [ [ [ 523682.513422126881778, 2446615.304167951457202 ], [ 539656.547102585434914, 2447552.959589351434261 ], [ 544459.586990616284311, 2452240.259878608863801 ], [ 545925.460266498383135, 2455577.328228870406747 ], [ 550724.844390860176645, 2460171.609100377187133 ], [ 555913.625968527980149, 2461631.832206251565367 ], [ 558158.763360268552788, 2459079.304879586677998 ], [ 560432.9437210081378, 2452438.021795993670821 ], [ 567921.777018421911635, 2444503.186613773927093 ], [ 569445.342339862254448, 2439569.265889535658062 ], [ 567968.626787032000721, 2438131.855903267860413 ], [ 569117.221201485604979, 2433670.658082453068346 ], [ 575852.911033027106896, 2428491.332017804961652 ], [ 576926.418758336920291, 2433920.525537524372339 ], [ 581391.245498773059808, 2433766.123132511042058 ], [ 579952.485033716657199, 2427667.887619464192539 ], [ 582947.940248368890025, 2425409.784095960669219 ], [ 582598.394969446700998, 2422648.932923429179937 ], [ 588982.901165483286604, 2416045.132788090966642 ], [ 584543.715689962147735, 2412488.973480102140456 ], [ 580433.214836621540599, 2414167.318872899282724 ], [ 572633.849107409245335, 2411348.749670259188861 ], [ 570380.861782382358797, 2413804.454973935615271 ], [ 564029.582610410638154, 2416706.597611614968628 ], [ 554715.017144979792647, 2417689.789300434291363 ], [ 543557.605877544730902, 2415719.676910149399191 ], [ 540949.242856735829264, 2416085.175815945491195 ], [ 538299.422786582377739, 2424057.986455088946968 ], [ 534189.166636349516921, 2427269.012410473078489 ], [ 533801.756355126970448, 2430214.746463283896446 ], [ 528562.837578582577407, 2436559.182001461274922 ], [ 528534.343270131736062, 2442359.462139949668199 ], [ 523682.513422126881778, 2446615.304167951457202 ] ] ] } },
{ "type": "Feature", "properties": { "drag_region": "West", "NAME": "Kauai", "NAMELSAD": "Kauai" }, "geometry": { "type": "MultiPolygon", "coordinates": [ [ [ [ 350465.383684715954587, 2475832.330742778256536 ], [ 350855.335830340743996, 2479634.140756415668875 ], [ 354946.761620321834926, 2483227.26904972223565 ], [ 356450.126069106394425, 2487879.654665630776435 ], [ 368692.440031004138291, 2494672.424560814164579 ], [ 371661.766660846828017, 2497133.169846111442894 ], [ 380164.231126891390886, 2495391.156441350467503 ], [ 381281.768964210874401, 2497764.810763344634324 ], [ 387197.168553529423662, 2496700.837017385289073 ], [ 390160.08246896386845, 2498023.95447922963649 ], [ 395704.03887847927399, 2496108.39359385939315 ], [ 399396.107148012262769, 2492582.01657519582659 ], [ 401237.873693367058877, 2488299.320547565352172 ], [ 401229.392933935625479, 2483925.262195727787912 ], [ 397143.829768286668696, 2477943.139102760702372 ], [ 397492.383170448883902, 2467863.10161499818787 ], [ 396003.99441601196304, 2465203.949747502803802 ], [ 385603.925371610850561, 2457813.937515350989997 ], [ 382641.622173099080101, 2459249.112795497756451 ], [ 369297.01749301305972, 2460436.979984205216169 ], [ 362652.270554329035804, 2467215.968207148369402 ], [ 353770.680736922891811, 2470014.906897104810923 ], [ 350465.383684715954587, 2475832.330742778256536 ] ] ], [ [ [ 302884.241098635247909, 2456081.477862659841776 ], [ 304400.764359446009621, 2460158.84911353001371 ], [ 308883.295985263306648, 2464308.188889482989907 ], [ 315958.66733579908032, 2468534.60963834496215 ], [ 316726.22715042863274, 2472142.952600651420653 ], [ 320808.298715306562372, 2472969.693035941105336 ], [ 321528.804045660304837, 2470016.478055984247476 ], [ 319637.447736167232506, 2464608.930529285687953 ], [ 320354.872653632599395, 2461180.211766929365695 ], [ 312918.780749949917663, 2458571.203181547578424 ], [ 306912.489629855845124, 2449392.028843828476965 ], [ 302482.435841032594908, 2452280.469125064555556 ], [ 302884.241098635247909, 2456081.477862659841776 ] ] ] ] } }
]
}
