{
"type": "FeatureCollection",
"name": "map",
"crs": { "type": "name", "properties": { "name": "urn:ogc:def:crs:EPSG::32616" } },
"features": [
{ "type": "Feature", "properties": { "drag_region": "Northeast", "NAME": "Marinette", "NAMELSAD": "Marinette" }, "geometry": { "type": "Polygon", "coordinates": [ [ [ 498528.312078767106868, 5127113.276981570757926 ], [ 527004.231884506181814, 5125621.430977274663746 ], [ 527103.991337212268263, 5133161.410472204908729 ], [ 531867.591333704069257, 5134722.966341973282397 ], [ 534328.589469705475494, 5130588.083994410000741 ], [ 541023.57716426323168, 5130129.087450680322945 ], [ 543497.549886838765815, 5126475.16303582303226 ], [ 546278.109477320802398, 5125205.491364262998104 ], [ 548472.045809971285053, 5120983.80674132052809 ], [ 545104.586846422869712, 5119776.718032755888999 ], [ 548949.97026004572399, 5112579.553824769333005 ], [ 546644.564450706471689, 5106016.228503243997693 ], [ 547440.96990225056652, 5101522.228909878060222 ], [ 545719.719964601914398, 5097721.514332832768559 ], [ 542037.193694108282216, 5094514.630841995589435 ], [ 542841.097974431118928, 5090879.045238126069307 ], [ 540849.850973985507153, 5088609.636657288298011 ], [ 542769.547029926558025, 5084103.035343498922884 ], [ 550371.074009415344335, 5084981.83559181727469 ], [ 554908.47718037001323, 5089426.896943233907223 ], [ 557979.641139463055879, 5087015.014057965017855 ], [ 558515.630894665722735, 5083765.615436106920242 ], [ 555383.109598365612328, 5079210.375262446701527 ], [ 551058.18150358251296, 5067986.544397381134331 ], [ 551596.830635281279683, 5065213.808319030329585 ], [ 555240.634634027723223, 5062509.365385717712343 ], [ 557461.330547202727757, 5058005.194614926353097 ], [ 562816.437668379745446, 5056627.633377892896533 ], [ 559949.303338407888077, 5051113.870410032570362 ], [ 559607.159367973916233, 5043481.600545990280807 ], [ 549124.275854898267426, 5042331.114859743975103 ], [ 549433.29609595995862, 5045095.932539079338312 ], [ 535006.811432634713128, 5045533.91133208014071 ], [ 535042.372859824332409, 5048587.696185226552188 ], [ 520906.861600206175353, 5049054.352268312126398 ], [ 521322.949399321863893, 5058689.044359837658703 ], [ 515678.774777556653135, 5058960.578542588278651 ], [ 516101.367679724935442, 5068499.74196045845747 ], [ 506523.938774008769542, 5069125.12968818936497 ], [ 507116.594973498838954, 5088303.052430646494031 ], [ 497566.282021016115323, 5088751.639152627438307 ], [ 498528.312078767106868, 5127113.276981570757926 ] ] ] } },
{ "type": "Feature", "properties": { "drag_region": "Southeast", "NAME": "Waushara", "NAMELSAD": "Waushara" }, "geometry": { "type": "Polygon", "coordinates": [ [ [ 339470.719583239697386, 4842180.779340234585106 ], [ 369267.783213120012078, 4841018.759465893730521 ], [ 396205.563429329486098, 4840248.545667343772948 ], [ 395544.597654332290404, 4811432.479336210526526 ], [ 338545.468522966548335, 4812887.165689371526241 ], [ 339470.719583239697386, 4842180.779340234585106 ] ] ] } },
{ "type": "Feature", "properties": { "drag_region": "Northwest", "NAME": "Sawyer", "NAMELSAD": "Sawyer" }, "geometry": { "type": "Polygon", "coordinates": [ [ [ 79094.462668000734993, 5206321.298828189261258 ], [ 103207.812508992632502, 5205080.479877331294119 ], [ 127297.192236481307191, 5203457.727186038158834 ], [ 126344.322231141166412, 5184178.789018684998155 ], [ 145530.82338933146093, 5183357.477851743809879 ], [ 143771.024878563184757, 5145181.965857298113406 ], [ 76633.60358028941846, 5148534.669594559818506 ], [ 78539.908164934735396, 5186915.723529771901667 ], [ 77989.404071867364109, 5187042.956844714470208 ], [ 79094.462668000734993, 5206321.298828189261258 ] ] ] } },
{ "type": "Feature", "properties": { "drag_region": "Northeast", "NAME": "Waupaca", "NAMELSAD": "Waupaca" }, "geometry": { "type": "Polygon", "coordinates": [ [ [ 412269.104424913297407, 4985087.227944219484925 ], [ 461474.521767777972855, 4983644.387936715967953 ], [ 460996.271376877557486, 4973821.214763847179711 ], [ 450739.796857729787007, 4974031.396291427314281 ], [ 449635.187664571567439, 4935487.051508619450033 ], [ 437882.626373914419673, 4935651.248808104544878 ], [ 410944.846157704945654, 4936421.462606654502451 ], [ 412269.104424913297407, 4985087.227944219484925 ] ] ] } },
{ "type": "Feature", "properties": { "drag_region": "Southeast", "NAME": "Manitowoc", "NAMELSAD": "Manitowoc" }, "geometry": { "type": "Polygon", "coordinates": [ [ [ 503473.948097757587675, 4839760.351969912648201 ], [ 515797.9192033020081, 4839615.268430650234222 ], [ 516188.579044190701097, 4849249.482471290044487 ], [ 543662.038025436340831, 4849010.35173202585429 ], [ 543636.845000782283023, 4845193.584542315453291 ], [ 545891.28108894568868, 4839358.344215230084956 ], [ 545275.213753210497089, 4832587.304686078801751 ], [ 541805.645803788094781, 4828697.890302953310311 ], [ 535168.608901407686062, 4824357.241000414825976 ], [ 534259.688419971149415, 4818448.300183555111289 ], [ 531930.195434091612697, 4814936.675289181992412 ], [ 528064.434234767919406, 4800752.202381008304656 ], [ 503271.320019140432123, 4801018.01455750875175 ], [ 503106.068943022168241, 4810753.817481302656233 ], [ 503473.948097757587675, 4839760.351969912648201 ] ] ] } },
{ "type": "Feature", "properties": { "drag_region": "Northeast", "NAME": "Lincoln", "NAMELSAD": "Lincoln" }, "geometry": { "type": "Polygon", "coordinates": [ [ [ 334502.98787368950434, 5092193.279288156889379 ], [ 335233.58383554185275, 5111471.436674201861024 ], [ 383137.699506453704089, 5109836.91573744546622 ], [ 383123.649337718030438, 5100093.781803565099835 ], [ 381959.939966758480296, 5061442.690701686777174 ], [ 333407.618756110954564, 5063181.403962228447199 ], [ 334048.495909903605934, 5087623.033122810535133 ], [ 334502.98787368950434, 5092193.279288156889379 ] ] ] } },
{ "type": "Feature", "properties": { "drag_region": "Northwest", "NAME": "Taylor", "NAMELSAD": "Taylor" }, "geometry": { "type": "Polygon", "coordinates": [ [ [ 135389.138089130399749, 5089307.770324567332864 ], [ 135864.297474522027187, 5099042.01314212474972 ], [ 155245.147528160596266, 5097933.924648561514914 ], [ 172383.140401725831907, 5097077.500226207077503 ], [ 204999.92508535500383, 5096236.631515216082335 ], [ 204545.433121569134528, 5091666.385349869728088 ], [ 203904.555967776483158, 5067224.756189287640154 ], [ 191765.775300577603048, 5067693.649478327482939 ], [ 191384.519360531092389, 5058055.051179761998355 ], [ 182054.561684613639954, 5058430.665208164602518 ], [ 172712.449476110865362, 5058533.678295586258173 ], [ 134260.005809112393763, 5060282.66046654805541 ], [ 135389.138089130399749, 5089307.770324567332864 ] ] ] } },
{ "type": "Feature", "properties": { "drag_region": "Southeast", "NAME": "Waukesha", "NAMELSAD": "Waukesha" }, "geometry": { "type": "Polygon", "coordinates": [ [ [ 445275.033917704189662, 4683679.629451594315469 ], [ 454895.658223972830456, 4683319.041378425434232 ], [ 483764.223782092041802, 4682605.245278592221439 ], [ 482932.775030191522092, 4663151.072366315871477 ], [ 482687.865452750760596, 4643880.843754658475518 ], [ 463328.169394923665095, 4644058.298080251552165 ], [ 443971.290512256091461, 4644481.00123511441052 ], [ 444330.053299923718441, 4664037.697783968411386 ], [ 445275.033917704189662, 4683679.629451594315469 ] ] ] } },
{ "type": "Feature", "properties": { "drag_region": "Northeast", "NAME": "Marathon", "NAMELSAD": "Marathon" }, "geometry": { "type": "Polygon", "coordinates": [ [ [ 310280.975542551022954, 5040946.723651829175651 ], [ 319610.933218468504492, 5040571.109623426571488 ], [ 319992.189158515015151, 5050209.707921992056072 ], [ 396489.584813196677715, 5047451.807161278091371 ], [ 395157.587099821772426, 4998878.288358153775334 ], [ 374122.291995723731816, 4999964.808012700639665 ], [ 345959.626117528299801, 5000792.159551649354398 ], [ 308697.583720697555691, 5002202.467717188410461 ], [ 310280.975542551022954, 5040946.723651829175651 ] ] ] } },
{ "type": "Feature", "properties": { "drag_region": "Northwest", "NAME": "Clark", "NAMELSAD": "Clark" }, "geometry": { "type": "Polygon", "coordinates": [ [ [ 132663.25335943873506, 5044637.339617199264467 ], [ 171115.697026437206659, 5042888.357446237467229 ], [ 180457.809234939981252, 5042785.344358815811574 ], [ 177699.093028256029356, 4975127.071802690625191 ], [ 158257.689094954112079, 4975657.808808659203351 ], [ 139117.963348960969597, 4976615.115097037516534 ], [ 139566.441726390155964, 4986253.114097267389297 ], [ 129866.043414326253696, 4986712.119012095965445 ], [ 132663.25335943873506, 5044637.339617199264467 ] ] ] } },
{ "type": "Feature", "properties": { "drag_region": "Northeast", "NAME": "Portage", "NAMELSAD": "Portage" }, "geometry": { "type": "Polygon", "coordinates": [ [ [ 350561.265212166705169, 4986617.897033638320863 ], [ 378723.931090362195391, 4985790.54549468960613 ], [ 399759.226194460236002, 4984704.025840142741799 ], [ 398434.967927251884248, 4936038.260502577759326 ], [ 368637.904297371569555, 4937200.280376918613911 ], [ 358613.717828799795825, 4937716.380983291193843 ], [ 359303.146025128022302, 4967020.669120734557509 ], [ 349888.506364540953655, 4967341.909667802974582 ], [ 350561.265212166705169, 4986617.897033638320863 ] ] ] } },
{ "type": "Feature", "properties": { "drag_region": "Southwest", "NAME": "Wood", "NAMELSAD": "Wood" }, "geometry": { "type": "Polygon", "coordinates": [ [ [ 208842.431016668007942, 4855262.83600608073175 ], [ 210017.755401498434367, 4884176.852627565152943 ], [ 247279.797798329178477, 4882766.54446202609688 ], [ 246607.038950703426963, 4863490.557096190750599 ], [ 256021.67861129049561, 4863169.316549122333527 ], [ 255332.250414962269133, 4833865.02841167896986 ], [ 241010.05637220441713, 4834547.209384806454182 ], [ 208336.924219332722714, 4835689.468037750571966 ], [ 207790.802289264072897, 4836380.596382463350892 ], [ 208842.431016668007942, 4855262.83600608073175 ] ] ] } },
{ "type": "Feature", "properties": { "drag_region": "Northeast", "NAME": "Menominee", "NAMELSAD": "Menominee" }, "geometry": { "type": "Polygon", "coordinates": [ [ [ 437822.483418069430627, 5050723.825770394876599 ], [ 476779.642458656337112, 5049793.174366177991033 ], [ 475964.240412584098522, 5020787.502519332803786 ], [ 456397.808265608036891, 5021271.541840858757496 ], [ 456604.08119042502949, 5030909.889160399325192 ], [ 437346.161894398683216, 5031255.867743717506528 ], [ 437822.483418069430627, 5050723.825770394876599 ] ] ] } },
{ "type": "Feature", "properties": { "drag_region": "Southeast", "NAME": "Green Lake", "NAMELSAD": "Green Lake" }, "geometry": { "type": "Polygon", "coordinates": [ [ [ 379138.018659699475393, 4798073.241226331330836 ], [ 401590.917211866239086, 4797521.29330984223634 ], [ 400705.084435384138487, 4758688.249288283288479 ], [ 391150.158474629628472, 4758912.338595904409885 ], [ 381300.761575148324482, 4758966.67109902203083 ], [ 381335.011022950755432, 4760302.425381938926876 ], [ 371779.067267078557052, 4760458.819197207689285 ], [ 372130.728141159750521, 4773434.890473701059818 ], [ 378504.838325088610873, 4773933.36228246986866 ], [ 378634.772433285601437, 4778894.853903638198972 ], [ 376041.609555482515134, 4779154.26078221667558 ], [ 376232.007047651335597, 4786310.325335801579058 ], [ 378827.370484130573459, 4786241.739352628588676 ], [ 379138.018659699475393, 4798073.241226331330836 ] ] ] } },
{ "type": "Feature", "properties": { "drag_region": "Southwest", "NAME": "Richland", "NAMELSAD": "Richland" }, "geometry": { "type": "Polygon", "coordinates": [ [ [ 163856.233103891310748, 4722262.898228440433741 ], [ 202720.415124488878064, 4720944.229458232410252 ], [ 200767.268154156510718, 4677543.007655842229724 ], [ 195368.059048301889561, 4681477.913629685528576 ], [ 188130.400529876467772, 4683102.051771954633296 ], [ 181676.201771583233494, 4682408.212577343918383 ], [ 172392.431556689261924, 4683942.581200426444411 ], [ 162285.858102773607243, 4679981.451939244754612 ], [ 163510.601222831639461, 4707842.305099266581237 ], [ 163856.233103891310748, 4722262.898228440433741 ] ] ] } },
{ "type": "Feature", "properties": { "drag_region": "Southeast", "NAME": "Rock", "NAMELSAD": "Rock" }, "geometry": { "type": "Polygon", "coordinates": [ [ [ 356968.964221477333922, 4632699.411767926998436 ], [ 386013.47662539005978, 4632230.263334225863218 ], [ 405360.786694527312648, 4631317.835127355530858 ], [ 404860.042278155975509, 4621498.097714766860008 ], [ 404542.817411194788292, 4592396.525046238675714 ], [ 356191.500055567186791, 4594436.426058170385659 ], [ 356968.964221477333922, 4632699.411767926998436 ] ] ] } },
{ "type": "Feature", "properties": { "drag_region": "Southeast", "NAME": "Kenosha", "NAMELSAD": "Kenosha" }, "geometry": { "type": "Polygon", "coordinates": [ [ [ 472070.516052728984505, 4599056.886420600116253 ], [ 481787.125622029765509, 4599009.140962355770171 ], [ 481876.866480657132342, 4605400.460701388306916 ], [ 513052.263193468796089, 4604841.859011794440448 ], [ 511820.153129359008744, 4599129.673236277885735 ], [ 513455.814886605250649, 4585281.135483461432159 ], [ 480721.774400985566899, 4586143.742025788873434 ], [ 471871.984917110297829, 4586178.992884759791195 ], [ 472070.516052728984505, 4599056.886420600116253 ] ] ] } },
{ "type": "Feature", "properties": { "drag_region": "Southeast", "NAME": "Marquette", "NAMELSAD": "Marquette" }, "geometry": { "type": "Polygon", "coordinates": [ [ [ 335050.061523074808065, 4801044.982943644747138 ], [ 369596.29210227378644, 4800142.244506971910596 ], [ 369285.643926704826299, 4788310.742633270099759 ], [ 366690.280490225588437, 4788379.328616442158818 ], [ 366499.882998056767974, 4781223.26406285725534 ], [ 369093.045875859854277, 4780963.857184279710054 ], [ 368963.111767662863713, 4776002.365563111379743 ], [ 362589.001583734061569, 4775503.893754342570901 ], [ 362237.340709652809892, 4762527.822477849200368 ], [ 333866.120743038132787, 4763356.090544579550624 ], [ 335050.061523074808065, 4801044.982943644747138 ] ] ] } },
{ "type": "Feature", "properties": { "drag_region": "Northwest", "NAME": "Price", "NAMELSAD": "Price" }, "geometry": { "type": "Polygon", "coordinates": [ [ [ 158747.827111223276006, 5111209.96198365278542 ], [ 161833.784555771475425, 5178302.519579591229558 ], [ 191019.858221525151748, 5176926.874517924152315 ], [ 211040.063114574615611, 5176224.528559730388224 ], [ 208502.60466841768357, 5109512.668850307352841 ], [ 175885.819984788511647, 5110353.53756129834801 ], [ 158747.827111223276006, 5111209.96198365278542 ] ] ] } },
{ "type": "Feature", "properties": { "drag_region": "Northeast", "NAME": "Langlade", "NAMELSAD": "Langlade" }, "geometry": { "type": "Polygon", "coordinates": [ [ [ 398398.027851110557094, 5096412.463553478009999 ], [ 403176.286774947424419, 5096556.54765657056123 ], [ 428132.085114204674028, 5095298.514402410015464 ], [ 437672.22129422891885, 5095062.907424644567072 ], [ 437162.929606653284281, 5085525.930056691169739 ], [ 456553.237665802589618, 5085091.475499577820301 ], [ 456151.586869307560846, 5065813.56794856954366 ], [ 459250.308698793523945, 5065654.38818971440196 ], [ 459054.656272679567337, 5056015.636625641025603 ], [ 432235.11821495112963, 5056616.223675443790853 ], [ 431994.439023697166704, 5046786.74743549246341 ], [ 412767.619893275550567, 5047286.171998938545585 ], [ 413040.612256986205466, 5057211.078240467235446 ], [ 397234.318480150890537, 5057761.372451599687338 ], [ 398398.027851110557094, 5096412.463553478009999 ] ] ] } },
{ "type": "Feature", "properties": { "drag_region": "Northwest", "NAME": "Chippewa", "NAMELSAD": "Chippewa" }, "geometry": { "type": "Polygon", "coordinates": [ [ [ 60837.792864746050327, 5080956.46272627543658 ], [ 70410.255111971564475, 5080217.871536076068878 ], [ 71230.262343602938927, 5089745.206093485467136 ], [ 119356.916507389381877, 5087213.60521334502846 ], [ 118227.784227371375891, 5058188.495355325751007 ], [ 117294.054301952404785, 5038911.583852824755013 ], [ 59713.101590445367037, 5041764.627095527015626 ], [ 61409.150245444310713, 5071252.676468525081873 ], [ 60279.988617420764058, 5071317.873163253068924 ], [ 60837.792864746050327, 5080956.46272627543658 ] ] ] } },
{ "type": "Feature", "properties": { "drag_region": "Northwest", "NAME": "Bayfield", "NAMELSAD": "Bayfield" }, "geometry": { "type": "MultiPolygon", "coordinates": [ [ [ [ 128583.314489579730434, 5318162.698803567327559 ], [ 132758.378113079903414, 5319578.298510803841054 ], [ 132274.425063280010363, 5315392.282842027954757 ], [ 128583.314489579730434, 5318162.698803567327559 ] ] ], [ [ [ 83979.974136171018472, 5294936.504106005653739 ], [ 87005.665168636915041, 5294953.362574675120413 ], [ 100529.955126318935072, 5300892.841779592446983 ], [ 107513.484067910263548, 5303095.136419246904552 ], [ 109289.149602345278254, 5305487.948250271379948 ], [ 113827.474197263800306, 5303139.141779087483883 ], [ 115909.246704208868323, 5306187.368102251552045 ], [ 122795.581668995000655, 5306784.450675568543375 ], [ 129150.076371428411221, 5313157.776477953419089 ], [ 132916.54566886977409, 5311819.594893586821854 ], [ 136906.376280560594751, 5314969.94563540071249 ], [ 139617.995481950725662, 5314453.703148164786398 ], [ 145801.077878770738607, 5306404.760790567845106 ], [ 141621.778687519632513, 5299335.085132470354438 ], [ 134683.394402998121222, 5292212.090177019126713 ], [ 136808.34240173784201, 5285122.91749267373234 ], [ 132251.775898341118591, 5281999.165956967510283 ], [ 128862.704583658865886, 5274800.851535379886627 ], [ 130720.29107095245854, 5273368.367131196893752 ], [ 128344.95633952980279, 5225551.432644346728921 ], [ 104255.576612041128101, 5227174.185335639864206 ], [ 80142.226771049230592, 5228415.004286497831345 ], [ 83979.974136171018472, 5294936.504106005653739 ] ] ] ] } },
{ "type": "Feature", "properties": { "drag_region": "Southwest", "NAME": "Vernon", "NAMELSAD": "Vernon" }, "geometry": { "type": "Polygon", "coordinates": [ [ [ 109700.817577185691334, 4750259.368970328010619 ], [ 137452.046208745741751, 4748794.109983570873737 ], [ 175908.999009326915257, 4747183.294140192680061 ], [ 185761.708766828407533, 4747355.298298368230462 ], [ 184976.596875087765511, 4727699.685868551954627 ], [ 155973.977544551598839, 4728727.906183145008981 ], [ 155628.345663491927553, 4714307.313053971156478 ], [ 112041.084186191204935, 4716369.235014475882053 ], [ 109900.992068934836425, 4720113.068476408720016 ], [ 111604.867359315219801, 4725001.057228052057326 ], [ 109541.679098105989397, 4730176.528990129940212 ], [ 110915.730757504526991, 4734315.773007437586784 ], [ 108199.253055268083699, 4737994.769184708595276 ], [ 107969.410869263054337, 4744799.474362476728857 ], [ 109700.817577185691334, 4750259.368970328010619 ] ] ] } },
{ "type": "Feature", "properties": { "drag_region": "Northeast", "NAME": "Florence", "NAMELSAD": "Florence" }, "geometry": { "type": "Polygon", "coordinates": [ [ [ 472030.630641495052259, 5175326.864978930912912 ], [ 473369.989802391035482, 5172911.502023273147643 ], [ 477251.726851065293886, 5172354.149814262054861 ], [ 478147.184325097186957, 5175391.578999756835401 ], [ 485652.535939876979683, 5175435.907475703395903 ], [ 486163.259210555290338, 5173039.253262490034103 ], [ 491964.189148710051086, 5170927.727627492509782 ], [ 495325.401614689093549, 5172300.670342119410634 ], [ 501923.710921855235938, 5167702.614299455657601 ], [ 505838.967484018707182, 5168976.804240448400378 ], [ 515786.823337012436241, 5164247.113947387784719 ], [ 518760.766374694823753, 5157714.772538078948855 ], [ 513953.734363314521033, 5152817.337524129077792 ], [ 516420.98999798722798, 5149727.923290806822479 ], [ 520032.428732445696369, 5148533.524761366657913 ], [ 519932.669279739551712, 5140993.54526643641293 ], [ 491456.749474000534974, 5142485.39127073250711 ], [ 471904.984581851633266, 5142864.171195683069527 ], [ 472510.011802630731836, 5171688.194468724541366 ], [ 472030.630641495052259, 5175326.864978930912912 ] ] ] } },
{ "type": "Feature", "properties": { "drag_region": "Southeast", "NAME": "Ozaukee", "NAMELSAD": "Ozaukee" }, "geometry": { "type": "Polygon", "coordinates": [ [ [ 495492.368014767416753, 4733277.851281112991273 ], [ 515501.465696701896377, 4733152.769545847550035 ], [ 514253.706618238473311, 4724100.350685209967196 ], [ 508338.885152621893212, 4713950.814986906945705 ], [ 505577.028956753492821, 4700717.866872263140976 ], [ 506964.622613644925877, 4694214.843277312815189 ], [ 493257.122906130854972, 4694374.917656460776925 ], [ 493504.417690519883763, 4713837.090068139135838 ], [ 495249.296999049023725, 4713815.10813862644136 ], [ 495492.368014767416753, 4733277.851281112991273 ] ] ] } },
{ "type": "Feature", "properties": { "drag_region": "Southeast", "NAME": "Dodge", "NAMELSAD": "Dodge" }, "geometry": { "type": "Polygon", "coordinates": [ [ [ 398566.714350572146941, 4745490.59103227686137 ], [ 447204.826250565529335, 4744205.621902433224022 ], [ 447332.097219946386758, 4734564.486938232555985 ], [ 446717.519279451167677, 4715297.287981448695064 ], [ 445554.32294005213771, 4715316.949121594429016 ], [ 445222.601837237772997, 4695759.202346018515527 ], [ 435601.977530969132204, 4696119.790419187396765 ], [ 397110.76865135045955, 4697126.038237204775214 ], [ 397342.374577532347757, 4706761.927746072411537 ], [ 397865.156534117471892, 4716390.945790083147585 ], [ 398566.714350572146941, 4745490.59103227686137 ] ] ] } },
{ "type": "Feature", "properties": { "drag_region": "Northwest", "NAME": "Pierce", "NAMELSAD": "Pierce" }, "geometry": { "type": "Polygon", "coordinates": [ [ [ -54886.76837014312332, 5035539.063592833466828 ], [ -23970.611972736936877, 5033507.419763913378119 ], [ -5007.60136329375382, 5031701.927396424114704 ], [ -7239.722456707604579, 4996393.011875844560564 ], [ -21485.581942300646915, 4997498.50123923458159 ], [ -23102.729668932428467, 4999041.821342645213008 ], [ -30717.504952621107805, 5000791.497219172306359 ], [ -39255.73854304930137, 5001558.828175775706768 ], [ -41533.392366844098433, 5005932.906483877450228 ], [ -45415.650915531252394, 5007734.301491297781467 ], [ -44972.533985213536653, 5010004.932042493484914 ], [ -53211.624161950705457, 5018923.656537881121039 ], [ -58645.231715467161848, 5022858.651136733591557 ], [ -58751.7136436302535, 5025360.175445795059204 ], [ -54800.20081189663324, 5032751.388891855254769 ], [ -54886.76837014312332, 5035539.063592833466828 ] ] ] } },
{ "type": "Feature", "properties": { "drag_region": "Northwest", "NAME": "Polk", "NAMELSAD": "Polk" }, "geometry": { "type": "Polygon", "coordinates": [ [ [ -54436.946744772663806, 5147102.356268904171884 ], [ -26769.426506330259144, 5144837.188026508316398 ], [ -25822.405479281267617, 5154456.379898052662611 ], [ 3201.288400211196858, 5152226.177956098690629 ], [ -768.113701372174546, 5094889.582207343541086 ], [ -47836.641487807093654, 5098080.753811448812485 ], [ -47468.994721376977395, 5107166.792504196055233 ], [ -46309.116975214506965, 5107563.337119057774544 ], [ -42352.752010080614127, 5111501.699282164685428 ], [ -42437.380554024653975, 5114289.14622947294265 ], [ -37905.038592234486714, 5118476.195556132122874 ], [ -37288.175996897276491, 5123227.943621879443526 ], [ -43163.866896599472966, 5131797.57968810480088 ], [ -42671.926940926234238, 5134735.864318856969476 ], [ -46374.069807523279451, 5138071.528309542685747 ], [ -49236.96524834894808, 5137415.530824302695692 ], [ -54971.257140556757804, 5139849.706555765122175 ], [ -54436.946744772663806, 5147102.356268904171884 ] ] ] } },
{ "type": "Feature", "properties": { "drag_region": "Northwest", "NAME": "St. Croix", "NAMELSAD": "St. Croix" }, "geometry": { "type": "Polygon", "coordinates": [ [ [ -50127.443675731599797, 5084963.408157296478748 ], [ -3058.915889296680689, 5081772.236553191207349 ], [ -3681.935081090545282, 5072038.271092276088893 ], [ -1994.303747236204799, 5071834.7447300106287 ], [ -3855.855369048018474, 5042537.590015386231244 ], [ -22818.865978491201531, 5044343.082382875494659 ], [ -53735.022375897387974, 5046374.726211795583367 ], [ -53988.913762982469052, 5050804.950540777295828 ], [ -51720.293493731413037, 5054671.724362949840724 ], [ -53140.105987977643963, 5058705.436029286123812 ], [ -52131.311814573069569, 5064867.991935358382761 ], [ -55008.190319974615704, 5068335.487527519464493 ], [ -50092.147901571763214, 5073546.774356435984373 ], [ -51164.475876487966161, 5082351.915028480812907 ], [ -50127.443675731599797, 5084963.408157296478748 ] ] ] } },
{ "type": "Feature", "properties": { "drag_region": "Southeast", "NAME": "Columbia", "NAMELSAD": "Columbia" }, "geometry": { "type": "Polygon", "coordinates": [ [ [ 321534.293020120123401, 4750769.270383822731674 ], [ 336594.967059674090706, 4750471.691126640886068 ], [ 364966.187026288767811, 4749643.42305990960449 ], [ 374522.130782160966191, 4749487.02924464084208 ], [ 374487.881334358593449, 4748151.274961723946035 ], [ 384337.278233839839231, 4748096.94245860632509 ], [ 383635.720417385164183, 4718997.297216412611306 ], [ 383112.938460800040048, 4709368.279172401875257 ], [ 354271.644210845406633, 4709741.553135733120143 ], [ 354312.165994651557412, 4711172.656696907244623 ], [ 325482.591118747892324, 4711954.982541304081678 ], [ 325578.97355222463375, 4714912.653558612801135 ], [ 329218.600675966998097, 4719379.343062851577997 ], [ 335395.073548257409129, 4721380.431283087469637 ], [ 336299.38835853501223, 4741025.89421274419874 ], [ 325622.758803312841337, 4742896.475938095711172 ], [ 326875.7846461624722, 4745720.829400434158742 ], [ 322297.577714453509543, 4747591.538292817771435 ], [ 321534.293020120123401, 4750769.270383822731674 ] ] ] } },
{ "type": "Feature", "properties": { "drag_region": "Northwest", "NAME": "Washburn", "NAMELSAD": "Washburn" }, "geometry": { "type": "Polygon", "coordinates": [ [ [ 29344.967124994160258, 5210198.944710897281766 ], [ 67861.816733517523971, 5207866.115396921522915 ], [ 66756.758137384153088, 5188587.773413446731865 ], [ 67307.262230451524374, 5188460.540098504163325 ], [ 65400.957645806207438, 5150079.486163292080164 ], [ 27098.033411217518733, 5152659.521530902944505 ], [ 29230.07501373278501, 5190850.604753814637661 ], [ 28118.188346888011438, 5190921.157549178227782 ], [ 29344.967124994160258, 5210198.944710897281766 ] ] ] } },
{ "type": "Feature", "properties": { "drag_region": "Northwest", "NAME": "Pepin", "NAMELSAD": "Pepin" }, "geometry": { "type": "Polygon", "coordinates": [ [ [ -11987.94363429423538, 4992813.757591979578137 ], [ 2257.915851298806956, 4991708.268228589557111 ], [ 3275.89659803113318, 5007835.805310623720288 ], [ 41671.109891945292475, 5005428.444858010858297 ], [ 41114.675827128492529, 4995694.730150087736547 ], [ 13480.83476209428045, 4997332.573770814575255 ], [ 11445.400626602146076, 4996787.361001746729016 ], [ 9186.160089778160909, 4988018.220698029734194 ], [ 5333.993736436328618, 4976761.822959626093507 ], [ -4735.926863412867533, 4980846.193229730241001 ], [ -6904.728847489313921, 4982805.7769689951092 ], [ -11405.825449395255418, 4988559.100473972037435 ], [ -11987.94363429423538, 4992813.757591979578137 ] ] ] } },
{ "type": "Feature", "properties": { "drag_region": "Southeast", "NAME": "Calumet", "NAMELSAD": "Calumet" }, "geometry": { "type": "Polygon", "coordinates": [ [ [ 462437.797678439645097, 4837712.935794565826654 ], [ 491091.744456285261549, 4836904.259328624233603 ], [ 490723.865301549783908, 4807897.724840014241636 ], [ 490889.116377668105997, 4798161.921916220337152 ], [ 481087.162129434756935, 4798292.561221608892083 ], [ 481158.324427413404919, 4803349.461533419787884 ], [ 461859.007410718942992, 4803744.715117544867098 ], [ 462437.797678439645097, 4837712.935794565826654 ] ] ] } },
{ "type": "Feature", "properties": { "drag_region": "Northeast", "NAME": "Outagamie", "NAMELSAD": "Outagamie" }, "geometry": { "type": "Polygon", "coordinates": [ [ [ 472393.780374973837752, 4971005.985887799412012 ], [ 501160.103637464344501, 4969930.51513060182333 ], [ 505436.784457295609172, 4970057.578311732038856 ], [ 504880.037350524391513, 4931793.646700469776988 ], [ 487974.101377220009454, 4932251.573109443299472 ], [ 461032.696662667905912, 4932671.822632571682334 ], [ 462137.30585582612548, 4971216.167415379546583 ], [ 472393.780374973837752, 4971005.985887799412012 ] ] ] } },
{ "type": "Feature", "properties": { "drag_region": "Northwest", "NAME": "Buffalo", "NAMELSAD": "Buffalo" }, "geometry": { "type": "Polygon", "coordinates": [ [ [ 18401.127201368872193, 4989373.432381176389754 ], [ 55721.016246929546469, 4987189.598226139321923 ], [ 53567.645847262887401, 4948350.804044055752456 ], [ 47616.072372619659291, 4944757.668836762197316 ], [ 46508.946698144791299, 4940416.412962458096445 ], [ 50096.149546429820475, 4937631.307211161591113 ], [ 52358.563328695032396, 4931667.197979254648089 ], [ 48837.012079494845239, 4925353.42350738402456 ], [ 49908.166920276198653, 4923858.200208207592368 ], [ 47068.678979508418706, 4924686.182869052514434 ], [ 38328.515627817905624, 4933317.858452841639519 ], [ 37625.664068977013812, 4936134.671123053878546 ], [ 30101.55408716214879, 4940497.443926153704524 ], [ 26849.740004917795886, 4943945.040603939443827 ], [ 24518.568227157767978, 4948297.34096020180732 ], [ 24522.76398852172133, 4953181.247602365911007 ], [ 22317.162845664672204, 4954750.083883306011558 ], [ 22621.53845049814845, 4959807.742875628173351 ], [ 18847.30352515548293, 4963867.306336831301451 ], [ 10254.286175710920361, 4968802.681569987908006 ], [ 14106.452529052752652, 4980059.079308391548693 ], [ 16365.693065876737819, 4988828.219612108543515 ], [ 18401.127201368872193, 4989373.432381176389754 ] ] ] } },
{ "type": "Feature", "properties": { "drag_region": "Northwest", "NAME": "Barron", "NAMELSAD": "Barron" }, "geometry": { "type": "Polygon", "coordinates": [ [ [ 16313.37800741144747, 5141385.355871326290071 ], [ 64126.064064865597175, 5138199.392508522607386 ], [ 61954.66282654281531, 5099835.089725914411247 ], [ 61134.655594911440858, 5090307.755168505012989 ], [ 51562.19334768592671, 5091046.346358704380691 ], [ 12959.81471023139602, 5093592.031742135062814 ], [ 16313.37800741144747, 5141385.355871326290071 ] ] ] } },
{ "type": "Feature", "properties": { "drag_region": "Northeast", "NAME": "Kewaunee", "NAMELSAD": "Kewaunee" }, "geometry": { "type": "Polygon", "coordinates": [ [ [ 561435.292629339033738, 4977240.152956056408584 ], [ 563745.088242225116119, 4980845.370708335191011 ], [ 592476.305627921596169, 4980459.200326045975089 ], [ 587313.622110896860249, 4972659.828246879391372 ], [ 584716.127081867540255, 4966757.810226096771657 ], [ 578849.576916587306187, 4941888.134627900086343 ], [ 560820.125446672085673, 4942032.039911840111017 ], [ 561435.292629339033738, 4977240.152956056408584 ] ] ] } },
{ "type": "Feature", "properties": { "drag_region": "Northwest", "NAME": "Iron", "NAMELSAD": "Iron" }, "geometry": { "type": "Polygon", "coordinates": [ [ [ 180292.516464214771986, 5263273.025655117817223 ], [ 183617.520146991009824, 5263697.958234878256917 ], [ 190379.140979563933797, 5260818.858916102908552 ], [ 191869.150146064523142, 5257025.08224062807858 ], [ 195196.174455040192697, 5257456.481115101836622 ], [ 197851.835959429561626, 5255049.375063549727201 ], [ 205222.712328002846334, 5253214.297349695116282 ], [ 212303.970248463447206, 5236964.875774615444243 ], [ 211926.163631437870208, 5234398.707104047760367 ], [ 226690.154453645925969, 5229724.230915159918368 ], [ 225387.636228072689846, 5194409.605938049964607 ], [ 196471.268690703262109, 5195445.625444493256509 ], [ 197272.213202558050398, 5214725.064426381140947 ], [ 187568.428346665226854, 5215040.866664788685739 ], [ 187985.081578432989772, 5224680.680583596229553 ], [ 178300.62817929656012, 5225107.263491661287844 ], [ 180292.516464214771986, 5263273.025655117817223 ] ] ] } },
{ "type": "Feature", "properties": { "drag_region": "Southwest", "NAME": "Crawford", "NAMELSAD": "Crawford" }, "geometry": { "type": "Polygon", "coordinates": [ [ [ 107862.424473195671453, 4704650.647756095044315 ], [ 151449.685950496408623, 4702588.725795590318739 ], [ 150224.942830438376404, 4674727.872635568492115 ], [ 148478.477310992428102, 4674900.290965680964291 ], [ 143858.513126426376402, 4669656.246785152703524 ], [ 139404.773135122784879, 4668231.523439000360668 ], [ 135153.436969739268534, 4664887.925326991826296 ], [ 127474.528801129126805, 4663523.69559877179563 ], [ 126210.719822558035958, 4661575.102617642842233 ], [ 117161.383090946575976, 4656269.841299161314964 ], [ 111053.468263813512749, 4657333.564660993404686 ], [ 109528.934847526004887, 4656165.516712395474315 ], [ 108281.800891376959044, 4666462.172115473076701 ], [ 108567.536817404310568, 4672187.120237523689866 ], [ 111308.86764191002294, 4674346.388850703835487 ], [ 113304.918347429877031, 4679221.438339755870402 ], [ 118833.168925503778155, 4684689.34323245473206 ], [ 115401.541047675811569, 4692126.266139121726155 ], [ 107738.827412664410076, 4696430.001427755691111 ], [ 107862.424473195671453, 4704650.647756095044315 ] ] ] } },
{ "type": "Feature", "properties": { "drag_region": "Northwest", "NAME": "Burnett", "NAMELSAD": "Burnett" }, "geometry": { "type": "Polygon", "coordinates": [ [ [ -48139.350496754312189, 5167965.831726126372814 ], [ -43394.541511965537211, 5171457.26941036619246 ], [ -36799.678224490460707, 5185178.328726700507104 ], [ -30912.919886372663314, 5189266.057964452542365 ], [ -23804.025212015461875, 5190971.21670628990978 ], [ -21326.913210670492845, 5194442.563349212519825 ], [ -17520.954534429329215, 5192932.566139520145953 ], [ -14374.886798333522165, 5198085.86003677174449 ], [ -7753.310391509003239, 5196964.846078463830054 ], [ -5708.372097275947453, 5202483.272366759367287 ], [ -2869.181166494934587, 5203251.775495403446257 ], [ -2257.359515917283716, 5212413.36603550799191 ], [ 16584.963275491812965, 5211183.370763978920877 ], [ 15358.184497385664145, 5191905.583602259866893 ], [ 16470.071164230437716, 5191835.030806896276772 ], [ 14338.02956171517144, 5153643.947583984583616 ], [ 4828.26773884971044, 5154249.87557917740196 ], [ 5444.106543253030395, 5163793.147198741324246 ], [ -23579.58733623943408, 5166023.349140695296228 ], [ -24526.608363288425608, 5156404.157269150950015 ], [ -52194.128601730830269, 5158669.325511546805501 ], [ -49877.930931397509994, 5167229.961109037511051 ], [ -48139.350496754312189, 5167965.831726126372814 ] ] ] } },
{ "type": "Feature", "properties": { "drag_region": "Southeast", "NAME": "Dane", "NAMELSAD": "Dane" }, "geometry": { "type": "Polygon", "coordinates": [ [ [ 312088.974858395871706, 4689300.204984623938799 ], [ 314835.071592273307033, 4692837.133768551982939 ], [ 321002.131297097774222, 4694065.505402003414929 ], [ 322025.414793051313609, 4698616.59040942043066 ], [ 350854.989668954978697, 4697834.264565023593605 ], [ 350814.467885148827918, 4696403.161003849469125 ], [ 379655.762135103461333, 4696029.887040518224239 ], [ 379424.156208921573125, 4686393.997531650587916 ], [ 378199.10073702770751, 4647477.134126798249781 ], [ 349154.588333114981651, 4647946.282560499384999 ], [ 349192.156072350684553, 4649281.894513445906341 ], [ 310778.372009267332032, 4650565.432039119303226 ], [ 312088.974858395871706, 4689300.204984623938799 ] ] ] } },
{ "type": "Feature", "properties": { "drag_region": "Northwest", "NAME": "Douglas", "NAMELSAD": "Douglas" }, "geometry": { "type": "Polygon", "coordinates": [ [ [ 7400.515651575100492, 5229883.416796280071139 ], [ 11172.802877272872138, 5286094.025492285378277 ], [ 17110.902501180113177, 5284163.105596204288304 ], [ 20401.771149699678062, 5288067.146383767947555 ], [ 18052.399182037319406, 5290043.68141564540565 ], [ 22529.183748703027959, 5291090.261522736400366 ], [ 23533.20363545701548, 5293803.987182375974953 ], [ 27439.16823428402131, 5294603.653391784988344 ], [ 32890.194098844061955, 5289461.213504632003605 ], [ 38196.212086927422206, 5286250.28494798950851 ], [ 47591.663285144590191, 5286720.398474044166505 ], [ 68597.435416629348765, 5292842.09203028306365 ], [ 64759.688051507560886, 5226320.592210775241256 ], [ 26242.838442984197172, 5228653.421524751000106 ], [ 7400.515651575100492, 5229883.416796280071139 ] ] ] } },
{ "type": "Feature", "properties": { "drag_region": "Southwest", "NAME": "Grant", "NAMELSAD": "Grant" }, "geometry": { "type": "Polygon", "coordinates": [ [ [ 113665.362030157004483, 4640856.893001075834036 ], [ 115189.895446444512345, 4642024.940949673764408 ], [ 121297.810273577575572, 4640961.217587841674685 ], [ 130347.147005189035553, 4646266.478906323201954 ], [ 131610.955983760126401, 4648215.071887452155352 ], [ 139289.864152370253578, 4649579.301615672186017 ], [ 143541.200317753769923, 4652922.899727680720389 ], [ 147994.940309057361446, 4654347.623073833063245 ], [ 152614.904493623413146, 4659591.667254361324012 ], [ 154361.370013069361448, 4659419.248924248851836 ], [ 164467.94346698501613, 4663380.378185430541635 ], [ 173751.7136818789877, 4661846.009562348015606 ], [ 172281.764703019580338, 4618709.052358794026077 ], [ 170903.411195906461217, 4584744.677630827762187 ], [ 153215.539756488695275, 4585674.111675040796399 ], [ 153367.431518179830164, 4589204.133879952132702 ], [ 148517.358254707942251, 4599833.93148260936141 ], [ 133128.690108625451103, 4605115.819584865123034 ], [ 126484.769566299510188, 4608007.653717413544655 ], [ 119708.470227971090935, 4614164.349686342291534 ], [ 117486.723108889302239, 4629000.325020892545581 ], [ 114086.382635379966814, 4631558.265905964188278 ], [ 113665.362030157004483, 4640856.893001075834036 ] ] ] } },
{ "type": "Feature", "properties": { "drag_region": "Southeast", "NAME": "Racine", "NAMELSAD": "Racine" }, "geometry": { "type": "Polygon", "coordinates": [ [ [ 471250.278184950177092, 4632340.588162943720818 ], [ 490609.974242777272593, 4632163.133837350644171 ], [ 510260.442316159373149, 4631846.442948877811432 ], [ 515188.484001330449246, 4625407.774123045615852 ], [ 513935.522845442697871, 4616928.530129444785416 ], [ 511835.119142135023139, 4612464.425693541765213 ], [ 480659.7224293234176, 4613023.02738313563168 ], [ 480569.981570696050767, 4606631.707644103094935 ], [ 470853.372001395211555, 4606679.453102347441018 ], [ 471250.278184950177092, 4632340.588162943720818 ] ] ] } },
{ "type": "Feature", "properties": { "drag_region": "Southwest", "NAME": "La Crosse", "NAMELSAD": "La Crosse" }, "geometry": { "type": "Polygon", "coordinates": [ [ [ 90157.694358200329589, 4790080.889096892438829 ], [ 98506.003006070590345, 4789637.535570892505348 ], [ 97378.527753453556215, 4795629.48318369500339 ], [ 103328.814621870318661, 4799145.562215281650424 ], [ 106957.86065072575002, 4796853.376845399849117 ], [ 108877.988103197974851, 4800582.019772212952375 ], [ 112570.406320178735768, 4799533.4486950840801 ], [ 112522.218073583644582, 4798579.215264394879341 ], [ 126889.955325376620749, 4797773.790199509821832 ], [ 131781.139816664712271, 4797634.981337294913828 ], [ 129957.897930296458071, 4759180.374567593447864 ], [ 102206.669298736407654, 4760645.633554350584745 ], [ 103343.454973149084253, 4765849.237525721080601 ], [ 100591.258565905241994, 4774219.484830660745502 ], [ 93146.467816607415443, 4786571.650276814587414 ], [ 90157.694358200329589, 4790080.889096892438829 ] ] ] } },
{ "type": "Feature", "properties": { "drag_region": "Northwest", "NAME": "Eau Claire", "NAMELSAD": "Eau Claire" }, "geometry": { "type": "Polygon", "coordinates": [ [ [ 59181.870983617074671, 5029764.3933818442747 ], [ 116762.823695124112419, 5026911.350139142014086 ], [ 115362.986338169124792, 4997901.143422645516694 ], [ 57531.8830231277243, 5000944.814259137026966 ], [ 59181.870983617074671, 5029764.3933818442747 ] ] ] } },
{ "type": "Feature", "properties": { "drag_region": "Southeast", "NAME": "Milwaukee", "NAMELSAD": "Milwaukee" }, "geometry": { "type": "Polygon", "coordinates": [ [ [ 493459.515781583962962, 4680978.160817706957459 ], [ 507167.015489098033868, 4680818.086438558995724 ], [ 506519.106350373476744, 4674814.094349702820182 ], [ 508770.061402891762555, 4666680.439810424111784 ], [ 506666.199481729883701, 4661264.276989884674549 ], [ 510701.413864061236382, 4655307.122676352970302 ], [ 510619.821057902299799, 4647198.407452602870762 ], [ 512033.625525624724105, 4641937.068405300378799 ], [ 492383.157452242681757, 4642253.759293773211539 ], [ 492628.067029683385044, 4661523.987905430607498 ], [ 493459.515781583962962, 4680978.160817706957459 ] ] ] } },
{ "type": "Feature", "properties": { "drag_region": "Southwest", "NAME": "Jackson", "NAMELSAD": "Jackson" }, "geometry": { "type": "Polygon", "coordinates": [ [ [ 121781.217435279948404, 4872065.085176082327962 ], [ 141148.252421917713946, 4871007.939396399073303 ], [ 140684.609759179205867, 4861369.837010293267667 ], [ 150385.008071243093582, 4860910.83209546469152 ], [ 149936.529693813907215, 4851272.833095234818757 ], [ 169076.255439807049697, 4850315.526806856505573 ], [ 188517.659373108966975, 4849784.789800887927413 ], [ 187466.03064570503193, 4830902.550177270546556 ], [ 188012.152575773681747, 4830211.42183255776763 ], [ 187596.320290039031534, 4819905.862378534860909 ], [ 177861.219667206431041, 4820879.109533274546266 ], [ 141110.615674977336312, 4822231.814460608176887 ], [ 134356.632008903106907, 4819399.197550161741674 ], [ 134325.574510569131235, 4812801.125798780471087 ], [ 119957.837258776155068, 4813606.550863665528595 ], [ 120947.193229435040848, 4833168.473371505737305 ], [ 119800.834656097082188, 4833226.643599814735353 ], [ 121781.217435279948404, 4872065.085176082327962 ] ] ] } },
{ "type": "Feature", "properties": { "drag_region": "Northeast", "NAME": "Door", "NAMELSAD": "Door" }, "geometry": { "type": "MultiPolygon", "coordinates": [ [ [ [ 633329.81043616507668, 5070628.399272166192532 ], [ 635010.539420638699085, 5078264.510097513906658 ], [ 643719.270752683049068, 5076655.149227436631918 ], [ 637273.176697871298529, 5064428.416436778381467 ], [ 633329.81043616507668, 5070628.399272166192532 ] ] ], [ [ [ 600355.706323779188097, 5053708.849401900544763 ], [ 603744.12298683822155, 5055030.064846707507968 ], [ 604283.552566085825674, 5049015.438451685011387 ], [ 600344.14608420804143, 5051227.570845767855644 ], [ 600355.706323779188097, 5053708.849401900544763 ] ] ], [ [ [ 600370.164794269367121, 4995495.486566998064518 ], [ 571638.94740857288707, 4995881.65694928728044 ], [ 572823.301150924991816, 5001119.904508663341403 ], [ 581730.012072752579115, 5013739.705081322230399 ], [ 589127.64794318494387, 5017124.023315812461078 ], [ 592242.588578725699335, 5016436.956228740513325 ], [ 595379.248416284797713, 5019663.977316766045988 ], [ 599616.112584982882254, 5016588.770689772441983 ], [ 597936.685088982107118, 5020986.749928439036012 ], [ 601378.31082669342868, 5030227.37088446225971 ], [ 609052.007591475732625, 5040599.826599176973104 ], [ 611057.745326054515317, 5050136.930376887321472 ], [ 614441.369036678341217, 5049650.615847900509834 ], [ 620369.780564566375688, 5052692.825462323613465 ], [ 620659.951188981765881, 5058323.029601099900901 ], [ 625452.896650269045494, 5064043.953973880037665 ], [ 631644.783531932975166, 5063756.315424357540905 ], [ 631083.406247689970769, 5055453.350537740625441 ], [ 626573.907463172450662, 5054976.947612479329109 ], [ 626001.884405551361851, 5041425.759583007544279 ], [ 622608.098237712169066, 5037611.467552209272981 ], [ 620347.707929467316717, 5037996.184527099132538 ], [ 618925.985224108095281, 5032940.605090199038386 ], [ 614954.786996816867031, 5027986.260350012220442 ], [ 616361.337285677436739, 5023879.62531403824687 ], [ 612669.346118635614403, 5020166.736879497766495 ], [ 613796.686878326465376, 5017682.64064875151962 ], [ 608683.213286460260861, 5014548.354858987033367 ], [ 604972.913609332987107, 5008645.090161598287523 ], [ 600370.164794269367121, 4995495.486566998064518 ] ] ] ] } },
{ "type": "Feature", "properties": { "drag_region": "Northeast", "NAME": "Oconto", "NAMELSAD": "Oconto" }, "geometry": { "type": "Polygon", "coordinates": [ [ [ 471576.261272442236077, 5078817.23359234444797 ], [ 491244.231944613740779, 5078246.621208092197776 ], [ 500794.54489709646441, 5077798.0344861112535 ], [ 500201.888697606394999, 5058620.111743654124439 ], [ 509779.317603322560899, 5057994.724015923216939 ], [ 509356.724701154278591, 5048455.56059805303812 ], [ 515000.89932291948935, 5048184.026415302418172 ], [ 514584.81152380380081, 5038549.334323776885867 ], [ 528720.322783421957865, 5038082.678240691311657 ], [ 528684.761356232338585, 5035028.893387544900179 ], [ 543111.246019557584077, 5034590.914594544097781 ], [ 542802.225778495892882, 5031826.096915208734572 ], [ 536818.456743370974436, 5028067.678705355152488 ], [ 537622.350919261225499, 5023573.771651386283338 ], [ 534444.471323467441835, 5017976.07123133353889 ], [ 531875.52363944449462, 5016572.435010830871761 ], [ 528662.849427043925971, 5008687.307756973430514 ], [ 525205.379274809034541, 5004719.675696614198387 ], [ 524580.010470886249095, 5000050.701415256597102 ], [ 505511.70948994072387, 4999737.87167654465884 ], [ 504669.846254583040718, 5000514.221237285062671 ], [ 503964.683582017139997, 5010165.331064184196293 ], [ 504396.75561000808375, 5019799.156896814703941 ], [ 485399.898816105443984, 5020405.658517148345709 ], [ 486215.300862177682575, 5049411.330363993532956 ], [ 474077.679879319213796, 5049741.394718407653272 ], [ 474273.332305433170404, 5059380.14628248102963 ], [ 471174.610475947207306, 5059539.326041336171329 ], [ 471576.261272442236077, 5078817.23359234444797 ] ] ] } },
{ "type": "Feature", "properties": { "drag_region": "Southwest", "NAME": "Lafayette", "NAMELSAD": "Lafayette" }, "geometry": { "type": "Polygon", "coordinates": [ [ [ 187962.16717412089929, 4608151.369313103146851 ], [ 236095.7304783348809, 4606456.442824701778591 ], [ 234944.996728437428828, 4572207.433477652259171 ], [ 186583.813667007780168, 4574186.994585136882961 ], [ 187962.16717412089929, 4608151.369313103146851 ] ] ] } },
{ "type": "Feature", "properties": { "drag_region": "Southeast", "NAME": "Green", "NAMELSAD": "Green" }, "geometry": { "type": "Polygon", "coordinates": [ [ [ 302941.51315892371349, 4634532.186962693929672 ], [ 341355.297222007066011, 4633248.649437020532787 ], [ 340540.265316861215979, 4593650.051774317398667 ], [ 337590.863546694396064, 4593732.963324680924416 ], [ 301626.756178412586451, 4595417.606044482439756 ], [ 302941.51315892371349, 4634532.186962693929672 ] ] ] } },
{ "type": "Feature", "properties": { "drag_region": "Northeast", "NAME": "Vilas", "NAMELSAD": "Vilas" }, "geometry": { "type": "Polygon", "coordinates": [ [ [ 340867.437006714229938, 5183982.071198378689587 ], [ 349763.599651034164708, 5183648.397650129161775 ], [ 351066.117876607400831, 5218963.022627239115536 ], [ 414996.543843213992659, 5198977.51858638972044 ], [ 427020.357322408643086, 5191509.857454965822399 ], [ 426772.166927722457331, 5181297.134413949213922 ], [ 417875.778229317918885, 5181519.587852528318763 ], [ 417627.958173431048635, 5171879.696434097364545 ], [ 407616.936954471108038, 5172622.549076010473073 ], [ 407765.283409395487979, 5167842.78321900498122 ], [ 398026.684488069673534, 5168593.409850998781621 ], [ 398156.035164603847079, 5173079.23798140604049 ], [ 388402.819821185898036, 5173081.675897990353405 ], [ 340506.466300775762647, 5174533.302588429301977 ], [ 340867.437006714229938, 5183982.071198378689587 ] ] ] } },
{ "type": "Feature", "properties": { "drag_region": "Northeast", "NAME": "Shawano", "NAMELSAD": "Shawano" }, "geometry": { "type": "Polygon", "coordinates": [ [ [ 417677.680192406871356, 5035096.26837011333555 ], [ 436904.499322828487493, 5034596.843806667253375 ], [ 436668.856990411761217, 5024958.362019941210747 ], [ 455926.776286438107491, 5024612.383436623029411 ], [ 455720.503361621056683, 5014974.036117082461715 ], [ 475286.935508597176522, 5014489.996795556508005 ], [ 494283.79230249975808, 5013883.495175222866237 ], [ 493851.720274508814327, 5004249.669342592358589 ], [ 494556.882947074715048, 4994598.559515693224967 ], [ 494112.165057197329588, 4984106.171870947815478 ], [ 465345.841794706881046, 4985181.64262814540416 ], [ 465824.092185607296415, 4995004.815801014192402 ], [ 416618.674842742620967, 4996447.655808517709374 ], [ 417677.680192406871356, 5035096.26837011333555 ] ] ] } },
{ "type": "Feature", "properties": { "drag_region": "Northwest", "NAME": "Dunn", "NAMELSAD": "Dunn" }, "geometry": { "type": "Polygon", "coordinates": [ [ [ 9606.705029578923131, 5079461.553334295749664 ], [ 48209.083667033453821, 5076915.867950865067542 ], [ 47651.279419708167552, 5067277.278387842699885 ], [ 48780.441047731714207, 5067212.081693114712834 ], [ 45990.838497060220107, 5018638.167905332520604 ], [ 7595.625203146060812, 5021045.528357945382595 ], [ 10671.317171639399021, 5069524.061511115171015 ], [ 8983.685837785058538, 5069727.587873380631208 ], [ 9606.705029578923131, 5079461.553334295749664 ] ] ] } },
{ "type": "Feature", "properties": { "drag_region": "Southwest", "NAME": "Trempealeau", "NAMELSAD": "Trempealeau" }, "geometry": { "type": "Polygon", "coordinates": [ [ [ 77527.428343222403782, 4875165.28184609208256 ], [ 106305.448691099576536, 4873724.74732359405607 ], [ 104325.06591191671032, 4834886.305747326463461 ], [ 105471.42448525466898, 4834828.135519017465413 ], [ 104530.256761190874386, 4816220.446441866457462 ], [ 100837.838544210113469, 4817269.017518995329738 ], [ 98917.711091737888637, 4813540.374592182226479 ], [ 95288.665062882457278, 4815832.559962064027786 ], [ 89338.378194465694833, 4812316.480930477380753 ], [ 90465.853447082728962, 4806324.53331767488271 ], [ 82117.544799212468206, 4806767.886843674816191 ], [ 81068.965484414351522, 4808738.348882638849318 ], [ 71714.579016569055966, 4811833.883828160353005 ], [ 70643.424175787702552, 4813329.107127336785197 ], [ 74164.97542498788971, 4819642.881599207408726 ], [ 71902.561642722677789, 4825606.990831114351749 ], [ 68315.358794437648612, 4828392.096582410857081 ], [ 69422.484468912516604, 4832733.352456714957952 ], [ 75374.057943555744714, 4836326.487664008513093 ], [ 77527.428343222403782, 4875165.28184609208256 ] ] ] } },
{ "type": "Feature", "properties": { "drag_region": "Southeast", "NAME": "Fond du Lac", "NAMELSAD": "Fond du Lac" }, "geometry": { "type": "Polygon", "coordinates": [ [ [ 414306.204497901373543, 4785591.10777748003602 ], [ 453218.989114689116832, 4784529.900835137814283 ], [ 453304.881807028141338, 4789586.820605001412332 ], [ 472604.198823722661473, 4789191.567020876333117 ], [ 471989.876771148003172, 4745398.188631581142545 ], [ 452853.364426679967437, 4745788.362965520471334 ], [ 452726.093457299110014, 4755429.497929721139371 ], [ 413642.907518060237635, 4756490.377751943655312 ], [ 414306.204497901373543, 4785591.10777748003602 ] ] ] } },
{ "type": "Feature", "properties": { "drag_region": "Northwest", "NAME": "Ashland", "NAMELSAD": "Ashland" }, "geometry": { "type": "MultiPolygon", "coordinates": [ [ [ [ 178585.058578365191352, 5311093.683264829218388 ], [ 181116.014017719164258, 5318919.953559935092926 ], [ 184402.20697633002419, 5319158.842246177606285 ], [ 182727.491263498843182, 5312059.202999466098845 ], [ 178585.058578365191352, 5311093.683264829218388 ] ] ], [ [ [ 173588.426411457359791, 5297257.395624447613955 ], [ 179469.978305395285133, 5300151.903918129391968 ], [ 175443.11522166535724, 5295835.348601270467043 ], [ 173588.426411457359791, 5297257.395624447613955 ] ] ], [ [ [ 163997.052891653147526, 5303148.693402287550271 ], [ 165456.201705648156349, 5305089.590150019153953 ], [ 173774.846030918357428, 5307482.934120258316398 ], [ 175084.24487581057474, 5306180.710912053473294 ], [ 171872.945315445482265, 5301734.469883275218308 ], [ 165265.721703425282612, 5300985.235601431690156 ], [ 163997.052891653147526, 5303148.693402287550271 ] ] ], [ [ [ 155342.433046690421179, 5293991.74926776625216 ], [ 156286.648709157772828, 5296529.550789651460946 ], [ 161941.098214657045901, 5300183.811730141751468 ], [ 162129.42697188310558, 5298357.446469244547188 ], [ 155342.433046690421179, 5293991.74926776625216 ] ] ], [ [ [ 157644.882491119671613, 5307753.366205177269876 ], [ 161224.382400465663522, 5302417.702469067648053 ], [ 157658.348046403727494, 5302299.707166799344122 ], [ 155641.928729485021904, 5305935.984928764402866 ], [ 157644.882491119671613, 5307753.366205177269876 ] ] ], [ [ [ 155237.081521461484954, 5314565.904528742656112 ], [ 164942.537087870936375, 5317549.005608322098851 ], [ 167698.318579993851017, 5312159.950457665137947 ], [ 171665.263504028087482, 5315230.279175507836044 ], [ 172019.805372543516569, 5311005.605057622306049 ], [ 167614.633561900351197, 5310346.380659938789904 ], [ 162756.232231586880516, 5305885.16380110476166 ], [ 159942.203277675900608, 5310035.67579916678369 ], [ 155667.543595074152108, 5312153.347200620919466 ], [ 155237.081521461484954, 5314565.904528742656112 ] ] ], [ [ [ 152588.825321527081542, 5288097.139232805930078 ], [ 157327.382146660413127, 5289591.997373716905713 ], [ 166469.316741052432917, 5297390.343257590197027 ], [ 170159.11635095969541, 5294160.511372936889529 ], [ 161802.934726901585236, 5291389.663469727151096 ], [ 163016.105839792464394, 5287985.007766768336296 ], [ 158341.429341217386536, 5287821.938940244726837 ], [ 152692.317095220379997, 5284552.35119778290391 ], [ 152588.825321527081542, 5288097.139232805930078 ] ] ], [ [ [ 141342.853068750409875, 5266356.62096640188247 ], [ 151727.506812902749516, 5270248.574181060306728 ], [ 154863.576936922210734, 5272489.843821696937084 ], [ 156481.588678029424045, 5277578.622058775275946 ], [ 159352.020644949574489, 5274286.201495124027133 ], [ 170208.470929443079513, 5264891.192294214852154 ], [ 168216.582644524867646, 5226725.430130758322775 ], [ 177901.036043661297299, 5226298.847222693264484 ], [ 177484.382811893534381, 5216659.03330388572067 ], [ 187188.167667786357924, 5216343.231065478175879 ], [ 186387.22315593159874, 5197063.79208359029144 ], [ 157201.149490177922416, 5198439.437145257368684 ], [ 138014.648331987613346, 5199260.74831219855696 ], [ 141342.853068750409875, 5266356.62096640188247 ] ] ] ] } },
{ "type": "Feature", "properties": { "drag_region": "Southeast", "NAME": "Washington", "NAMELSAD": "Washington" }, "geometry": { "type": "Polygon", "coordinates": [ [ [ 458246.836555031186435, 4733499.67016998399049 ], [ 487241.151839078345802, 4732883.523102588951588 ], [ 486998.080823359952774, 4713420.779960102401674 ], [ 485253.201514830812812, 4713442.761889615096152 ], [ 485005.906730441784021, 4693980.589477936737239 ], [ 456137.341172322572675, 4694694.385577769950032 ], [ 456469.062275136937387, 4714252.132353345863521 ], [ 457632.258614535967354, 4714232.471213200129569 ], [ 458246.836555031186435, 4733499.67016998399049 ] ] ] } },
{ "type": "Feature", "properties": { "drag_region": "Southeast", "NAME": "Walworth", "NAMELSAD": "Walworth" }, "geometry": { "type": "Polygon", "coordinates": [ [ [ 419494.12288747826824, 4631121.593512877821922 ], [ 457916.212647073029075, 4630323.305935240350664 ], [ 457320.775327899435069, 4591784.277338803745806 ], [ 418676.153604145743884, 4592200.283431760966778 ], [ 418993.378471106931102, 4621301.856100289151073 ], [ 419494.12288747826824, 4631121.593512877821922 ] ] ] } },
{ "type": "Feature", "properties": { "drag_region": "Southwest", "NAME": "Adams", "NAMELSAD": "Adams" }, "geometry": { "type": "Polygon", "coordinates": [ [ [ 245980.172344482969493, 4815142.146085761487484 ], [ 270326.552855812595226, 4813943.86450626142323 ], [ 268217.361015502770897, 4746961.358456334099174 ], [ 253156.686975948803592, 4747258.937713515944779 ], [ 250456.287256398645695, 4753081.579507297836244 ], [ 247334.859619199880399, 4763314.598472650162876 ], [ 239857.690336078900145, 4772558.223080831579864 ], [ 238333.82223562776926, 4778345.502457028254867 ], [ 240673.486600567819551, 4779216.773497813381255 ], [ 239230.299667368002702, 4787198.571635095402598 ], [ 236692.307957154029282, 4788723.861749857664108 ], [ 235583.17865676182555, 4797745.939950237050653 ], [ 239453.477395542053273, 4801331.014686757698655 ], [ 240203.777565735101234, 4806176.667137903161347 ], [ 243876.687270168215036, 4804420.66154554579407 ], [ 245754.055852557299659, 4808748.936650400981307 ], [ 244117.919092943600845, 4811195.525390990078449 ], [ 245980.172344482969493, 4815142.146085761487484 ] ] ] } },
{ "type": "Feature", "properties": { "drag_region": "Northwest", "NAME": "Rusk", "NAMELSAD": "Rusk" }, "geometry": { "type": "Polygon", "coordinates": [ [ [ 75745.163763742297306, 5139102.920354351401329 ], [ 142882.585062016092706, 5135750.216617089696229 ], [ 141556.426128236169461, 5106833.171015596948564 ], [ 122175.57607459758583, 5107941.25950916018337 ], [ 121700.416689205958392, 5098207.016691602766514 ], [ 73573.762525419515441, 5100738.61757174320519 ], [ 75745.163763742297306, 5139102.920354351401329 ] ] ] } },
{ "type": "Feature", "properties": { "drag_region": "Southwest", "NAME": "Sauk", "NAMELSAD": "Sauk" }, "geometry": { "type": "Polygon", "coordinates": [ [ [ 204550.150924129178748, 4731058.832983261905611 ], [ 247109.268739958875813, 4729494.577614299021661 ], [ 247872.553434292261954, 4726316.845523294061422 ], [ 252450.760366001224611, 4724446.13663091044873 ], [ 251197.734523151593748, 4721621.783168572001159 ], [ 261874.364078373764642, 4719751.201443220488727 ], [ 260970.049268096161541, 4700105.738513563759625 ], [ 254793.576395805750508, 4698104.650293327867985 ], [ 251153.949272063386161, 4693637.960789089091122 ], [ 251057.566838586644735, 4690680.289771780371666 ], [ 250034.283342633105349, 4686129.204764363355935 ], [ 243867.223637808638159, 4684900.833130911923945 ], [ 241121.126903931202833, 4681363.904346983879805 ], [ 235802.77561314048944, 4679540.534810955636203 ], [ 228246.248214159917552, 4680571.262392482720315 ], [ 221105.866436335723847, 4677009.314370641484857 ], [ 212073.952881407691166, 4677730.238600770942867 ], [ 214027.099851740058511, 4721131.460403161123395 ], [ 204165.537161678657867, 4721421.908858776092529 ], [ 204550.150924129178748, 4731058.832983261905611 ] ] ] } },
{ "type": "Feature", "properties": { "drag_region": "Southeast", "NAME": "Jefferson", "NAMELSAD": "Jefferson" }, "geometry": { "type": "Polygon", "coordinates": [ [ [ 395631.44267264707014, 4685810.068497756496072 ], [ 434122.651552265742794, 4684803.820679739117622 ], [ 433177.670934485271573, 4665161.889012113213539 ], [ 432818.908146817644592, 4645605.192463259212673 ], [ 413753.697269890457392, 4645980.776886033825576 ], [ 394406.387200753204525, 4646893.205092904157937 ], [ 395631.44267264707014, 4685810.068497756496072 ] ] ] } },
{ "type": "Feature", "properties": { "drag_region": "Northeast", "NAME": "Oneida", "NAMELSAD": "Oneida" }, "geometry": { "type": "Polygon", "coordinates": [ [ [ 341207.611159663356375, 5161051.538597428239882 ], [ 389103.964680073491763, 5159599.91190698929131 ], [ 398857.180023491440807, 5159597.473990404978395 ], [ 398727.829346957267262, 5155111.645859997719526 ], [ 408466.428268283081707, 5154361.019228003919125 ], [ 408318.081813358701766, 5159140.785085009410977 ], [ 418329.103032318642363, 5158397.93244309630245 ], [ 417385.842146567651071, 5110575.00086229480803 ], [ 392430.043807310343254, 5111833.034116455353796 ], [ 387651.784883473475929, 5111688.950013362802565 ], [ 387665.835052209091373, 5121432.08394724316895 ], [ 339761.719381297240034, 5123066.604883999563754 ], [ 341207.611159663356375, 5161051.538597428239882 ] ] ] } },
{ "type": "Feature", "properties": { "drag_region": "Southwest", "NAME": "Monroe", "NAMELSAD": "Monroe" }, "geometry": { "type": "Polygon", "coordinates": [ [ [ 192314.856140582473017, 4804405.611240074038506 ], [ 190421.715524115075823, 4757268.64734320063144 ], [ 180569.005766613583546, 4757096.643185025081038 ], [ 142112.05296603241004, 4758707.459028403274715 ], [ 143935.29485240066424, 4797162.065798104740679 ], [ 139044.110361112572718, 4797300.874660319648683 ], [ 139075.167859446548391, 4803898.946411700919271 ], [ 145829.151525520777795, 4806731.563322147354484 ], [ 182579.755517749872524, 4805378.858394813723862 ], [ 192314.856140582473017, 4804405.611240074038506 ] ] ] } },
{ "type": "Feature", "properties": { "drag_region": "Northeast", "NAME": "Forest", "NAMELSAD": "Forest" }, "geometry": { "type": "Polygon", "coordinates": [ [ [ 444000.23852738115238, 5175180.760139078833163 ], [ 453304.400156984629575, 5169136.256993753835559 ], [ 458875.312862030521501, 5169680.398584556765854 ], [ 463289.612941667495761, 5168153.127787466160953 ], [ 463768.994102803175338, 5164514.457277259789407 ], [ 463163.966882024076767, 5135690.434004218317568 ], [ 482715.731774172978476, 5135311.654079267755151 ], [ 481753.70171642198693, 5096950.016250324435532 ], [ 462085.731044250482228, 5097520.628634576685727 ], [ 442695.422985101176891, 5097955.083191690035164 ], [ 443204.71467267681146, 5107492.060559643432498 ], [ 433664.578492652566638, 5107727.667537408880889 ], [ 434855.65943429042818, 5165190.490536641329527 ], [ 443752.048132694966625, 5164968.037098062224686 ], [ 444000.23852738115238, 5175180.760139078833163 ] ] ] } },
{ "type": "Feature", "properties": { "drag_region": "Southwest", "NAME": "Juneau", "NAMELSAD": "Juneau" }, "geometry": { "type": "Polygon", "coordinates": [ [ [ 200992.197153063520091, 4746642.360797539353371 ], [ 203701.66818455568864, 4814103.572453766129911 ], [ 236374.800337427383056, 4812961.313800822012126 ], [ 234512.547085888014408, 4809014.693106050603092 ], [ 236148.683845501713222, 4806568.104365461505949 ], [ 234271.3152631126286, 4802239.829260606318712 ], [ 230598.405558679514797, 4803995.834852963685989 ], [ 229848.105388486466836, 4799150.182401818223298 ], [ 225977.806649706239114, 4795565.107665297575295 ], [ 227086.935950098442845, 4786543.029464918188751 ], [ 229624.927660312416265, 4785017.739350155927241 ], [ 231068.114593512233114, 4777035.941212873905897 ], [ 228728.450228572182823, 4776164.670172088779509 ], [ 230252.318329023313709, 4770377.390795892104506 ], [ 237729.487612144293962, 4761133.766187710687518 ], [ 240850.915249343059259, 4750900.747222358360887 ], [ 243551.314968893217156, 4745078.105428576469421 ], [ 200992.197153063520091, 4746642.360797539353371 ] ] ] } },
{ "type": "Feature", "properties": { "drag_region": "Southeast", "NAME": "Winnebago", "NAMELSAD": "Winnebago" }, "geometry": { "type": "Polygon", "coordinates": [ [ [ 412194.300794899289031, 4837142.582631343044341 ], [ 450888.266800108540338, 4836558.135808729566634 ], [ 450223.583840048813727, 4797532.995361845009029 ], [ 411310.799223261070438, 4798594.202304187230766 ], [ 412194.300794899289031, 4837142.582631343044341 ] ] ] } },
{ "type": "Feature", "properties": { "drag_region": "Northeast", "NAME": "Brown", "NAMELSAD": "Brown" }, "geometry": { "type": "Polygon", "coordinates": [ [ [ 513111.672918221040163, 4980496.185959995724261 ], [ 513953.536153578723315, 4979719.83639925532043 ], [ 533021.83713452424854, 4980032.666137967258692 ], [ 532359.517708920640871, 4972405.615110889077187 ], [ 528595.977559479884803, 4967680.734865814447403 ], [ 534248.639934503706172, 4963602.57574516069144 ], [ 537678.569958392647095, 4964230.715941851958632 ], [ 539730.711388145806268, 4969265.762882949784398 ], [ 547199.899197744787671, 4975295.104203757829964 ], [ 550908.705186375416815, 4976118.197918419726193 ], [ 550293.53800370846875, 4940910.084874203428626 ], [ 540849.53049237804953, 4941005.310329527594149 ], [ 540458.870651489356533, 4931371.096288887783885 ], [ 528134.899545944994316, 4931516.179828150197864 ], [ 516386.888741403701715, 4931866.92988511826843 ], [ 516943.635848174919374, 4970130.861496380530298 ], [ 512666.955028343654703, 4970003.798315250314772 ], [ 513111.672918221040163, 4980496.185959995724261 ] ] ] } },
{ "type": "Feature", "properties": { "drag_region": "Southwest", "NAME": "Iowa", "NAMELSAD": "Iowa" }, "geometry": { "type": "Polygon", "coordinates": [ [ [ 189002.372654634789797, 4666863.223548556677997 ], [ 195456.571412928024074, 4667557.06274316739291 ], [ 202694.229931353445863, 4665932.92460089828819 ], [ 208093.439037208096124, 4661998.018627054989338 ], [ 217125.352592136099702, 4661277.094396925531328 ], [ 224265.73436996032251, 4664839.042418766766787 ], [ 231822.261768940865295, 4663808.314837239682674 ], [ 237140.613059731578687, 4665631.684373267926276 ], [ 235665.986979989364045, 4622031.339856601320207 ], [ 187532.423675775382435, 4623726.266345002688468 ], [ 189002.372654634789797, 4666863.223548556677997 ] ] ] } },
{ "type": "Feature", "properties": { "drag_region": "Southeast", "NAME": "Sheboygan", "NAMELSAD": "Sheboygan" }, "geometry": { "type": "Polygon", "coordinates": [ [ [ 487274.408438395243138, 4784248.39131286740303 ], [ 521869.476902256021276, 4783851.939830978401005 ], [ 522077.974571929953527, 4774785.282936225645244 ], [ 524347.160210728179663, 4769994.83572019264102 ], [ 523686.432545122865122, 4760267.963083035312593 ], [ 517504.843638913647737, 4749064.309782788157463 ], [ 516598.149305312836077, 4745160.858766661956906 ], [ 496589.051623378356453, 4745285.940501927398145 ], [ 486731.248683799232822, 4745511.913235383108258 ], [ 487274.408438395243138, 4784248.39131286740303 ] ] ] } }
]
}
