{
"type": "FeatureCollection",
"name": "map",
"crs": { "type": "name", "properties": { "name": "urn:ogc:def:crs:EPSG::26918" } },
"features": [
{ "type": "Feature", "properties": { "drag_region": "West", "NAME": "Washington", "NAMELSAD": "Washington" }, "geometry": { "type": "Polygon", "coordinates": [ [ [ 186666.688058566156542, 4427145.185117700137198 ], [ 207590.69614212369197, 4426392.889036210253835 ], [ 261427.444143801374594, 4424433.519551558420062 ], [ 257930.828145337552996, 4420522.465388625860214 ], [ 259446.197922116523841, 4419621.317457881756127 ], [ 256870.682636352052214, 4415685.059902491047978 ], [ 252492.601959822379285, 4413518.737106596119702 ], [ 249773.800990260817343, 4404816.674914785660803 ], [ 247505.930421781289624, 4401160.395745160058141 ], [ 248001.245017594919773, 4396946.670192237012088 ], [ 242273.173753719922388, 4380985.519454513676465 ], [ 238551.181548834691057, 4380810.402493624016643 ], [ 235497.310313781403238, 4382239.231717387214303 ], [ 237535.799466497875983, 4388190.353419073857367 ], [ 236115.139774792158278, 4392337.813277835957706 ], [ 233369.441389635845553, 4393567.569326401688159 ], [ 232602.406596383196302, 4398745.731349118053913 ], [ 230177.232824055332458, 4400253.258163872174919 ], [ 230299.991500046016881, 4404163.078379197046161 ], [ 227159.939609797671437, 4402544.088068906217813 ], [ 224847.288509734818945, 4407486.493470239453018 ], [ 229827.101606123062083, 4408759.864137032069266 ], [ 229938.342572541470872, 4412288.277073363773525 ], [ 225610.986196753423428, 4412044.121448568999767 ], [ 220442.804735158046242, 4414407.474636380560696 ], [ 214832.09457636118168, 4412684.042644412256777 ], [ 213666.578653266333276, 4414728.126607546582818 ], [ 207419.248241642751964, 4421433.744454481638968 ], [ 200097.389544919627951, 4423600.04561248794198 ], [ 192708.14726698686718, 4415366.898697583004832 ], [ 186923.732857661641901, 4417489.667604279704392 ], [ 186471.027286541677313, 4421899.704576395452023 ], [ 189004.923463676444953, 4423715.693357214331627 ], [ 186666.688058566156542, 4427145.185117700137198 ] ] ] } },
{ "type": "Feature", "properties": { "drag_region": "West", "NAME": "Allegany", "NAMELSAD": "Allegany" }, "geometry": { "type": "Polygon", "coordinates": [ [ [ 101482.493391872296343, 4430166.517666284926236 ], [ 151642.598072229855461, 4428130.276796824298799 ], [ 153980.833477340143872, 4424700.785036338493228 ], [ 151446.937300205376232, 4422884.796255519613624 ], [ 151899.64287132534082, 4418474.759283403865993 ], [ 147865.577673119987594, 4417861.706015107221901 ], [ 147471.108920091675827, 4415584.389827914535999 ], [ 143196.097111866198247, 4416797.433054124936461 ], [ 146470.679894438857445, 4413616.497594751417637 ], [ 142466.344427483185427, 4413864.482645858079195 ], [ 144446.698274066933664, 4409108.800628996454179 ], [ 139988.023201229778351, 4405650.059770126827061 ], [ 131361.189994964603102, 4406369.613367473706603 ], [ 129269.390772924612975, 4408172.399097162298858 ], [ 123711.345614713820396, 4408301.046328100375831 ], [ 117982.935717724816641, 4411784.720777469687164 ], [ 117469.133209884021198, 4414290.178581895306706 ], [ 113532.907129517145222, 4416174.733918668702245 ], [ 117596.077935873967363, 4417342.30206045601517 ], [ 113629.33465981905465, 4418463.852183975279331 ], [ 101260.993613149476005, 4403895.820569850504398 ], [ 97637.772617992275627, 4398893.797614980489016 ], [ 88230.705097251542611, 4403135.958714047446847 ], [ 101482.493391872296343, 4430166.517666284926236 ] ] ] } },
{ "type": "Feature", "properties": { "drag_region": "East", "NAME": "Caroline", "NAMELSAD": "Caroline" }, "geometry": { "type": "Polygon", "coordinates": [ [ [ 469688.309458507283125, 4276765.87737968377769 ], [ 470376.577011106652208, 4283146.719947120174766 ], [ 474775.082950405776501, 4287774.285697189159691 ], [ 478558.920731500082184, 4293649.367523872293532 ], [ 479528.159001444873866, 4297740.11568892467767 ], [ 487317.873245418013539, 4301485.858177412301302 ], [ 489214.089224277879111, 4266767.385082060471177 ], [ 490293.09550449292874, 4245118.182639323174953 ], [ 485653.809825037140399, 4250779.984128011390567 ], [ 482522.901990297075827, 4249757.920890643261373 ], [ 479116.324284060916398, 4252839.019733638502657 ], [ 469718.873420419637114, 4249593.5257668774575 ], [ 463541.839512660983019, 4255761.363506438210607 ], [ 467969.143755139433779, 4261338.544478243216872 ], [ 473928.417773820576258, 4264900.739335654303432 ], [ 469648.685822601662949, 4272952.599246180616319 ], [ 469688.309458507283125, 4276765.87737968377769 ] ] ] } },
{ "type": "Feature", "properties": { "drag_region": "East", "NAME": "Wicomico", "NAMELSAD": "Wicomico" }, "geometry": { "type": "Polygon", "coordinates": [ [ [ 482247.771122393896803, 4193093.232547669671476 ], [ 482280.702488301438279, 4196620.181450610049069 ], [ 485828.599098835722543, 4207741.592027282342315 ], [ 491490.262724537984468, 4210934.269447502680123 ], [ 496537.021205854602158, 4216137.463017649948597 ], [ 497078.452501663123257, 4204979.772855451330543 ], [ 527764.438201855518855, 4203949.550812995061278 ], [ 529938.429875076748431, 4198603.708262586966157 ], [ 528675.630569663597271, 4196034.431248657405376 ], [ 530860.311152040259913, 4193071.924668301828206 ], [ 524872.823283431003802, 4185944.825435975566506 ], [ 503834.064389233652037, 4184817.99954650644213 ], [ 499454.680221477698069, 4187040.75497910566628 ], [ 494405.485440665623173, 4183551.5352195603773 ], [ 491909.795959499489982, 4185573.263637577183545 ], [ 491909.022288971988019, 4185477.942633058875799 ], [ 491909.022288971988019, 4185477.942633058875799 ], [ 491909.795959499489982, 4185573.263637577183545 ], [ 481816.359786341781728, 4180513.687304007820785 ], [ 478668.699165505298879, 4179876.416300107724965 ], [ 478425.418592351255938, 4187123.91999498847872 ], [ 482247.771122393896803, 4193093.232547669671476 ] ] ] } },
{ "type": "Feature", "properties": { "drag_region": "East", "NAME": "St. Mary's", "NAMELSAD": "St. Mary's" }, "geometry": { "type": "Polygon", "coordinates": [ [ [ 380355.249674718827009, 4207661.922660322859883 ], [ 381851.741013128194027, 4203820.364463458769023 ], [ 385844.577260518039111, 4199267.701460039243102 ], [ 395149.865139738772996, 4193294.120964297559112 ], [ 399087.999038065376226, 4184458.773319966625422 ], [ 403512.918157979147509, 4186392.690949662122875 ], [ 406003.578975055774208, 4185020.379345939029008 ], [ 403738.670448436867446, 4180573.057059830520302 ], [ 404926.320432440959848, 4175978.54537812853232 ], [ 410457.203663052525371, 4167126.116394048091024 ], [ 408854.15296336915344, 4165051.569026204291731 ], [ 410295.8163729183143, 4155782.798260899726301 ], [ 407487.233981542056426, 4157634.69065478304401 ], [ 404105.963131511176471, 4163214.586828974541277 ], [ 401594.094949674443342, 4163634.049612103495747 ], [ 400115.276795012934599, 4169759.02842970425263 ], [ 397585.976761420140974, 4168940.563839216250926 ], [ 396870.562641030352097, 4163517.073005293961614 ], [ 394726.183904537349008, 4167174.712325966451317 ], [ 392204.91236994380597, 4166929.842096209991723 ], [ 390708.36583999497816, 4171531.54145156731829 ], [ 387009.15038200316485, 4175885.097514263819903 ], [ 379821.225140687602106, 4178204.998898527119309 ], [ 368831.178061372949742, 4178697.209615955594927 ], [ 366561.084535814647097, 4191044.088555885944515 ], [ 364696.218374797666911, 4191939.547165845986456 ], [ 362558.802829187130556, 4194843.792219638824463 ], [ 367378.454409266007133, 4200660.22023883741349 ], [ 371611.101359860331286, 4208874.729177431203425 ], [ 380355.249674718827009, 4207661.922660322859883 ] ] ] } },
{ "type": "Feature", "properties": { "drag_region": "Central", "NAME": "Carroll", "NAMELSAD": "Carroll" }, "geometry": { "type": "Polygon", "coordinates": [ [ [ 311785.451074881537352, 4476608.914609372615814 ], [ 330553.093132390116807, 4476167.23271562717855 ], [ 348706.863406063697767, 4475879.047624453902245 ], [ 341431.246118388895411, 4451607.34355407115072 ], [ 339168.702364113240037, 4446789.652080305851996 ], [ 339846.688175185467117, 4434851.822363863699138 ], [ 332147.459672381344717, 4436542.262802172452211 ], [ 327476.753612184955273, 4435214.662726565264165 ], [ 321027.976263328397181, 4437365.31379062961787 ], [ 315113.773470703454223, 4435883.243579342961311 ], [ 317139.62294950830983, 4442990.182054365985096 ], [ 320028.015086248808075, 4447501.314405632205307 ], [ 320435.155415766232181, 4451689.525425137020648 ], [ 313236.993800209194887, 4460448.510787173174322 ], [ 305611.585957601724658, 4463882.820910314098001 ], [ 303554.917924307228532, 4467847.621937047690153 ], [ 306615.902164019295014, 4467006.05966857727617 ], [ 307939.463508690882009, 4470598.423278339207172 ], [ 312034.2123480613227, 4474217.412238352000713 ], [ 311785.451074881537352, 4476608.914609372615814 ] ] ] } },
{ "type": "Feature", "properties": { "drag_region": "East", "NAME": "Dorchester", "NAMELSAD": "Dorchester" }, "geometry": { "type": "MultiPolygon", "coordinates": [ [ [ [ 454479.809106243716087, 4173895.660158229991794 ], [ 452873.858753998356406, 4170958.350280825048685 ], [ 449090.494137501402292, 4170334.637396287173033 ], [ 449506.911180305818561, 4179005.160337964072824 ], [ 452978.415070615243167, 4180204.478662996552885 ], [ 455146.705766421509907, 4177320.24211014714092 ], [ 454479.809106243716087, 4173895.660158229991794 ] ] ], [ [ [ 455006.548244579753373, 4221080.989218097180128 ], [ 458469.631839865178335, 4223235.67788116261363 ], [ 459133.628629601153079, 4226851.402112656272948 ], [ 462626.487814139516558, 4232248.989755755290389 ], [ 472023.938677780795842, 4235494.483722516335547 ], [ 475430.516384016955271, 4232413.384879521094263 ], [ 478561.424218757019844, 4233435.448116889223456 ], [ 483200.709898212808184, 4227773.646628201007843 ], [ 483762.265461347124074, 4219475.509837027639151 ], [ 478715.506980030506384, 4214272.316266880370677 ], [ 473053.843354328244459, 4211079.638846660032868 ], [ 469505.946743793960195, 4199958.228269987739623 ], [ 469473.015377886418719, 4196431.27936704736203 ], [ 464754.419265507021919, 4195046.717594015412033 ], [ 462513.013536014885176, 4190588.621409293264151 ], [ 462454.840164886612911, 4184869.306374010629952 ], [ 459941.194232115638442, 4184799.917098331265152 ], [ 456566.335739537375048, 4192176.677602538838983 ], [ 460027.141419853724074, 4192997.632115983404219 ], [ 459766.609023220604286, 4198053.062041142955422 ], [ 457268.390875806624535, 4199033.136884784325957 ], [ 455962.847313297039364, 4194375.987991471774876 ], [ 453103.70728159713326, 4191261.871367636136711 ], [ 454958.150549921439961, 4188667.014865780249238 ], [ 452065.048453591705766, 4182788.894010690972209 ], [ 450840.438227234815713, 4185567.715747475624084 ], [ 445474.50366990006296, 4183438.996860130690038 ], [ 442661.588550864194985, 4184618.019383563660085 ], [ 437740.654437601973768, 4192594.845191224478185 ], [ 434933.316200884059072, 4193871.984677387401462 ], [ 435616.281802365148906, 4197962.462084856815636 ], [ 428298.629572959325742, 4212462.284576364792883 ], [ 434577.608906058070716, 4213708.466653602197766 ], [ 436192.861077274370473, 4217404.919709890149534 ], [ 433680.937490384443663, 4216771.921206711791456 ], [ 430934.313357750826981, 4221673.224702438339591 ], [ 433488.754277404688764, 4225451.210461823269725 ], [ 437267.230167367728427, 4227497.124688303098083 ], [ 439110.350511633383576, 4225088.88129963632673 ], [ 442892.325673257291783, 4227518.741337452083826 ], [ 443161.134132786130067, 4224082.922724986448884 ], [ 450027.431207414134406, 4223140.545769579708576 ], [ 454049.077697127417196, 4219375.674964592792094 ], [ 455006.548244579753373, 4221080.989218097180128 ] ] ] ] } },
{ "type": "Feature", "properties": { "drag_region": "West", "NAME": "Garrett", "NAMELSAD": "Garrett" }, "geometry": { "type": "Polygon", "coordinates": [ [ [ 32706.778376823000144, 4429704.713941969908774 ], [ 79804.964904413034674, 4427684.681785397231579 ], [ 66553.176609792280942, 4400654.12283315975219 ], [ 64073.55164568789769, 4400575.44184797629714 ], [ 59728.977220040513203, 4393605.296131967566907 ], [ 49874.591230229358189, 4388328.600189591757953 ], [ 48183.02639006159734, 4385349.28409210126847 ], [ 46476.723619961179793, 4382084.089099362492561 ], [ 42765.335606137581635, 4382356.908300768584013 ], [ 32062.350487159041222, 4373028.588758870027959 ], [ 28928.572269395343028, 4372514.043781174346805 ], [ 32706.778376823000144, 4429704.713941969908774 ] ] ] } },
{ "type": "Feature", "properties": { "drag_region": "Central", "NAME": "Kent", "NAMELSAD": "Kent" }, "geometry": { "type": "Polygon", "coordinates": [ [ [ 453085.778266162262298, 4421290.031893433071673 ], [ 462961.952200210769661, 4419470.470763089135289 ], [ 468548.813495020149276, 4421705.943827719427645 ], [ 473181.73526184365619, 4421188.403796847909689 ], [ 473986.965723900357261, 4406593.920401117764413 ], [ 469646.496803059824742, 4406154.722150608897209 ], [ 466875.562851967988536, 4407991.491760767064989 ], [ 458181.782841570326127, 4405884.022375104948878 ], [ 452298.335015964810736, 4406138.048563278280199 ], [ 446969.359599697869271, 4400859.578344245441258 ], [ 448791.719769420684315, 4397596.392549519427121 ], [ 442823.558081462746486, 4391469.818162648938596 ], [ 439081.127537292661145, 4390086.442591892555356 ], [ 435343.64364943606779, 4389181.510173046961427 ], [ 434346.132655994733796, 4384236.408225377090275 ], [ 435549.733170988271013, 4381264.523117821663618 ], [ 431842.785808094544336, 4382935.255589216016233 ], [ 432856.217418734682724, 4388928.768450411036611 ], [ 431071.09261747810524, 4394579.132911967113614 ], [ 428918.253791664144956, 4395944.143994060344994 ], [ 434055.786119908327237, 4408841.849211601540446 ], [ 437823.890709390747361, 4412796.875078728422523 ], [ 437234.858168917708099, 4415093.117188022471964 ], [ 441596.587719182833098, 4417421.049505791626871 ], [ 443805.147728472598828, 4420921.752051124349236 ], [ 451212.464352856506594, 4419690.054037949070334 ], [ 453085.778266162262298, 4421290.031893433071673 ] ] ] } },
{ "type": "Feature", "properties": { "drag_region": "Central", "NAME": "Montgomery", "NAMELSAD": "Montgomery" }, "geometry": { "type": "Polygon", "coordinates": [ [ [ 281942.051652548892889, 4401557.666955056600273 ], [ 307397.338073915161658, 4415695.521789832040668 ], [ 305816.243593463441357, 4414302.551129790022969 ], [ 310577.273496332636569, 4406175.031761943362653 ], [ 315494.850041640631389, 4404439.120637130923569 ], [ 320643.832162167702336, 4399076.339808071963489 ], [ 321784.89598807762377, 4394567.685473359189928 ], [ 331006.869688581500668, 4390459.33801465574652 ], [ 321672.633988906105515, 4375301.370713462121785 ], [ 320672.881846251082607, 4372270.87401491496712 ], [ 317324.64960501313908, 4375588.530315576121211 ], [ 310641.138808409858029, 4369063.674738489091396 ], [ 307924.180639752710704, 4372656.988937148824334 ], [ 301718.146515174827073, 4373378.387619871646166 ], [ 299270.386688298254739, 4375060.376020018011332 ], [ 299694.343676163989585, 4379629.314724053256214 ], [ 292635.362904929497745, 4383241.692621545866132 ], [ 281197.20764361001784, 4385547.077923726290464 ], [ 279435.756830110854935, 4389316.492352550849319 ], [ 276366.327375413326081, 4390641.62170712929219 ], [ 276830.104673305700999, 4396163.426663432270288 ], [ 281942.051652548892889, 4401557.666955056600273 ] ] ] } },
{ "type": "Feature", "properties": { "drag_region": "East", "NAME": "Talbot", "NAMELSAD": "Talbot" }, "geometry": { "type": "MultiPolygon", "coordinates": [ [ [ [ 438922.115449866862036, 4264289.691772345453501 ], [ 442076.889627644559368, 4267395.386105312034488 ], [ 447374.341645079432055, 4267711.02355876006186 ], [ 446171.034470723068807, 4271158.149936619214714 ], [ 448390.475270843016915, 4274563.777524804696441 ], [ 460802.9877866358147, 4271564.595833698287606 ], [ 460763.364150730194524, 4267751.317700195126235 ], [ 465043.096101949107833, 4259699.457789668813348 ], [ 459083.822083267965354, 4256137.262932257726789 ], [ 454656.517840789514594, 4250560.081960452720523 ], [ 460833.551748548168689, 4244392.244220891967416 ], [ 457340.69256400980521, 4238994.656577792949975 ], [ 456676.695774273830466, 4235378.932346299290657 ], [ 453213.612178988405503, 4233224.243683233857155 ], [ 448592.129699448356405, 4239093.230696079321206 ], [ 443297.129271213547327, 4240492.360501291230321 ], [ 440849.1894997759955, 4244527.792415629141033 ], [ 438659.745666524977423, 4244270.093197568319738 ], [ 433764.342105774849188, 4251677.492364143021405 ], [ 432167.34502336953301, 4249029.775507423095405 ], [ 428449.886364184843842, 4250989.401879154145718 ], [ 428056.768128664582036, 4245369.337939538992941 ], [ 425882.423722700739745, 4246163.791609074920416 ], [ 426959.447333129821345, 4255778.623169871047139 ], [ 432694.040163184050471, 4264469.274612110108137 ], [ 436997.250906377856154, 4260119.813417526893318 ], [ 439502.759262592880987, 4261040.229532038792968 ], [ 438922.115449866862036, 4264289.691772345453501 ] ] ], [ [ [ 421655.690703055413906, 4255667.120693334378302 ], [ 423243.544179444201291, 4257550.133850212208927 ], [ 424737.053151930798776, 4253141.475144189782441 ], [ 421655.690703055413906, 4255667.120693334378302 ] ] ] ] } },
{ "type": "Feature", "properties": { "drag_region": "Central", "NAME": "Baltimore", "NAMELSAD": "Baltimore" }, "geometry": { "type": "Polygon", "coordinates": [ [ [ 383445.390672991517931, 4409704.960953867994249 ], [ 379463.203706923290156, 4412348.253704248927534 ], [ 380316.388197967084125, 4407946.400851335376501 ], [ 383071.082093602104578, 4405896.544721671380103 ], [ 378733.855437842896208, 4406066.491371541284025 ], [ 375694.317309329751879, 4409458.229911187663674 ], [ 367724.606434451066889, 4414087.545103933662176 ], [ 367923.316003214102238, 4424575.449585031718016 ], [ 383692.116150795016438, 4424292.377309717237949 ], [ 383445.390672991517931, 4409704.960953867994249 ] ] ] } },
{ "type": "Feature", "properties": { "drag_region": "Central", "NAME": "Cecil", "NAMELSAD": "Cecil" }, "geometry": { "type": "Polygon", "coordinates": [ [ [ 439614.342419940046966, 4476710.055219092406332 ], [ 477452.707826885976829, 4476283.42223513033241 ], [ 477380.506406491738744, 4468083.861983428709209 ], [ 478971.918625827413052, 4438035.458591000176966 ], [ 474338.996859003906138, 4438552.998621871694922 ], [ 468752.135564194526523, 4436317.525557241402566 ], [ 458875.961630146019161, 4438137.08668758533895 ], [ 455489.512016350170597, 4439414.979072431102395 ], [ 461125.716431572567672, 4446026.621519792824984 ], [ 458043.709737226366997, 4446632.736048412509263 ], [ 461874.771415552706458, 4458223.689025602303445 ], [ 452604.65135823469609, 4456708.09206728450954 ], [ 446544.618817364680581, 4465270.008470861241221 ], [ 444446.609843609039672, 4469779.109437116421759 ], [ 441099.604563037282787, 4472779.878264308907092 ], [ 439614.342419940046966, 4476710.055219092406332 ] ] ] } },
{ "type": "Feature", "properties": { "drag_region": "Central", "NAME": "Howard", "NAMELSAD": "Howard" }, "geometry": { "type": "Polygon", "coordinates": [ [ [ 319399.151410851452965, 4421447.455948669463396 ], [ 319401.440664945228491, 4421542.806045268662274 ], [ 325315.643457570171449, 4423024.876256555318832 ], [ 331764.420806426729541, 4420874.225192490965128 ], [ 336435.126866623118985, 4422201.825268098153174 ], [ 344134.355369427241385, 4420511.384829789400101 ], [ 348068.135936055739876, 4416138.121662790887058 ], [ 352984.009100221155677, 4414227.668252190575004 ], [ 351373.886981440882664, 4411111.855540426447988 ], [ 359625.693514489976224, 4405134.556948491372168 ], [ 355523.677734770753887, 4401397.383790448307991 ], [ 351690.395753733289894, 4395749.298751699738204 ], [ 346980.212434433633462, 4393077.414238946512341 ], [ 343008.683025517791975, 4396211.272173493169248 ], [ 333786.709325013915077, 4400319.619632196612656 ], [ 332645.645499103993643, 4404828.273966909386218 ], [ 327496.663378576922696, 4410191.054795968346298 ], [ 322579.086833268927876, 4411926.965920780785382 ], [ 317818.056930399732664, 4420054.485288627445698 ], [ 319399.151410851452965, 4421447.455948669463396 ] ] ] } },
{ "type": "Feature", "properties": { "drag_region": "East", "NAME": "Calvert", "NAMELSAD": "Calvert" }, "geometry": { "type": "Polygon", "coordinates": [ [ [ 381297.501026069745421, 4245194.957784383557737 ], [ 386949.408025199081749, 4247190.789445233531296 ], [ 386868.26875733199995, 4242614.709278028458357 ], [ 394956.981210326077417, 4241045.059502576477826 ], [ 394579.505504778120667, 4237141.610490212216973 ], [ 396338.207683559972793, 4230151.234782930463552 ], [ 395572.936897571082227, 4221677.058146537281573 ], [ 397662.177699772058986, 4215444.726813332177699 ], [ 404432.712263883673586, 4207709.657675174996257 ], [ 406850.881613913574256, 4201761.295276781544089 ], [ 403962.599725946900435, 4197514.458795603364706 ], [ 399259.112537942361087, 4197778.73614833317697 ], [ 396835.786793109960854, 4203157.477573178708553 ], [ 387530.498913889285177, 4209131.058068920858204 ], [ 383537.662666499381885, 4213683.721072340384126 ], [ 382041.171328090014867, 4217525.279269204474986 ], [ 381801.145167542388663, 4221534.926427369937301 ], [ 382278.945448636659421, 4230585.860537150874734 ], [ 379971.812045814702287, 4241023.295852536335588 ], [ 381297.501026069745421, 4245194.957784383557737 ] ] ] } },
{ "type": "Feature", "properties": { "drag_region": "Central", "NAME": "Queen Anne's", "NAMELSAD": "Queen Anne's" }, "geometry": { "type": "Polygon", "coordinates": [ [ [ 440397.865255053795408, 4380150.448817152529955 ], [ 444140.295799223938957, 4381533.824387908913195 ], [ 450108.457487181818578, 4387660.39877477940172 ], [ 448286.097317459003534, 4390923.584569505415857 ], [ 453615.072733725945, 4396202.054788538254797 ], [ 459498.52055933146039, 4395948.028600364923477 ], [ 468192.300569729122799, 4398055.497986027039587 ], [ 470963.234520820959006, 4396218.728375868871808 ], [ 475303.703441661549732, 4396657.926626377739012 ], [ 476138.632572150905617, 4385209.933125663548708 ], [ 468348.918328177765943, 4381464.190637175925076 ], [ 467379.680058232974261, 4377373.442472123540938 ], [ 463595.842277138668578, 4371498.360645440407097 ], [ 459197.336337839544285, 4366870.794895371422172 ], [ 458509.068785240175202, 4360489.952327935025096 ], [ 446096.556269447377417, 4363489.13401904143393 ], [ 443877.115469327429309, 4360083.506430855952203 ], [ 445080.422643683792558, 4356636.38005299679935 ], [ 439782.970626248919871, 4356320.742599548771977 ], [ 436628.196448471222539, 4353215.04826658219099 ], [ 436429.826128688582685, 4361799.156243348494172 ], [ 433962.6652553055319, 4363453.070495749823749 ], [ 428610.970510948915035, 4359045.565433368086815 ], [ 424881.588864655292127, 4359480.708471462130547 ], [ 425126.025346343987621, 4354900.10532402433455 ], [ 421364.658986461290624, 4353334.826923727989197 ], [ 422758.445323507592548, 4363230.983954526484013 ], [ 427873.634761264023837, 4372787.149845558218658 ], [ 429980.294706996122841, 4367894.165557475760579 ], [ 436495.259042899357155, 4366756.546078301034868 ], [ 439953.309910507290624, 4369667.496599582023919 ], [ 438155.435611229680944, 4374839.662001619115472 ], [ 440397.865255053795408, 4380150.448817152529955 ] ] ] } },
{ "type": "Feature", "properties": { "drag_region": "East", "NAME": "Charles", "NAMELSAD": "Charles" }, "geometry": { "type": "Polygon", "coordinates": [ [ [ 324386.71106006402988, 4232789.16480634175241 ], [ 324174.053930561174639, 4237086.712339449673891 ], [ 328313.892736251349561, 4240520.857185556553304 ], [ 331526.021492171508726, 4230528.17883806861937 ], [ 333787.168900917517021, 4233816.525138024240732 ], [ 338507.734554957423825, 4235335.368457091972232 ], [ 347559.184570672397967, 4234860.147521931678057 ], [ 357468.225892714690417, 4230182.578183888457716 ], [ 357968.501806759159081, 4223592.655479720793664 ], [ 363551.150574002473149, 4220913.985069497488439 ], [ 363791.176734550157562, 4216904.337911332026124 ], [ 355047.028419691661838, 4218117.144428440369666 ], [ 350814.381469097337686, 4209902.635489846579731 ], [ 345994.729889018461108, 4204086.207470647990704 ], [ 348132.145434628997464, 4201181.962416854687035 ], [ 346198.142874712590128, 4198645.917205242440104 ], [ 349206.875300681160297, 4192100.485896417871118 ], [ 348537.124355369945988, 4190015.701720669865608 ], [ 341712.573310108564328, 4194255.471482961438596 ], [ 341152.361877116491087, 4197509.832519918680191 ], [ 337136.222157748125028, 4200551.330189910717309 ], [ 333609.834567941958085, 4211500.861525417305529 ], [ 327249.502690245048143, 4207445.753543927334249 ], [ 316778.545652440749109, 4202347.954528972506523 ], [ 313077.661394499300513, 4205012.995437844656408 ], [ 311153.72800813568756, 4216030.81578526366502 ], [ 314788.120402226573788, 4223764.198472269810736 ], [ 319609.367739143723156, 4229085.714956724084914 ], [ 325926.973388847545721, 4231799.669142165221274 ], [ 324386.71106006402988, 4232789.16480634175241 ] ] ] } },
{ "type": "Feature", "properties": { "drag_region": "East", "NAME": "Somerset", "NAMELSAD": "Somerset" }, "geometry": { "type": "MultiPolygon", "coordinates": [ [ [ [ 477910.068030544207431, 4169934.339775451458991 ], [ 488003.504203701915685, 4174993.91610902082175 ], [ 488002.730533174413722, 4174898.595104502514005 ], [ 488002.730533174413722, 4174898.595104502514005 ], [ 488003.504203701915685, 4174993.91610902082175 ], [ 490499.193684868048877, 4172972.187691004015505 ], [ 495548.388465680123772, 4176461.407450549304485 ], [ 499927.77263343607774, 4174238.652017950080335 ], [ 500533.76061065972317, 4170898.306653413921595 ], [ 505827.387516219634563, 4163144.213685580529273 ], [ 502973.721840266080108, 4159253.323600800707936 ], [ 506083.805767759971786, 4153229.330602189525962 ], [ 502606.635465934406966, 4150867.36205614823848 ], [ 499461.382714331557509, 4151364.270097581669688 ], [ 495964.619028067565523, 4146622.190938401967287 ], [ 498773.444304550357629, 4142694.69010950718075 ], [ 496846.096613650326617, 4137465.254577193409204 ], [ 494956.661312414158601, 4137859.862978911958635 ], [ 490879.08753976074513, 4140749.754716080613434 ], [ 484886.357990277698264, 4140416.656409285962582 ], [ 477894.339715345297009, 4134377.66958646196872 ], [ 475054.012572104809806, 4134309.093738908879459 ], [ 474800.051155279215891, 4140698.328425796702504 ], [ 477069.359046950936317, 4147349.556417131796479 ], [ 482447.485208289232105, 4149969.953980308026075 ], [ 477096.201261407113634, 4150209.093931446783245 ], [ 477765.921906983712688, 4154492.532390363514423 ], [ 481261.699578585044947, 4158273.752094196155667 ], [ 474664.137200553552248, 4159193.116471723653376 ], [ 470857.709712373092771, 4156085.11750480812043 ], [ 469626.656688863644376, 4158766.971701093018055 ], [ 471255.519716497161426, 4164279.439760949462652 ], [ 479451.857706648879685, 4166774.229414855130017 ], [ 477910.068030544207431, 4169934.339775451458991 ] ] ], [ [ [ 466262.867702390416525, 4138401.889804345555604 ], [ 461848.066213267389685, 4138450.219463889487088 ], [ 461610.021518574561924, 4145316.666614703834057 ], [ 464159.915819514135364, 4147957.565600357018411 ], [ 467584.454203857516404, 4144107.571044933050871 ], [ 466262.867702390416525, 4138401.889804345555604 ] ] ], [ [ [ 461742.322742708260193, 4157040.955932890996337 ], [ 463348.273094953619875, 4159978.265810295939445 ], [ 465465.188438955345191, 4152137.878222026862204 ], [ 460765.815327083750162, 4154192.0703343488276 ], [ 461742.322742708260193, 4157040.955932890996337 ] ] ] ] } },
{ "type": "Feature", "properties": { "drag_region": "East", "NAME": "Worcester", "NAMELSAD": "Worcester" }, "geometry": { "type": "Polygon", "coordinates": [ [ [ 516015.041085724020377, 4177118.170572986826301 ], [ 537053.799979921430349, 4178244.996462455950677 ], [ 543041.28784853068646, 4185372.095694782212377 ], [ 540856.607266154023819, 4188334.602275137789547 ], [ 542119.406571567174979, 4190903.879289067350328 ], [ 539945.414898345945403, 4196249.721839475445449 ], [ 565313.398423921200447, 4196100.433771658688784 ], [ 564997.79827934934292, 4192001.78677567653358 ], [ 562168.279280936112627, 4181995.287093077786267 ], [ 560597.974055947503075, 4180567.113508245907724 ], [ 554283.826279665110633, 4160464.514206705614924 ], [ 548591.85304950340651, 4149039.328188301064074 ], [ 514860.712756838300265, 4145574.208664543926716 ], [ 512051.88748035550816, 4149501.709493438713253 ], [ 515548.651166619500145, 4154243.788652618415654 ], [ 518693.903918222349603, 4153746.880611184984446 ], [ 522171.074220047914423, 4156108.849157226271927 ], [ 519060.990292554022744, 4162132.842155837453902 ], [ 521914.655968507577199, 4166023.732240617275238 ], [ 516621.029062947665807, 4173777.82520845066756 ], [ 516015.041085724020377, 4177118.170572986826301 ] ] ] } },
{ "type": "Feature", "properties": { "drag_region": "Central", "NAME": "Anne Arundel", "NAMELSAD": "Anne Arundel" }, "geometry": { "type": "Polygon", "coordinates": [ [ [ 357239.146711194538511, 4381744.378393359482288 ], [ 361949.330030494194943, 4384416.262906112708151 ], [ 365782.612011531658936, 4390064.347944861277938 ], [ 369884.627791250881273, 4393801.521102904342115 ], [ 376748.223272221803199, 4396250.949525529518723 ], [ 379787.761400734947529, 4392859.210985883139074 ], [ 384124.988056494155899, 4392689.264336013235152 ], [ 384691.868178377102595, 4389532.556087227538228 ], [ 392981.945464503485709, 4384247.837341362610459 ], [ 393502.444159165432211, 4377850.411934403702617 ], [ 391912.203369814669713, 4375491.400864256545901 ], [ 395879.818558942060918, 4370852.316966136917472 ], [ 388662.498416723159607, 4366674.796407000161707 ], [ 390782.943903736653738, 4363112.380467209033668 ], [ 389788.579981762450188, 4359313.842702726833522 ], [ 386993.728269585291855, 4359740.559883768670261 ], [ 384727.926217982487287, 4354533.05188477691263 ], [ 386513.657844393572304, 4349449.424338262528181 ], [ 381121.809591731696855, 4344008.551826027221978 ], [ 383516.194890237471554, 4337960.41170983761549 ], [ 375427.482437243394088, 4339530.061485289596021 ], [ 375508.621705110475887, 4344106.141652494668961 ], [ 369856.714705981139559, 4342110.309991644695401 ], [ 368690.579629141837358, 4346518.876859680749476 ], [ 369772.302345243981108, 4354414.485639194026589 ], [ 371736.909826219605748, 4359623.658860605210066 ], [ 369906.60130798938917, 4361660.165314972400665 ], [ 369406.892702450568322, 4368250.116607927717268 ], [ 364851.651389289589133, 4373963.551672070287168 ], [ 357478.150076475925744, 4378210.421836273744702 ], [ 357239.146711194538511, 4381744.378393359482288 ] ] ] } },
{ "type": "Feature", "properties": { "drag_region": "Central", "NAME": "Harford", "NAMELSAD": "Harford" }, "geometry": { "type": "Polygon", "coordinates": [ [ [ 393302.82858705118997, 4475187.674792119301856 ], [ 422222.383329013246112, 4474831.304003427736461 ], [ 423707.645472110423725, 4470901.12704864423722 ], [ 427054.650752682238817, 4467900.358221451751888 ], [ 429152.659726437879726, 4463391.25725519657135 ], [ 435212.692267307837028, 4454829.340851619839668 ], [ 431754.99479136307491, 4449626.844467733986676 ], [ 435431.3154719027807, 4447293.607981692999601 ], [ 436630.35581804724643, 4444228.065408748574555 ], [ 432907.902723253995646, 4442937.708266303874552 ], [ 422279.876665665127803, 4433825.052839842624962 ], [ 420155.879991182067897, 4436810.271099602803588 ], [ 422389.78573391638929, 4441929.075971202924848 ], [ 419955.304619993781671, 4444632.603206041269004 ], [ 419897.023672235605773, 4440437.541827614419162 ], [ 417046.714946703752503, 4435614.224210811778903 ], [ 419475.23882110969862, 4432337.814901055768132 ], [ 417247.747481408936437, 4427982.550184324383736 ], [ 414607.784765332646202, 4438033.370722495019436 ], [ 410898.483287265582476, 4438088.251319273374975 ], [ 408545.724498821480665, 4445943.964929148554802 ], [ 404297.007044271333143, 4450683.519841659814119 ], [ 396043.976618706190493, 4455492.837369466200471 ], [ 393404.233553785772528, 4463359.093181286938488 ], [ 393302.82858705118997, 4475187.674792119301856 ] ] ] } },
{ "type": "Feature", "properties": { "drag_region": "Central", "NAME": "Baltimore", "NAMELSAD": "Baltimore" }, "geometry": { "type": "Polygon", "coordinates": [ [ [ 362223.758865163777955, 4469379.316418685950339 ], [ 380990.304536748095416, 4469027.906759059987962 ], [ 381091.709503482677974, 4457199.325148227624595 ], [ 383731.452568403095938, 4449333.069336406886578 ], [ 391984.482993968238588, 4444523.751808600500226 ], [ 396233.200448518386111, 4439784.196896089240909 ], [ 398585.959236962487921, 4431928.483286214061081 ], [ 400302.494828764349222, 4422557.343373877927661 ], [ 397838.161283532623202, 4423357.031966239213943 ], [ 395920.107293342123739, 4419380.938739530742168 ], [ 399604.299416168942116, 4417227.433275995776057 ], [ 393035.056915751600172, 4413131.623730940744281 ], [ 390823.516095436643809, 4410496.348192259669304 ], [ 386806.478860814822838, 4411324.272075764834881 ], [ 383469.590623980970122, 4415671.422742103226483 ], [ 383716.316101784468628, 4430258.839097952470183 ], [ 367947.515954203554429, 4430541.91137326695025 ], [ 367748.80638544051908, 4420054.00689216889441 ], [ 375718.51726031920407, 4415424.691699422895908 ], [ 368854.921779348282143, 4412975.2632767977193 ], [ 360603.115246299188584, 4418952.561868732795119 ], [ 362213.237365079461597, 4422068.374580496922135 ], [ 357297.364200914045796, 4423978.82799109723419 ], [ 353363.583634285547305, 4428352.091158095747232 ], [ 352685.597823213320225, 4440289.92087453790009 ], [ 354948.141577488975599, 4445107.612348303198814 ], [ 362223.758865163777955, 4469379.316418685950339 ] ] ] } },
{ "type": "Feature", "properties": { "drag_region": "Central", "NAME": "Frederick", "NAMELSAD": "Frederick" }, "geometry": { "type": "Polygon", "coordinates": [ [ [ 254424.103845360776177, 4430836.625002813525498 ], [ 260152.175109235773562, 4446797.775740536861122 ], [ 259656.860513422143413, 4451011.501293459907174 ], [ 261924.731081901671132, 4454667.780463085509837 ], [ 264643.532051463262178, 4463369.842654895968735 ], [ 269021.612727992935106, 4465536.165450790897012 ], [ 271597.128013757406734, 4469472.42300618160516 ], [ 270081.758236978435889, 4470373.570936925709248 ], [ 273578.374235442257486, 4474284.625099858269095 ], [ 295115.64864790358115, 4473721.201929278671741 ], [ 295364.409921083366498, 4471329.699558258056641 ], [ 291269.661081712925807, 4467710.7105982452631 ], [ 289946.099737041338813, 4464118.346988483332098 ], [ 286885.11549732927233, 4464959.90925695374608 ], [ 288941.783530623768456, 4460995.108230220153928 ], [ 296567.191373231238686, 4457560.798107079230249 ], [ 303765.352988788275979, 4448801.812745043076575 ], [ 303358.212659270851873, 4444613.601725538261235 ], [ 300469.820522530353628, 4440102.469374272041023 ], [ 298441.681789631722495, 4432900.180802649818361 ], [ 272986.395368265453726, 4418762.325967874377966 ], [ 269982.04364073817851, 4422279.795231821015477 ], [ 265998.000426953716669, 4423917.516022321768105 ], [ 264261.408540510863531, 4428260.896385110914707 ], [ 259615.642757784196874, 4428298.581076683476567 ], [ 254424.103845360776177, 4430836.625002813525498 ] ] ] } },
{ "type": "Feature", "properties": { "drag_region": "Central", "NAME": "Prince George's", "NAMELSAD": "Prince George's" }, "geometry": { "type": "Polygon", "coordinates": [ [ [ 329610.071198599704076, 4329045.991605498827994 ], [ 330102.764937243773602, 4337142.932093222625554 ], [ 341561.160358630353585, 4348150.605091959238052 ], [ 333643.125000892847311, 4356332.942388051189482 ], [ 334642.877143547870219, 4359363.439086598344147 ], [ 343977.112843223265372, 4374521.406387791968882 ], [ 347948.642252139106859, 4371387.548453245311975 ], [ 348187.645617420494091, 4367853.591896159574389 ], [ 355561.14693023415748, 4363606.721731956116855 ], [ 360116.388243395136669, 4357893.286667813546956 ], [ 360616.096848933957517, 4351303.335374858230352 ], [ 362446.405367164174095, 4349266.828920491039753 ], [ 360481.797886188549455, 4344057.655699079856277 ], [ 359400.075170086405706, 4336162.046919566579163 ], [ 360566.210246925707906, 4331753.480051530525088 ], [ 359240.521266670664772, 4327581.818119683302939 ], [ 361547.654669492621906, 4317144.382804297842085 ], [ 361069.85438839829294, 4308093.448694516904652 ], [ 355487.205621154978871, 4310772.119104740209877 ], [ 354986.929707110510208, 4317362.041808907873929 ], [ 345077.888385068217758, 4322039.61114695109427 ], [ 336026.438369353243615, 4322514.832082111388445 ], [ 331305.872715313336812, 4320995.988763043656945 ], [ 329044.725306567328516, 4317707.642463088035583 ], [ 325832.596550647169352, 4327700.320810575969517 ], [ 329610.071198599704076, 4329045.991605498827994 ] ] ] } }
]
}
