{
"type": "FeatureCollection",
"name": "map",
"crs": { "type": "name", "properties": { "name": "urn:ogc:def:crs:EPSG::32613" } },
"features": [
{ "type": "Feature", "properties": { "drag_region": "West", "NAME": "Luna", "NAMELSAD": "Luna" }, "geometry": { "type": "Polygon", "coordinates": [ [ [ 90585.249489372945391, 3424329.636659298092127 ], [ 149213.622883350239135, 3422983.343874489888549 ], [ 148630.970381711376831, 3380204.627419617958367 ], [ 147602.429938536253758, 3331815.542889738455415 ], [ 61242.422483620175626, 3334002.651970867067575 ], [ 60827.656090158910956, 3342979.518007554113865 ], [ 61539.17891579202842, 3366896.360054742079228 ], [ 60183.301409016246907, 3366936.909288335125893 ], [ 61645.909736035799142, 3415439.608088161796331 ], [ 90317.99231337220408, 3414610.939049346838146 ], [ 90585.249489372945391, 3424329.636659298092127 ] ] ] } },
{ "type": "Feature", "properties": { "drag_region": "Central", "NAME": "Torrance", "NAMELSAD": "Torrance" }, "geometry": { "type": "Polygon", "coordinates": [ [ [ 323055.393434414407238, 3993084.145797712728381 ], [ 351926.085155659238808, 3992707.784454755485058 ], [ 352027.72059577977052, 4001568.05218633916229 ], [ 343183.127241330163088, 4002055.046723448671401 ], [ 343303.086628101533279, 4011677.737510912120342 ], [ 430386.859967258991674, 4011198.183328973129392 ], [ 430247.320255989325233, 3962994.534486181102693 ], [ 428272.790253289160319, 3963000.429912219755352 ], [ 428154.301634389732499, 3924516.159214588813484 ], [ 371646.049693577922881, 3924859.774967301636934 ], [ 326370.865450060460716, 3925381.035990849137306 ], [ 326776.982657181855757, 3954437.640994192101061 ], [ 321833.701327185379341, 3954412.989699539728463 ], [ 322632.162326758028939, 3964025.772749844007194 ], [ 322479.361376287881285, 3976130.137063453905284 ], [ 323055.393434414407238, 3993084.145797712728381 ] ] ] } },
{ "type": "Feature", "properties": { "drag_region": "West", "NAME": "Grant", "NAMELSAD": "Grant" }, "geometry": { "type": "Polygon", "coordinates": [ [ [ -34451.118642477551475, 3519281.398348666261882 ], [ 3050.907020150974859, 3517995.502788532525301 ], [ 21431.296870284539182, 3516417.205993483774364 ], [ 75991.373926418484189, 3514674.246557100210339 ], [ 78271.789932446554303, 3499927.410516371950507 ], [ 76562.06587914499687, 3498734.145793690346181 ], [ 76063.53336156741716, 3492740.355187882203609 ], [ 78631.879087343579158, 3488380.054211843758821 ], [ 83633.205293593578972, 3487007.387984038796276 ], [ 84530.100025999709032, 3482788.576446834020317 ], [ 83344.776067494938616, 3476050.18113463697955 ], [ 88169.002985039609484, 3467534.57423401856795 ], [ 87499.472526033292525, 3454585.661968882661313 ], [ 86061.586902678507613, 3451095.131942256353796 ], [ 98122.501704894326394, 3448122.183346766512841 ], [ 68468.537172275129706, 3448799.139614864718169 ], [ 68201.279996274388395, 3439080.442004913464189 ], [ 39529.197418937983457, 3439909.111043728422374 ], [ 38066.589091918431222, 3391406.412243901751935 ], [ 39422.466598694212735, 3391365.86301030870527 ], [ 38710.943773061095271, 3367449.020963120739907 ], [ 9485.998885881621391, 3368262.143630265723914 ], [ 10269.19596055749571, 3392277.633001855108887 ], [ 8913.129672633716837, 3392322.081634860020131 ], [ 9948.172849512426183, 3413467.984658045694232 ], [ 10512.90705033618724, 3440736.135448084678501 ], [ 391.007816663302947, 3441077.746252730488777 ], [ 724.440491042158101, 3450799.413207844831049 ], [ -18830.367402075673454, 3451394.686137884389609 ], [ -18126.200315247406252, 3470744.875677519943565 ], [ -36291.91293360106647, 3471519.686943830922246 ], [ -34451.118642477551475, 3519281.398348666261882 ] ] ] } },
{ "type": "Feature", "properties": { "drag_region": "West", "NAME": "Sierra", "NAMELSAD": "Sierra" }, "geometry": { "type": "Polygon", "coordinates": [ [ [ 131766.42757729801815, 3559353.380420030094683 ], [ 246847.746625061467057, 3556936.903222281020135 ], [ 256192.792317721556174, 3557285.062728160526603 ], [ 256395.682319085957715, 3547374.351891760248691 ], [ 258732.62204554156051, 3547343.857293693814427 ], [ 258585.979481064219726, 3509906.547223750967532 ], [ 207185.584958136576461, 3485161.340127388946712 ], [ 207098.85027119811275, 3480303.390146423131227 ], [ 168435.16337228208431, 3481164.091662221588194 ], [ 168015.553554541227641, 3461825.707808950450271 ], [ 139041.144693183130585, 3462495.044325660448521 ], [ 126980.229890967311803, 3465467.992921150289476 ], [ 128418.115514322096715, 3468958.522947776596993 ], [ 129087.645973328413675, 3481907.43521291250363 ], [ 124263.419055783742806, 3490423.042113530915231 ], [ 125448.743014288513223, 3497161.437425727955997 ], [ 124551.848281882383162, 3501380.248962932731956 ], [ 119550.522075632383348, 3502752.915190737694502 ], [ 116982.17634985622135, 3507113.216166776139289 ], [ 117480.708867433801061, 3513107.006772584281862 ], [ 119190.432920735358493, 3514300.271495265886188 ], [ 116910.016914707288379, 3529047.107535994146019 ], [ 104193.578291778423591, 3529499.130110853351653 ], [ 105080.244077090435894, 3560278.681153703015298 ], [ 110738.844166122638853, 3559639.893887653015554 ], [ 131766.42757729801815, 3559353.380420030094683 ] ] ] } },
{ "type": "Feature", "properties": { "drag_region": "East", "NAME": "Union", "NAMELSAD": "Union" }, "geometry": { "type": "Polygon", "coordinates": [ [ [ 800840.438618984771892, 4152679.387628212571144 ], [ 890584.251408043783158, 4154565.828376971650869 ], [ 891507.183671102393419, 4110436.545540841296315 ], [ 891421.50557598634623, 4099088.210822087712586 ], [ 887885.066437943605706, 4099015.626742214895785 ], [ 888618.910350958118215, 4078722.110550297889858 ], [ 889909.943073956761509, 4014585.170991939026862 ], [ 859721.526014449074864, 4014033.137883556075394 ], [ 859242.790762855671346, 4042811.421065810136497 ], [ 859726.780767215881497, 4052542.330170823261142 ], [ 821270.493488295935094, 4051885.584485447499901 ], [ 821148.635228315135464, 4061700.54087684256956 ], [ 801779.6411471972242, 4061576.603773408569396 ], [ 800840.438618984771892, 4152679.387628212571144 ] ] ] } },
{ "type": "Feature", "properties": { "drag_region": "East", "NAME": "De Baca", "NAMELSAD": "De Baca" }, "geometry": { "type": "Polygon", "coordinates": [ [ [ 699562.221026107203215, 3755350.741179199423641 ], [ 699501.352387274848297, 3812599.76890155673027 ], [ 740638.746838205493987, 3812735.268488399684429 ], [ 740585.602008943445981, 3822356.784436877816916 ], [ 750119.040114950621501, 3822509.697356497403234 ], [ 750055.815656379330903, 3832131.416277843993157 ], [ 769432.465432825963944, 3832279.308625106699765 ], [ 769599.267214651219547, 3813035.668254563584924 ], [ 786054.774487463524565, 3813192.630753680597991 ], [ 786453.373653753660619, 3774801.480284409597516 ], [ 786986.921610704390332, 3755181.444531245157123 ], [ 767447.647352926433086, 3755095.206000892911106 ], [ 767527.746965282363817, 3745379.161979228258133 ], [ 752610.598840807564557, 3745268.081805446650833 ], [ 709516.517547458643094, 3745555.532295299693942 ], [ 709164.921114721335471, 3755270.519681750796735 ], [ 699562.221026107203215, 3755350.741179199423641 ] ] ] } },
{ "type": "Feature", "properties": { "drag_region": "Central", "NAME": "Valencia", "NAMELSAD": "Valencia" }, "geometry": { "type": "Polygon", "coordinates": [ [ [ 238552.832153828901937, 4009494.50161826889962 ], [ 242291.449602054635761, 3999790.145579974167049 ], [ 269852.478111820761114, 3999274.771917969919741 ], [ 273200.846171290613711, 4003220.670016437303275 ], [ 296808.809640387888066, 4002567.469506646506488 ], [ 298396.228080285131, 3998828.508523736149073 ], [ 293474.995499225449748, 3998899.099037650041282 ], [ 292898.963441098923795, 3981945.090303390752524 ], [ 293051.764391569071449, 3969840.725989780854434 ], [ 292253.303391996421851, 3960227.942939477041364 ], [ 297196.584721992956474, 3960252.594234129413962 ], [ 297068.463357637170702, 3951106.782487732823938 ], [ 293436.7295357293915, 3950872.448441550601274 ], [ 289181.911487855366431, 3953126.304769183043391 ], [ 264927.068544531124644, 3961809.620112540666014 ], [ 254484.381879596883664, 3967335.774419608060271 ], [ 225177.235189000406535, 3967834.033109076786786 ], [ 226099.293785345129436, 4009855.88613339420408 ], [ 238552.832153828901937, 4009494.50161826889962 ] ] ] } },
{ "type": "Feature", "properties": { "drag_region": "East", "NAME": "San Miguel", "NAMELSAD": "San Miguel" }, "geometry": { "type": "Polygon", "coordinates": [ [ [ 612462.214248079108074, 3987810.307552745100111 ], [ 646484.940926710609347, 3987623.695251592900604 ], [ 667862.517633739858866, 3980618.095145543571562 ], [ 675643.632696911459789, 3974610.134587074164301 ], [ 677266.247905334457755, 3976515.442276016343385 ], [ 700297.177762245759368, 3977877.675146359950304 ], [ 734684.60599149169866, 3977555.037395759020001 ], [ 766149.083408114267513, 3978098.588307799305767 ], [ 770342.40115139388945, 3980428.436434799805284 ], [ 793916.381796334288083, 3938583.551311299204826 ], [ 801737.158716086298227, 3938688.092419178690761 ], [ 802014.040702234022319, 3918583.864236404187977 ], [ 781764.261037155869417, 3918423.593445805367082 ], [ 781735.766387023497373, 3920900.790456469170749 ], [ 757694.812332740868442, 3907126.320667890831828 ], [ 757623.466818705084734, 3915224.529581609647721 ], [ 687715.240980039001442, 3914973.598625487182289 ], [ 651455.371324184117839, 3915006.893283518496901 ], [ 651398.960104968980886, 3895667.306263855658472 ], [ 612769.672785390401259, 3895861.722913948819041 ], [ 612651.944712559808977, 3924921.942858587484807 ], [ 612934.522159943124279, 3963794.742893344722688 ], [ 612462.214248079108074, 3987810.307552745100111 ] ] ] } },
{ "type": "Feature", "properties": { "drag_region": "West", "NAME": "Otero", "NAMELSAD": "Otero" }, "geometry": { "type": "Polygon", "coordinates": [ [ [ 320135.130245608452242, 3485930.295475334860384 ], [ 320281.772810085793026, 3523367.605545277707279 ], [ 377701.156380515312776, 3522795.589414280839264 ], [ 377968.747202200582251, 3513268.879063104745001 ], [ 415727.430572886194568, 3513175.243326637428254 ], [ 416003.520464227767661, 3493935.873943992890418 ], [ 415946.884176950494293, 3475078.997582709882408 ], [ 412592.456905558297876, 3475089.621232121717185 ], [ 412092.325686921423767, 3425950.906421897001565 ], [ 459286.894989181368146, 3426095.401974437758327 ], [ 459326.673640704771969, 3397241.83113403711468 ], [ 459665.813090043258853, 3396480.506827720440924 ], [ 459705.061256452114321, 3368485.138420694507658 ], [ 404782.798740591853857, 3368556.097409641835839 ], [ 351216.636667479295284, 3369100.31295123603195 ], [ 315274.764913759136107, 3369304.743946180678904 ], [ 316645.252433990128338, 3475401.296614363323897 ], [ 320001.42136808228679, 3475453.209474311675876 ], [ 320135.130245608452242, 3485930.295475334860384 ] ] ] } },
{ "type": "Feature", "properties": { "drag_region": "West", "NAME": "Hidalgo", "NAMELSAD": "Hidalgo" }, "geometry": { "type": "Polygon", "coordinates": [ [ [ -63120.26377974965726, 3269149.943600323051214 ], [ -57093.872092838253593, 3429583.000680114608258 ], [ -38928.159474484593375, 3428808.189413803629577 ], [ -39632.326561312860576, 3409457.999874168075621 ], [ -20077.518668195029022, 3408862.726944128517061 ], [ -20410.951342573884176, 3399141.059989014174789 ], [ -10289.052108900999883, 3398799.449184368364513 ], [ -10853.78630972476094, 3371531.298394329380244 ], [ -11888.829486603470286, 3350385.395371143706143 ], [ -10532.763198679691413, 3350340.946738138794899 ], [ -11315.960273355565732, 3326325.457366549409926 ], [ 17908.984613823908148, 3325512.334699404425919 ], [ 18323.751007285172818, 3316535.46866271737963 ], [ 16858.91642218574998, 3266607.870034578256309 ], [ -63120.26377974965726, 3269149.943600323051214 ] ] ] } },
{ "type": "Feature", "properties": { "drag_region": "Central", "NAME": "Cibola", "NAMELSAD": "Cibola" }, "geometry": { "type": "Polygon", "coordinates": [ [ [ 22331.1961988111143, 4021889.303300430998206 ], [ 74796.942331932368688, 4019819.298149493988603 ], [ 76467.571102772082668, 4058320.370209759101272 ], [ 143060.954522842424922, 4056044.545072625391185 ], [ 143195.209914067818318, 4060905.244962107390165 ], [ 152982.806850169261452, 4060640.092861590441316 ], [ 152853.849093483033357, 4055779.535528223030269 ], [ 188108.170342447585426, 4055009.093840777408332 ], [ 202971.046225593658164, 4015981.066598589997739 ], [ 190517.507857109885663, 4016342.451113715302199 ], [ 189595.449260765162762, 3974320.598089397884905 ], [ 144812.294560857699253, 3975502.380836338270456 ], [ 141843.205361323052784, 3975391.344845257233828 ], [ 20627.842233990377281, 3979650.851901057176292 ], [ 22331.1961988111143, 4021889.303300430998206 ] ] ] } },
{ "type": "Feature", "properties": { "drag_region": "East", "NAME": "Eddy", "NAMELSAD": "Eddy" }, "geometry": { "type": "Polygon", "coordinates": [ [ [ 704595.963388384087011, 3522792.119785013608634 ], [ 705607.261438453570008, 3522793.570077618118376 ], [ 705534.009707829449326, 3571837.872271220199764 ], [ 801469.054019352304749, 3572735.421005339361727 ], [ 802018.776612880872563, 3523591.555093231145293 ], [ 810784.040949047426693, 3523692.852421796415001 ], [ 811473.591766906785779, 3465790.281844324432313 ], [ 782992.75736597343348, 3465493.286891344469041 ], [ 734848.968919979408383, 3465171.894001513719559 ], [ 705014.129655654891394, 3465181.856231270357966 ], [ 704974.881489246035926, 3493177.224638296291232 ], [ 704635.742039907490835, 3493938.548944612964988 ], [ 704595.963388384087011, 3522792.119785013608634 ] ] ] } },
{ "type": "Feature", "properties": { "drag_region": "Central", "NAME": "Rio Arriba", "NAMELSAD": "Rio Arriba" }, "geometry": { "type": "Polygon", "coordinates": [ [ [ 215580.368175465730019, 4296956.701871115714312 ], [ 264134.953934378747363, 4295955.192772143520415 ], [ 264756.91616460273508, 4295084.8072270732373 ], [ 299895.653252503718249, 4294562.837036092765629 ], [ 341740.251824882871006, 4294208.537865319289267 ], [ 344491.335874558077194, 4282075.44068740028888 ], [ 343372.039233768824488, 4266551.481178932823241 ], [ 344809.272737342573237, 4250144.10933855548501 ], [ 345746.86086223757593, 4247561.509921798482537 ], [ 346912.313712419243529, 4235351.175447165034711 ], [ 345182.314281242550351, 4223074.237529565580189 ], [ 338062.344871708832216, 4219907.425928414799273 ], [ 336094.874487137421966, 4216783.728055406361818 ], [ 354078.220689653709996, 4209267.754093036986887 ], [ 364935.499081842019223, 4194693.963801837526262 ], [ 383299.196773486037273, 4184950.309677935671061 ], [ 380039.269906569796149, 4180585.481291260104626 ], [ 374218.669196274364367, 4181288.247380705084652 ], [ 372911.090533481270541, 4179295.765289632603526 ], [ 366451.963067254924681, 4181246.676324896980077 ], [ 366470.898169199121185, 4183819.356764373835176 ], [ 336385.632102398143616, 4184092.374480819329619 ], [ 335976.594997784297448, 4176187.065849402919412 ], [ 318815.363054930232465, 4176389.23187779635191 ], [ 318541.559044064488262, 4180300.198607230558991 ], [ 318591.598066433973145, 4184207.051210326142609 ], [ 261321.784589351096656, 4184841.650098378770053 ], [ 261789.181684026145376, 4208952.515652583912015 ], [ 224031.647905505087692, 4209577.502730011940002 ], [ 195326.172205167589709, 4210879.516668654046953 ], [ 195968.465593617060222, 4246346.655057838186622 ], [ 197027.383983291278128, 4261580.480327289551497 ], [ 197395.248134051857051, 4275020.972572488710284 ], [ 199069.420839764236007, 4277646.277211835607886 ], [ 206597.421073418168817, 4283644.811667368747294 ], [ 212425.337199018511456, 4286163.684462692588568 ], [ 213243.771751830645371, 4293105.717172955162823 ], [ 215580.368175465730019, 4296956.701871115714312 ] ] ] } },
{ "type": "Feature", "properties": { "drag_region": "Central", "NAME": "McKinley", "NAMELSAD": "McKinley" }, "geometry": { "type": "Polygon", "coordinates": [ [ [ 21167.244323116843589, 4162460.221514976583421 ], [ 67132.975251681578811, 4160670.253810981754214 ], [ 149003.271496484579984, 4157793.488180516287684 ], [ 177797.904972540622111, 4156873.445752734318376 ], [ 175991.49103305285098, 4079964.947320220060647 ], [ 146938.6330138471385, 4080593.096752515528351 ], [ 147067.590770533366594, 4085453.654085882939398 ], [ 137279.99383443192346, 4085718.806186399888247 ], [ 137145.738443206530064, 4080858.106296917889267 ], [ 70552.35502313618781, 4083133.931434051599354 ], [ 68881.726252296473831, 4044632.859373786486685 ], [ 16415.980119175219443, 4046702.864524723496288 ], [ 18026.472995134012308, 4086272.823738648556173 ], [ 17817.018045628850814, 4089146.706848739180714 ], [ 19070.160939339199103, 4111731.706400292459875 ], [ 21167.244323116843589, 4162460.221514976583421 ] ] ] } },
{ "type": "Feature", "properties": { "drag_region": "East", "NAME": "Lincoln", "NAMELSAD": "Lincoln" }, "geometry": { "type": "Polygon", "coordinates": [ [ [ 577849.768506578635424, 3758532.014720801729709 ], [ 634358.02044739050325, 3758188.39896808937192 ], [ 634387.543793230084702, 3767809.262200085446239 ], [ 673010.496792965102941, 3767770.468748842831701 ], [ 673040.880777245853096, 3739098.931075883097947 ], [ 672739.517387317493558, 3709856.769733304157853 ], [ 673071.960822403430939, 3709571.367879514582455 ], [ 673120.942545198602602, 3662615.645015154499561 ], [ 673799.871975004090928, 3652330.342295700218529 ], [ 672129.191036131931469, 3652328.642221975140274 ], [ 671811.595105077023618, 3633851.991347541101277 ], [ 653063.684331321157515, 3633091.321922232862562 ], [ 633645.446615242864937, 3633130.495390892960131 ], [ 633369.356723901350051, 3652369.864773537497967 ], [ 595610.673353215679526, 3652463.500510004814714 ], [ 595343.082531530410051, 3661990.210861180908978 ], [ 535586.759234645403922, 3662592.721590244211257 ], [ 535383.869233280885965, 3672503.432426644489169 ], [ 535649.253730488708243, 3692506.966266534291208 ], [ 545633.580309327924624, 3692379.394313164055347 ], [ 555604.929401146597229, 3691119.192765880376101 ], [ 565590.138332761125639, 3691012.450373040046543 ], [ 565788.19526089518331, 3710444.056190911214799 ], [ 577413.765018896665424, 3710332.388031824026257 ], [ 577849.768506578635424, 3758532.014720801729709 ] ] ] } },
{ "type": "Feature", "properties": { "drag_region": "West", "NAME": "Socorro", "NAMELSAD": "Socorro" }, "geometry": { "type": "Polygon", "coordinates": [ [ [ 147015.168637649854645, 3721433.964598276652396 ], [ 149984.257837184501113, 3721545.000589357689023 ], [ 194767.412537091964623, 3720363.217842417303473 ], [ 224074.559227688441752, 3719864.959152948576957 ], [ 234517.245892622653628, 3714338.8048458811827 ], [ 258772.088835946895415, 3705655.489502523560077 ], [ 263026.906883821007796, 3703401.63317489111796 ], [ 266658.640705728786997, 3703635.967221073340625 ], [ 266380.644862963119522, 3683725.173964126501232 ], [ 311655.829106480581686, 3683203.91294057900086 ], [ 311219.82561879849527, 3635004.286251601297408 ], [ 299594.255860797129571, 3635115.95441068848595 ], [ 299396.198932662955485, 3615684.348592817317694 ], [ 289410.990001048427075, 3615791.090985657647252 ], [ 279439.640909229870886, 3617051.292532941326499 ], [ 269455.314330390538089, 3617178.864486311562359 ], [ 269189.929833182832226, 3597175.330646421760321 ], [ 259844.884140522714006, 3596827.171140542253852 ], [ 144763.565092759265099, 3599243.6483382913284 ], [ 145739.277065434522228, 3636405.531747510191053 ], [ 145447.20704751618905, 3637938.926863983739167 ], [ 146728.092582210665569, 3686156.565362364053726 ], [ 146066.917846878030105, 3686174.251150948461145 ], [ 147015.168637649854645, 3721433.964598276652396 ] ] ] } },
{ "type": "Feature", "properties": { "drag_region": "Central", "NAME": "Taos", "NAMELSAD": "Taos" }, "geometry": { "type": "Polygon", "coordinates": [ [ [ 373272.700057969079353, 4299569.57193223759532 ], [ 442898.977221941691823, 4299120.942126984708011 ], [ 441612.455953728989698, 4295502.689732536673546 ], [ 444796.601148090208881, 4290253.997123764827847 ], [ 442220.787532822461799, 4282731.332622484304011 ], [ 441565.225859478581697, 4276443.383266588672996 ], [ 442187.884038638381753, 4269008.844283469952643 ], [ 434815.764539599185809, 4268934.376174203120172 ], [ 433524.285987256851513, 4266175.118153778836131 ], [ 429669.490178562817164, 4264283.200564567930996 ], [ 431255.15426810097415, 4259417.215399000793695 ], [ 428996.703185979044065, 4256281.067959196865559 ], [ 431224.485456274356693, 4251031.486627378500998 ], [ 428972.068183717958163, 4249991.786169943399727 ], [ 434089.58151715924032, 4243302.8286267593503 ], [ 430858.682976799434982, 4238930.720722824335098 ], [ 433414.06510830775369, 4233680.703205455094576 ], [ 432070.669384449953213, 4217772.037599232047796 ], [ 425932.943469170772005, 4215032.416960201226175 ], [ 426879.792879636515863, 4209978.210318834520876 ], [ 424610.40539936569985, 4207605.622765810228884 ], [ 424915.092660978552885, 4203411.660962336696684 ], [ 418726.330128100526053, 4192958.999328395351768 ], [ 414831.64500657224562, 4190311.343744853977114 ], [ 396467.94731492822757, 4200054.997868755832314 ], [ 385610.668922739918344, 4214628.78815995529294 ], [ 367627.322720223630313, 4222144.762122324667871 ], [ 369594.793104795040563, 4225268.459995333105326 ], [ 376714.762514328758698, 4228435.271596483886242 ], [ 378444.761945505451877, 4240712.209514083340764 ], [ 377279.309095323784277, 4252922.54398871678859 ], [ 376341.720970428781584, 4255505.143405473791063 ], [ 374904.487466855032835, 4271912.515245851129293 ], [ 376023.784107644285541, 4287436.474754318594933 ], [ 373272.700057969079353, 4299569.57193223759532 ] ] ] } },
{ "type": "Feature", "properties": { "drag_region": "Central", "NAME": "San Juan", "NAMELSAD": "San Juan" }, "geometry": { "type": "Polygon", "coordinates": [ [ [ 23648.47214004653506, 4306853.458093805238605 ], [ 82769.192248821200337, 4304640.102247283793986 ], [ 94587.854779504006729, 4304132.738991159014404 ], [ 168069.738630976120476, 4302038.020750560797751 ], [ 165733.142207341035828, 4298187.03605239931494 ], [ 164914.707654528901912, 4291245.003342137672007 ], [ 159086.791528928559273, 4288726.130546812899411 ], [ 151558.791295274626464, 4282727.596091279760003 ], [ 149884.618589562247507, 4280102.291451932862401 ], [ 149516.754438801668584, 4266661.799206733703613 ], [ 148457.836049127450678, 4251427.973937282338738 ], [ 147815.542660677980166, 4215960.835548099130392 ], [ 146835.608792972750962, 4191664.286752675659955 ], [ 64965.312548169749789, 4194541.052383141592145 ], [ 18999.581619605014566, 4196331.020087135955691 ], [ 23648.47214004653506, 4306853.458093805238605 ] ] ] } },
{ "type": "Feature", "properties": { "drag_region": "West", "NAME": "Catron", "NAMELSAD": "Catron" }, "geometry": { "type": "Polygon", "coordinates": [ [ [ -34051.083737696637399, 3635741.313221834599972 ], [ -33294.345981456164736, 3646501.538060009479523 ], [ -33080.353118181694299, 3660338.945324005559087 ], [ -30184.703757953946479, 3724682.091935763135552 ], [ 91030.659369378729025, 3720422.584879962727427 ], [ 90082.408578606904484, 3685162.871432635001838 ], [ 90743.583313939539948, 3685145.185644050128758 ], [ 89462.69777924506343, 3636927.54714567027986 ], [ 89754.767797163396608, 3635394.152029196731746 ], [ 88779.055824488139478, 3598232.268619977869093 ], [ 67751.472413312760182, 3598518.782087600789964 ], [ 62092.872324280557223, 3599157.569353650324047 ], [ 61206.206538968544919, 3568378.018310801126063 ], [ 19362.5681057634647, 3569668.955172325484455 ], [ 982.178255629900377, 3571247.251967374235392 ], [ -36519.847406998625956, 3572533.147527507506311 ], [ -34051.083737696637399, 3635741.313221834599972 ] ] ] } },
{ "type": "Feature", "properties": { "drag_region": "Central", "NAME": "Los Alamos", "NAMELSAD": "Los Alamos" }, "geometry": { "type": "Polygon", "coordinates": [ [ [ 326569.226163987827022, 4160226.353273901622742 ], [ 326843.030174853571225, 4156315.386544467415661 ], [ 326412.064619049546309, 4147934.203686189837754 ], [ 326388.952504209824838, 4146123.750334004405886 ], [ 333181.745048500830308, 4144800.766996766906232 ], [ 329871.314073119545355, 4139313.651813602074981 ], [ 326271.102086769999005, 4136880.982671414036304 ], [ 323402.789156074170023, 4140920.690124733839184 ], [ 316629.295782071363647, 4143775.743555202148855 ], [ 311755.613523624895606, 4143177.463109075557441 ], [ 312755.752947132103145, 4145069.270880160853267 ], [ 312965.94835961505305, 4159743.86222529085353 ], [ 320399.141653887112625, 4158782.601116607896984 ], [ 322048.172212546283845, 4161047.847660648170859 ], [ 326569.226163987827022, 4160226.353273901622742 ] ] ] } },
{ "type": "Feature", "properties": { "drag_region": "Central", "NAME": "Santa Fe", "NAMELSAD": "Santa Fe" }, "geometry": { "type": "Polygon", "coordinates": [ [ [ 336651.577508778311312, 4125187.18930045561865 ], [ 340251.789495127857663, 4127619.858442643657327 ], [ 343562.220470509142615, 4133106.973625808488578 ], [ 336769.427926218137145, 4134429.956963045988232 ], [ 336792.540041057858616, 4136240.4103152314201 ], [ 337223.505596861883532, 4144621.593173508998007 ], [ 354384.737539715948515, 4144419.427145115565509 ], [ 354793.774644329794683, 4152324.735776531975716 ], [ 384879.040711130772252, 4152051.718060086481273 ], [ 384860.105609186575748, 4149479.037620609626174 ], [ 384123.823550218541641, 4137478.105050841346383 ], [ 384596.131462082499638, 4113462.540391440968961 ], [ 384313.554014699184336, 4074589.740356683731079 ], [ 384431.282087529834826, 4045529.520412045065314 ], [ 335976.79606795089785, 4045814.657943890895694 ], [ 336219.885878990869969, 4065250.988658108748496 ], [ 336017.886907884501852, 4075164.018219924066216 ], [ 336651.577508778311312, 4125187.18930045561865 ] ] ] } },
{ "type": "Feature", "properties": { "drag_region": "Central", "NAME": "Mora", "NAMELSAD": "Mora" }, "geometry": { "type": "Polygon", "coordinates": [ [ [ 421158.080383784952573, 4166549.11169928452 ], [ 427617.207850011298433, 4164598.200664020143449 ], [ 428924.78651280439226, 4166590.682755092624575 ], [ 434745.387223099824041, 4165887.91666564764455 ], [ 438005.314090016065165, 4170252.745052323210984 ], [ 441899.999211544345599, 4172900.400635864585638 ], [ 448088.761744422372431, 4183353.062269806396216 ], [ 447784.074482809519395, 4187547.024073279928416 ], [ 450053.461963080335408, 4189919.611626304220408 ], [ 449106.61255261459155, 4194973.818267670460045 ], [ 455244.338467893772759, 4197713.438906701281667 ], [ 497804.151784848945681, 4197667.836289341561496 ], [ 497810.825427699193824, 4192808.24125884892419 ], [ 536522.80011424550321, 4193042.641728909686208 ], [ 536216.157113422872499, 4190277.450240539386868 ], [ 539469.551321297418326, 4186008.782107696402818 ], [ 538522.199225556803867, 4182477.307285483460873 ], [ 542438.782095671864226, 4176212.664041228592396 ], [ 543793.308831194532104, 4166883.224046200048178 ], [ 546398.945054243202321, 4164423.287640653084964 ], [ 544147.813106445479207, 4162216.468341681174934 ], [ 545140.206784710870124, 4159078.611769792623818 ], [ 540966.334195357048884, 4153239.081369403284043 ], [ 542644.190068229450844, 4144292.908972530160099 ], [ 508256.761838983453345, 4144615.546723131090403 ], [ 485225.831982072209939, 4143253.313852787483484 ], [ 483603.216773649153765, 4141348.0061638453044 ], [ 475822.101710477552842, 4147355.96672231471166 ], [ 454444.525003448419739, 4154361.566828364040703 ], [ 420421.798324816918466, 4154548.179129516240209 ], [ 421158.080383784952573, 4166549.11169928452 ] ] ] } },
{ "type": "Feature", "properties": { "drag_region": "Central", "NAME": "Sandoval", "NAMELSAD": "Sandoval" }, "geometry": { "type": "MultiPolygon", "coordinates": [ [ [ [ 313686.903828269103542, 4144053.691720974631608 ], [ 313663.791713429382071, 4142243.23836878919974 ], [ 313686.903828269103542, 4144053.691720974631608 ], [ 313686.903828269103542, 4144053.691720974631608 ] ] ], [ [ [ 190628.678534310456598, 4186925.159370110370219 ], [ 219334.154234647954581, 4185623.145431467797607 ], [ 257091.688013169012265, 4184998.15835403976962 ], [ 256624.290918493963545, 4160887.292799834627658 ], [ 313894.104395576869138, 4160252.693911782000214 ], [ 313844.065373207326047, 4156345.841308686416596 ], [ 309323.01142176578287, 4157167.335695432964712 ], [ 307673.980863106669858, 4154902.089151392690837 ], [ 300240.787568834610283, 4155863.350260075647384 ], [ 300030.592156351660378, 4141188.75891494564712 ], [ 299030.452732844394632, 4139296.951143860351294 ], [ 303904.134991290862672, 4139895.231589986942708 ], [ 310677.628365293727256, 4137040.178159518633038 ], [ 313545.941295989556238, 4133000.470706198830158 ], [ 312912.250695095746778, 4082977.299625667277724 ], [ 313114.249666202114895, 4073064.270063851960003 ], [ 281101.981464586337097, 4073808.127326506190002 ], [ 277154.813680690363981, 4072252.198419800028205 ], [ 275548.034562167245895, 4073899.128187041264027 ], [ 226544.092122414993355, 4075040.698963585775346 ], [ 222838.427432932337979, 4084657.777459240984172 ], [ 216636.96420317349839, 4084800.069714391138405 ], [ 218443.378142661269521, 4161708.568146905396134 ], [ 189648.744666605227394, 4162628.610574687365443 ], [ 190628.678534310456598, 4186925.159370110370219 ] ] ] ] } },
{ "type": "Feature", "properties": { "drag_region": "East", "NAME": "Quay", "NAMELSAD": "Quay" }, "geometry": { "type": "Polygon", "coordinates": [ [ [ 787440.288199078058824, 3894697.506038308609277 ], [ 811481.24225336080417, 3908471.975826886948198 ], [ 811509.736903493059799, 3905994.778816223144531 ], [ 831759.516568571329117, 3906155.049606821965426 ], [ 831532.591374137206003, 3922638.569023529067636 ], [ 854026.937212000600994, 3922976.984297985676676 ], [ 854666.480772962095216, 3923749.916226 ], [ 854200.117040449054912, 3952145.499584867153317 ], [ 854690.582900644745678, 3961780.500356863252819 ], [ 884878.999960152432323, 3962332.533465246204287 ], [ 885137.699637521756813, 3949372.389149890746921 ], [ 885776.24645108031109, 3900672.098581817466766 ], [ 886275.587825469207019, 3875230.585100156255066 ], [ 864315.012242304626852, 3874827.226185053121299 ], [ 864484.901137446984649, 3864918.116930293850601 ], [ 854968.035066411131993, 3864855.384161133784801 ], [ 854795.739637246821076, 3855131.87598395999521 ], [ 845269.162085433956236, 3855079.5401326646097 ], [ 845414.564129972597584, 3845361.601580096408725 ], [ 826014.78757767775096, 3845187.362802209332585 ], [ 826138.212461862014607, 3835565.134680748917162 ], [ 823177.298200097167864, 3835432.387189207132906 ], [ 787631.784156836336479, 3835151.926703047007322 ], [ 787464.982375011080876, 3854395.567073590122163 ], [ 787440.288199078058824, 3894697.506038308609277 ] ] ] } },
{ "type": "Feature", "properties": { "drag_region": "West", "NAME": "Doña Ana", "NAMELSAD": "Doña Ana" }, "geometry": { "type": "Polygon", "coordinates": [ [ [ 182190.520909133279929, 3430221.529769694898278 ], [ 182610.130726874136599, 3449559.913622966036201 ], [ 221273.817625790165039, 3448699.212107167579234 ], [ 221360.552312728628749, 3453557.162088133394718 ], [ 272760.946835656301118, 3478302.369184495415539 ], [ 272627.237958130077459, 3467825.28318347223103 ], [ 269271.069024037919007, 3467773.370323523879051 ], [ 267900.581503806984983, 3361676.817655341234058 ], [ 245182.453354760917136, 3361991.700980186928064 ], [ 244699.196472157054814, 3352377.891924556810409 ], [ 242297.303214541898342, 3350699.479519301094115 ], [ 243261.084112028154777, 3347065.093991823494434 ], [ 246621.783432641677791, 3344633.571645700838417 ], [ 246249.769440388103249, 3342448.191580705810338 ], [ 251658.321893950429512, 3340464.69747281447053 ], [ 253319.773194320470793, 3337774.151700120419264 ], [ 180579.327964319294551, 3339053.728784943465143 ], [ 181607.868407494417625, 3387442.813314822968096 ], [ 182190.520909133279929, 3430221.529769694898278 ] ] ] } },
{ "type": "Feature", "properties": { "drag_region": "East", "NAME": "Lea", "NAMELSAD": "Lea" }, "geometry": { "type": "Polygon", "coordinates": [ [ [ 824950.782901885220781, 3584346.068000638857484 ], [ 829647.197056488017552, 3584400.038882882334292 ], [ 829085.317865211283788, 3632023.61003510048613 ], [ 833091.238621396827511, 3632071.973117123823613 ], [ 832853.24466175341513, 3651408.166199215687811 ], [ 894822.751120374188758, 3652467.724165334831923 ], [ 894867.329320450196974, 3632265.423325024079531 ], [ 895131.748882442712784, 3618071.346000423189253 ], [ 895078.252775801578537, 3584718.214770631399006 ], [ 897006.734416883438826, 3478418.432902091182768 ], [ 834955.32064943970181, 3477400.92883962392807 ], [ 834265.769831580342725, 3535303.499417095910758 ], [ 825500.505495413788594, 3535202.202088530641049 ], [ 824950.782901885220781, 3584346.068000638857484 ] ] ] } },
{ "type": "Feature", "properties": { "drag_region": "East", "NAME": "Curry", "NAMELSAD": "Curry" }, "geometry": { "type": "Polygon", "coordinates": [ [ [ 826859.229474496678449, 3820271.599846095778048 ], [ 829820.143736261408776, 3820404.347337637562305 ], [ 829696.718852077261545, 3830026.575459097977728 ], [ 849096.495404372108169, 3830200.814236985053867 ], [ 848951.09335983346682, 3839918.752789553254843 ], [ 858477.670911646215245, 3839971.088640848640352 ], [ 858649.966340810642578, 3849694.596818022429943 ], [ 868166.832411846495233, 3849757.329587182495743 ], [ 867996.943516704021022, 3859666.438841941766441 ], [ 889957.519099868717603, 3860069.797757044900209 ], [ 891359.469942260184325, 3787847.205703498329967 ], [ 827275.360199004062451, 3786833.143109497614205 ], [ 826859.229474496678449, 3820271.599846095778048 ] ] ] } },
{ "type": "Feature", "properties": { "drag_region": "Central", "NAME": "Bernalillo", "NAMELSAD": "Bernalillo" }, "geometry": { "type": "Polygon", "coordinates": [ [ [ 231184.933526170585537, 4052841.671439410652965 ], [ 280188.875965922838077, 4051700.100662866141647 ], [ 281795.655084445956163, 4050053.170895624905825 ], [ 285742.822868341929279, 4051609.099802331067622 ], [ 317755.091069957707077, 4050865.242539676837623 ], [ 317392.041872146306559, 4021806.221037995070219 ], [ 326236.635226595913991, 4021319.22650088602677 ], [ 326134.999786475440487, 4012458.958769302349538 ], [ 302185.540646290290169, 4012764.729598345700651 ], [ 300598.122206392930821, 4016503.690581256058067 ], [ 276990.15873729577288, 4017156.891091046854854 ], [ 273641.790677825920284, 4013210.99299257947132 ], [ 246080.762168059736723, 4013726.366654583718628 ], [ 231184.933526170585537, 4052841.671439410652965 ] ] ] } },
{ "type": "Feature", "properties": { "drag_region": "East", "NAME": "Chaves", "NAMELSAD": "Chaves" }, "geometry": { "type": "Polygon", "coordinates": [ [ [ 657634.249895315268077, 3623545.261693711858243 ], [ 677052.487611393560655, 3623506.088225051760674 ], [ 695800.398385149426758, 3624266.757650359999388 ], [ 696117.994316204218194, 3642743.408524794038385 ], [ 697788.675255076494068, 3642745.10859851911664 ], [ 697109.745825271005742, 3653030.411317973397672 ], [ 697060.764102475717664, 3699986.134182333480567 ], [ 696728.320667389896698, 3700271.536036123055965 ], [ 697029.684057318256237, 3729513.697378701996058 ], [ 706632.384145932388492, 3729433.475881253369153 ], [ 706983.980578669696115, 3719718.488494802266359 ], [ 750078.061872018501163, 3719431.03800494922325 ], [ 764995.209996493300423, 3719542.11817873083055 ], [ 764915.110384137486108, 3729258.162200395483524 ], [ 794058.224943283712491, 3729448.450632856227458 ], [ 794387.749661507084966, 3700299.663701821118593 ], [ 805682.289371995255351, 3700433.609947411809117 ], [ 805907.181257851072587, 3682334.973744304850698 ], [ 825210.004095697891898, 3682689.039221915882081 ], [ 825348.528948896680959, 3673068.039299168158323 ], [ 805693.176811105222441, 3672710.189143059309572 ], [ 805931.170770748634823, 3653373.996060967445374 ], [ 801925.250014563091099, 3653325.63297894410789 ], [ 802487.129205839824863, 3605702.061826725956053 ], [ 701855.670739714172669, 3604750.542210363317281 ], [ 701928.922470338409767, 3555706.240016761235893 ], [ 653723.05511800898239, 3555560.29417161596939 ], [ 654223.1863366458565, 3604699.00898184068501 ], [ 657577.613608038052917, 3604688.385332428850234 ], [ 657634.249895315268077, 3623545.261693711858243 ] ] ] } },
{ "type": "Feature", "properties": { "drag_region": "East", "NAME": "Harding", "NAMELSAD": "Harding" }, "geometry": { "type": "Polygon", "coordinates": [ [ [ 753019.646799852605909, 4040281.378474954981357 ], [ 791410.984742799657397, 4040493.877072829287499 ], [ 791459.652929400326684, 4035729.389199114404619 ], [ 810828.647010518237948, 4035853.326302548404783 ], [ 810950.505270499153994, 4026038.369911153335124 ], [ 849406.792549419100396, 4026695.115596529096365 ], [ 848922.802545058890246, 4016964.20649151597172 ], [ 849401.537796652293764, 3988185.923309261910617 ], [ 848911.071936456719413, 3978550.922537265811116 ], [ 849377.435668969759718, 3950155.339178398717195 ], [ 848737.89210800814908, 3949382.407250384334475 ], [ 826243.546270144754089, 3949043.991975927725434 ], [ 826193.589478431153111, 3952664.700741995126009 ], [ 818372.812558679142967, 3952560.159634115640074 ], [ 794798.831913738744333, 3994405.044757616240531 ], [ 790605.514170459122397, 3992075.196630615741014 ], [ 759141.036753836553544, 3991531.645718575455248 ], [ 757463.180880964151584, 4000477.818115448579192 ], [ 761637.053470317972824, 4006317.348515837918967 ], [ 760644.659792052581906, 4009455.205087726470083 ], [ 762895.791739850305021, 4011662.024386698380113 ], [ 760290.155516801634803, 4014121.960792245343328 ], [ 758935.628781278966926, 4023451.400787273887545 ], [ 755019.045911163906567, 4029716.044031528756022 ], [ 755966.398006904521026, 4033247.518853741697967 ], [ 752713.003799029975198, 4037516.186986584682018 ], [ 753019.646799852605909, 4040281.378474954981357 ] ] ] } },
{ "type": "Feature", "properties": { "drag_region": "Central", "NAME": "Colfax", "NAMELSAD": "Colfax" }, "geometry": { "type": "Polygon", "coordinates": [ [ [ 479114.463497045915574, 4303361.47685325331986 ], [ 485182.707958437735215, 4303349.486132029443979 ], [ 498916.087660181918181, 4303147.801726633682847 ], [ 557683.840336861088872, 4303351.792865239083767 ], [ 587065.420907241175883, 4303892.569726672954857 ], [ 587955.955248852958903, 4217554.273745583370328 ], [ 510852.642619359539822, 4217107.374677648767829 ], [ 510845.968976509291679, 4221966.969708140939474 ], [ 468286.155659554176964, 4222012.572325501590967 ], [ 469629.55138341197744, 4237921.237931724637747 ], [ 467074.169251903658733, 4243171.255449093878269 ], [ 470305.067792263464071, 4247543.363353028893471 ], [ 465187.554458822123706, 4254232.320896212011576 ], [ 467439.971731378580444, 4255272.021353647112846 ], [ 465212.189461083267815, 4260521.60268546640873 ], [ 467470.640543205197901, 4263657.750125270336866 ], [ 465884.976453667040914, 4268523.735290837474167 ], [ 469739.772262361017056, 4270415.652880048379302 ], [ 471031.25081470340956, 4273174.910900472663343 ], [ 478403.370313742547296, 4273249.379009739495814 ], [ 477780.712134582805447, 4280683.917992858216166 ], [ 478436.273807926685549, 4286971.867348752915859 ], [ 481012.087423194432631, 4294494.531850034371018 ], [ 477827.942228833213449, 4299743.224458806216717 ], [ 479114.463497045915574, 4303361.47685325331986 ] ] ] } },
{ "type": "Feature", "properties": { "drag_region": "East", "NAME": "Guadalupe", "NAMELSAD": "Guadalupe" }, "geometry": { "type": "Polygon", "coordinates": [ [ [ 653664.647317338967696, 3826921.39462940627709 ], [ 653860.598247823654674, 3894464.630491861142218 ], [ 690120.467903678538278, 3894431.335833829827607 ], [ 760028.693742344621569, 3894682.266789952293038 ], [ 760100.039256380405277, 3886584.057876233477145 ], [ 760124.733432313427329, 3846282.118911514990032 ], [ 740748.083655866794288, 3846134.226564252283424 ], [ 740811.308114438084885, 3836512.507642905693501 ], [ 731277.870008430909365, 3836359.594723286107183 ], [ 731331.014837692957371, 3826738.078774807974696 ], [ 690193.620386762311682, 3826602.579187965020537 ], [ 690224.105041313916445, 3798025.089138567447662 ], [ 651601.152041578898206, 3798063.8825898100622 ], [ 651690.117314638802782, 3826927.290055444929749 ], [ 653664.647317338967696, 3826921.39462940627709 ] ] ] } },
{ "type": "Feature", "properties": { "drag_region": "East", "NAME": "Roosevelt", "NAMELSAD": "Roosevelt" }, "geometry": { "type": "Polygon", "coordinates": [ [ [ 804472.932474571280181, 3805897.128491184674203 ], [ 823562.939245019806549, 3806020.62647822778672 ], [ 823979.069969527190551, 3772582.169741629622877 ], [ 888063.179712783312425, 3773596.232335630338639 ], [ 888822.700248572742566, 3733962.450773057993501 ], [ 888613.378225622698665, 3692311.288647179957479 ], [ 846299.223904793383554, 3691609.580837169662118 ], [ 846160.699051594594494, 3701230.580759917385876 ], [ 826857.876213747775182, 3700876.515282306354493 ], [ 826632.984327891957946, 3718975.151485413312912 ], [ 815338.444617403787561, 3718841.205239822622389 ], [ 815008.919899180415086, 3747989.992170857731253 ], [ 805405.079597812145948, 3747885.942268749233335 ], [ 804871.531640861416236, 3767505.978021913673729 ], [ 804472.932474571280181, 3805897.128491184674203 ] ] ] } }
]
}
