{
"type": "FeatureCollection",
"name": "tmp16m89vrt",
"crs": { "type": "name", "properties": { "name": "urn:ogc:def:crs:OGC:1.3:CRS84" } },
"features": [
{ "type": "Feature", "properties": { "drag_region": "East", "NAME": "Cass" }, "geometry": { "type": "Polygon", "coordinates": [ [ [ -95.99565366906981, 46.951566772072567 ], [ -96.003888389890335, 46.690597805450963 ], [ -95.978916247764147, 46.690227334223948 ], [ -95.989733866843011, 46.341697425706087 ], [ -95.590193956696112, 46.335811629876346 ], [ -95.112254248659042, 46.329648436782591 ], [ -95.105043382323615, 46.332118606144157 ], [ -95.111203750488585, 46.363979127600061 ], [ -95.091583499700803, 46.422079326652295 ], [ -95.110018478003752, 46.518519633365138 ], [ -95.09173813326268, 46.53284773225613 ], [ -95.067231753689995, 46.63294911814328 ], [ -95.088919811049067, 46.623823631687685 ], [ -95.126783031929818, 46.668173724742509 ], [ -95.118629572395776, 46.814885235022928 ], [ -95.128248391001364, 46.849374316370529 ], [ -95.129054992019292, 46.936970819442067 ], [ -95.742421059216895, 46.94693768028614 ], [ -95.99565366906981, 46.951566772072567 ] ] ] } },
{ "type": "Feature", "properties": { "drag_region": "East", "NAME": "Dickey" }, "geometry": { "type": "Polygon", "coordinates": [ [ [ -98.010936891145306, 45.122165497644815 ], [ -97.427420644552186, 45.113689524543119 ], [ -97.027817842072182, 45.110288575511916 ], [ -97.021923822474363, 45.456437777207313 ], [ -97.509852900155749, 45.460621202477107 ], [ -98.001389584756453, 45.464896838781215 ], [ -98.010936891145306, 45.122165497644815 ] ] ] } },
{ "type": "Feature", "properties": { "drag_region": "East", "NAME": "Nelson" }, "geometry": { "type": "Polygon", "coordinates": [ [ [ -96.614417799686336, 48.393100467424247 ], [ -97.13310320379658, 48.398922489493458 ], [ -97.141069224919178, 48.225500104469319 ], [ -97.241934999340415, 48.226627322766241 ], [ -97.250577095460642, 47.877977544431033 ], [ -96.605852938366837, 47.87080038917518 ], [ -96.597204997734593, 48.218552456595717 ], [ -96.618814131670305, 48.21879472070863 ], [ -96.614417799686336, 48.393100467424247 ] ] ] } },
{ "type": "Feature", "properties": { "drag_region": "Central", "NAME": "Renville" }, "geometry": { "type": "Polygon", "coordinates": [ [ [ -101.502708520549518, 50.008604945170532 ], [ -101.505419395788749, 49.73026684433956 ], [ -101.322237449556411, 49.728659251670351 ], [ -101.324766170388742, 49.468364845933081 ], [ -100.526276739013781, 49.464140272090674 ], [ -100.525389176247941, 49.550899826490372 ], [ -100.92464096878291, 49.553468197985673 ], [ -100.922901514204952, 49.72699249359728 ], [ -100.970527372836173, 49.727193797857247 ], [ -100.967692076221226, 50.007238688554793 ], [ -101.502708520549518, 50.008604945170532 ] ] ] } },
{ "type": "Feature", "properties": { "drag_region": "East", "NAME": "Griggs" }, "geometry": { "type": "Polygon", "coordinates": [ [ [ -97.221962167686598, 47.660313122262096 ], [ -97.230328229291075, 47.314227715937442 ], [ -97.198043006372558, 47.313870127101069 ], [ -97.2000947606914, 47.227993204047522 ], [ -96.694344562561682, 47.222399783372701 ], [ -96.692293845255989, 47.308269048090033 ], [ -96.717399624535759, 47.30854706155413 ], [ -96.705618825270804, 47.647691812056543 ], [ -96.709037827865629, 47.65460129840956 ], [ -97.221962167686598, 47.660313122262096 ] ] ] } },
{ "type": "Feature", "properties": { "drag_region": "West", "NAME": "Slope" }, "geometry": { "type": "Polygon", "coordinates": [ [ [ -105.765547553041728, 45.994156262500638 ], [ -105.757696758881153, 45.733435577267286 ], [ -105.079934313032823, 45.7434125775439 ], [ -104.721465753654044, 45.749578457552516 ], [ -104.650494802650911, 45.751490060563647 ], [ -104.664669126443883, 46.098876208959688 ], [ -104.962800559764574, 46.094430251929708 ], [ -105.526993371539774, 46.086056800291551 ], [ -105.524274320151434, 45.996857320772719 ], [ -105.765547553041728, 45.994156262500638 ] ] ] } },
{ "type": "Feature", "properties": { "drag_region": "East", "NAME": "Richland" }, "geometry": { "type": "Polygon", "coordinates": [ [ [ -95.371451400045885, 45.884778225796701 ], [ -95.383093254416906, 45.538033240341761 ], [ -95.361865712434209, 45.537684552841078 ], [ -95.374808854455679, 45.252794294031467 ], [ -95.343132077407546, 45.247124328407033 ], [ -95.34498353096879, 45.190478372105723 ], [ -94.690491820727502, 45.179847982446411 ], [ -94.698323098816587, 45.265831335054365 ], [ -94.679439091488206, 45.302443874163394 ], [ -94.713072287008856, 45.464401289979584 ], [ -94.71296416584633, 45.575156558472692 ], [ -94.758173299225916, 45.599075198917845 ], [ -94.826114263399674, 45.684327678442116 ], [ -94.842396187110651, 45.726666243810378 ], [ -94.853126151104277, 45.829018278745501 ], [ -94.88336774271599, 45.876739123482203 ], [ -94.890324932201963, 45.880287879503776 ], [ -94.897484294999231, 45.877829497438839 ], [ -95.371451400045885, 45.884778225796701 ] ] ] } },
{ "type": "Feature", "properties": { "drag_region": "Central", "NAME": "Towner" }, "geometry": { "type": "Polygon", "coordinates": [ [ [ -97.617632504798834, 49.926610848682358 ], [ -97.628591059393656, 49.645862052374994 ], [ -97.595691884768172, 49.645324705564143 ], [ -97.609001851789699, 49.298467133982655 ], [ -97.07554057710388, 49.288897992399804 ], [ -97.062083430211814, 49.636567206384527 ], [ -97.0913178883619, 49.637049040121411 ], [ -97.080230946589296, 49.918618339859762 ], [ -97.617632504798834, 49.926610848682358 ] ] ] } },
{ "type": "Feature", "properties": { "drag_region": "East", "NAME": "Ransom" }, "geometry": { "type": "Polygon", "coordinates": [ [ [ -96.536128904641473, 46.056891343024297 ], [ -96.545385809941678, 45.709129360516961 ], [ -95.799916069213239, 45.699528755597683 ], [ -95.790781430185547, 46.046376368203475 ], [ -96.188281220503285, 46.051513664617303 ], [ -96.536128904641473, 46.056891343024297 ] ] ] } },
{ "type": "Feature", "properties": { "drag_region": "West", "NAME": "Billings" }, "geometry": { "type": "Polygon", "coordinates": [ [ [ -105.342434853614236, 47.083685541485615 ], [ -105.331696130510934, 46.735430647454116 ], [ -105.27461524347062, 46.736255009752476 ], [ -105.26402104964194, 46.386280561210505 ], [ -104.885794962416171, 46.39171727940024 ], [ -104.896412728783389, 46.7417231033332 ], [ -104.700147035544745, 46.744564853829587 ], [ -104.710925437635154, 47.092871526596092 ], [ -105.342434853614236, 47.083685541485615 ] ] ] } },
{ "type": "Feature", "properties": { "drag_region": "Central", "NAME": "McHenry" }, "geometry": { "type": "Polygon", "coordinates": [ [ [ -99.91226876710688, 49.303609811883298 ], [ -99.918156259466741, 49.0433140780803 ], [ -99.874502893210007, 49.042890296331493 ], [ -99.88226519494296, 48.69411213421138 ], [ -99.835001216891598, 48.692796137441029 ], [ -99.842447652800857, 48.519301865964323 ], [ -99.449714918406428, 48.514640648961979 ], [ -99.057017494815952, 48.51080801617212 ], [ -99.053128481502242, 48.685174952749129 ], [ -99.093126045279504, 48.685567799699896 ], [ -99.085240354950997, 49.034302853718593 ], [ -99.125244718878704, 49.034697571650433 ], [ -99.121266949251506, 49.208206718138761 ], [ -99.252204570632088, 49.209499863677969 ], [ -99.250186491091171, 49.29711504620159 ], [ -99.91226876710688, 49.303609811883298 ] ] ] } },
{ "type": "Feature", "properties": { "drag_region": "Central", "NAME": "Bottineau" }, "geometry": { "type": "Polygon", "coordinates": [ [ [ -100.487792139452836, 50.020575887059053 ], [ -100.493395367869709, 49.740519615805056 ], [ -100.445754538993469, 49.740122157429347 ], [ -100.449187418887306, 49.566591035242865 ], [ -100.049831887271196, 49.56238217038004 ], [ -100.048095144862529, 49.649142942622653 ], [ -99.381323822996535, 49.643434568033058 ], [ -99.383119076541718, 49.555822933966006 ], [ -99.251255104436737, 49.554679612579584 ], [ -99.119378957722859, 49.55438999231643 ], [ -99.115782487367341, 49.727888926676151 ], [ -99.152413776995942, 49.728209375172511 ], [ -99.146541766514048, 50.008213474258291 ], [ -100.110291141425506, 50.016534288407037 ], [ -100.487792139452836, 50.020575887059053 ] ] ] } },
{ "type": "Feature", "properties": { "drag_region": "Central", "NAME": "Logan" }, "geometry": { "type": "Polygon", "coordinates": [ [ [ -98.259696019168899, 46.410178465229592 ], [ -98.270211508309387, 46.060596104838723 ], [ -98.230922006931266, 46.059169425706671 ], [ -97.39474020854361, 46.047978636134694 ], [ -97.384354132558954, 46.39491243258427 ], [ -97.795191609441673, 46.40172005937373 ], [ -98.259696019168899, 46.410178465229592 ] ] ] } },
{ "type": "Feature", "properties": { "drag_region": "East", "NAME": "Barnes" }, "geometry": { "type": "Polygon", "coordinates": [ [ [ -97.156738461567059, 46.98009474794857 ], [ -97.163063827413296, 46.719022673342252 ], [ -97.134498276850906, 46.718697633876793 ], [ -97.142787009365293, 46.370888815251135 ], [ -96.739327575800374, 46.365472160170853 ], [ -96.389479048143713, 46.360671923759092 ], [ -96.381218908484954, 46.709291115150243 ], [ -96.40620630920975, 46.709573906901156 ], [ -96.3999181358991, 46.970609778744056 ], [ -97.156738461567059, 46.98009474794857 ] ] ] } },
{ "type": "Feature", "properties": { "drag_region": "Central", "NAME": "Stutsman" }, "geometry": { "type": "Polygon", "coordinates": [ [ [ -97.55060047600054, 47.373721294431093 ], [ -97.563102237613748, 47.027673170373845 ], [ -97.530784659484624, 47.027132347348129 ], [ -97.546767313802832, 46.677709485803021 ], [ -97.133903090711812, 46.669979049201537 ], [ -96.534454876814436, 46.660857790489047 ], [ -96.522126771644494, 47.008528178999399 ], [ -96.550836529131914, 47.009008960827188 ], [ -96.538306982974476, 47.355821429408131 ], [ -97.338752096815242, 47.370156115589069 ], [ -97.55060047600054, 47.373721294431093 ] ] ] } },
{ "type": "Feature", "properties": { "drag_region": "East", "NAME": "Cavalier" }, "geometry": { "type": "Polygon", "coordinates": [ [ [ -97.899622652604265, 49.780006266230025 ], [ -97.905943429097789, 49.498324569459065 ], [ -97.876780712691343, 49.498049047638276 ], [ -97.880626910654158, 49.324574811427432 ], [ -97.217334133215758, 49.317411619713937 ], [ -96.823810730296685, 49.312764110414953 ], [ -96.819827520480047, 49.487929149407776 ], [ -96.841691649108583, 49.488141121687093 ], [ -96.83518896787065, 49.770638315972583 ], [ -97.899622652604265, 49.780006266230025 ] ] ] } },
{ "type": "Feature", "properties": { "drag_region": "Central", "NAME": "Rolette" }, "geometry": { "type": "Polygon", "coordinates": [ [ [ -98.609959524111346, 49.98058443657299 ], [ -98.618918235925591, 49.700615465371939 ], [ -98.582312521420704, 49.700126385293693 ], [ -98.587797277283272, 49.526649260854775 ], [ -97.921792131945196, 49.516846500873477 ], [ -97.916230346622626, 49.690299343008228 ], [ -97.949164725899493, 49.690745807759257 ], [ -97.940051726322181, 49.971534205720012 ], [ -98.609959524111346, 49.98058443657299 ] ] ] } },
{ "type": "Feature", "properties": { "drag_region": "West", "NAME": "Hettinger" }, "geometry": { "type": "Polygon", "coordinates": [ [ [ -104.191335106545949, 46.109855121768582 ], [ -104.180106766791738, 45.762285578048981 ], [ -103.75738389500556, 45.768547558603387 ], [ -103.755686280348343, 45.691295368776913 ], [ -103.261755702409943, 45.695775954606823 ], [ -103.263485039965644, 45.77389369942081 ], [ -103.309680968965921, 45.773392028889688 ], [ -103.320994297175133, 46.120158841492625 ], [ -103.367203338425995, 46.120512987354672 ], [ -104.191335106545949, 46.109855121768582 ] ] ] } },
{ "type": "Feature", "properties": { "drag_region": "East", "NAME": "Steele" }, "geometry": { "type": "Polygon", "coordinates": [ [ [ -96.517691339522798, 47.651978009543335 ], [ -96.514297975855797, 47.645063276226104 ], [ -96.527304774172038, 47.305960513777215 ], [ -96.502202903905285, 47.305640869833873 ], [ -96.504560582356277, 47.219780733225875 ], [ -95.995457250747378, 47.211590038863449 ], [ -95.993101276724431, 47.297441316344923 ], [ -96.014612277090492, 47.297715150375033 ], [ -96.004981759648658, 47.644555358245256 ], [ -96.517691339522798, 47.651978009543335 ] ] ] } },
{ "type": "Feature", "properties": { "drag_region": "Central", "NAME": "LaMoure" }, "geometry": { "type": "Polygon", "coordinates": [ [ [ -96.843891442128992, 46.345805357527887 ], [ -96.857647214634355, 45.998976921987797 ], [ -96.82199828236422, 45.997437419416514 ], [ -96.326096394989705, 45.987984633802284 ], [ -95.858884318331206, 45.979099007439252 ], [ -95.845173438740247, 46.326677081720092 ], [ -96.843891442128992, 46.345805357527887 ] ] ] } },
{ "type": "Feature", "properties": { "drag_region": "West", "NAME": "Oliver" }, "geometry": { "type": "Polygon", "coordinates": [ [ [ -102.01913703787524, 47.081002455985868 ], [ -102.022384508759245, 47.057791224406571 ], [ -102.526537448235572, 47.05446705193534 ], [ -102.522897946304226, 46.794264867588652 ], [ -101.696911624603089, 46.80141308317264 ], [ -101.640246591960079, 46.84129707887152 ], [ -101.644172384861989, 46.866179651203339 ], [ -101.687508501574612, 46.895955201031796 ], [ -101.706260022950119, 46.957672709454876 ], [ -101.727958795089378, 46.974707337643054 ], [ -101.757246837635236, 47.022612267266325 ], [ -101.740011921509037, 47.068248383452179 ], [ -101.822868569649572, 47.110644637413571 ], [ -101.947828404809002, 47.096075069205355 ], [ -101.958129762651311, 47.065945898296377 ], [ -102.01913703787524, 47.081002455985868 ] ] ] } },
{ "type": "Feature", "properties": { "drag_region": "West", "NAME": "Morton" }, "geometry": { "type": "Polygon", "coordinates": [ [ [ -102.784090620799049, 46.589968615091955 ], [ -102.780867880172536, 46.326321457657713 ], [ -102.406827129700844, 46.329367353991827 ], [ -102.405768673387783, 46.242626804309488 ], [ -101.988914790441072, 46.24422126797208 ], [ -101.985752476857598, 45.984847646204223 ], [ -101.736325521132869, 45.986318865245423 ], [ -101.735272394687073, 45.899572543418579 ], [ -101.713891880287946, 45.89969880630666 ], [ -101.629162583851581, 45.965479569127702 ], [ -101.608337335514449, 46.011127186458147 ], [ -101.504871220651339, 46.001433966101267 ], [ -101.458703381274148, 46.014592835008088 ], [ -101.412156288534447, 45.996831582490422 ], [ -101.376889395672833, 46.027105474376924 ], [ -101.280894129159876, 46.04571662738676 ], [ -101.29187076595754, 46.068843438409374 ], [ -101.271168236063446, 46.123941762349922 ], [ -101.239436565450362, 46.151619050048062 ], [ -101.282699768626102, 46.191732039867738 ], [ -101.261564224804815, 46.211615158215182 ], [ -101.354726414627265, 46.252288074294853 ], [ -101.337455096349231, 46.296199127116289 ], [ -101.422686519032993, 46.272496754885587 ], [ -101.444525906558297, 46.309301654464733 ], [ -101.472957171473126, 46.303118924552571 ], [ -101.473577872564192, 46.35293500579543 ], [ -101.530749528237564, 46.365477552142849 ], [ -101.513674235203595, 46.424847777441968 ], [ -101.600296230808752, 46.512801820603833 ], [ -101.604507002991198, 46.564313724751671 ], [ -101.633442944126756, 46.598498466735563 ], [ -102.456374070681093, 46.591892650682375 ], [ -102.784090620799049, 46.589968615091955 ] ] ] } },
{ "type": "Feature", "properties": { "drag_region": "East", "NAME": "Walsh" }, "geometry": { "type": "Polygon", "coordinates": [ [ [ -96.781423733276327, 49.019334507403286 ], [ -96.790372326856087, 48.845953290702425 ], [ -96.761427740342782, 48.844708893150283 ], [ -96.766731366212156, 48.670421456477186 ], [ -96.375684697404253, 48.665215290413137 ], [ -95.608310150239319, 48.654076983308848 ], [ -95.60707271345504, 48.694419738987349 ], [ -95.580339413093, 48.73957140074485 ], [ -95.606830596403668, 48.819788519368743 ], [ -95.594590757238379, 48.864276545416125 ], [ -95.595356147817938, 48.956169316960661 ], [ -95.615627614403763, 49.002814017966244 ], [ -96.390357171569349, 49.01324346794793 ], [ -96.781423733276327, 49.019334507403286 ] ] ] } },
{ "type": "Feature", "properties": { "drag_region": "Central", "NAME": "McLean" }, "geometry": { "type": "Polygon", "coordinates": [ [ [ -101.079101218799821, 48.23769844029944 ], [ -101.596406323574783, 48.241180572500461 ], [ -101.597757747817283, 48.150960039393212 ], [ -101.546454671764266, 48.194442188917215 ], [ -101.470781058189303, 48.174170412533613 ], [ -101.500159217144827, 48.145150546818464 ], [ -101.475221896145953, 48.119203840719941 ], [ -101.476745990804474, 48.016955165147166 ], [ -101.415990675923908, 47.966708301795023 ], [ -101.372723288918635, 47.956966223121377 ], [ -101.246005355112587, 47.963850356005402 ], [ -101.242873640669956, 47.931176054108683 ], [ -101.174186820630013, 47.928137058239727 ], [ -101.102331533540905, 47.895001301461434 ], [ -101.022886426349388, 47.885874121029779 ], [ -100.917369245701039, 47.927267331261575 ], [ -100.848803697305399, 47.916493278504525 ], [ -100.707326321403613, 47.943891636520355 ], [ -100.634915731246849, 47.948556243330245 ], [ -100.577695550605313, 47.905206161509774 ], [ -100.628687899680017, 47.881493298318773 ], [ -100.647310426056208, 47.845531338255093 ], [ -100.611991564970694, 47.788582415699423 ], [ -100.572722734358479, 47.753947149722215 ], [ -100.555764244873728, 47.678219840272156 ], [ -100.465765485208053, 47.650115498105734 ], [ -100.404519913958836, 47.634234660726648 ], [ -100.393225077027239, 47.664230733435495 ], [ -100.266456826865792, 47.677117490434128 ], [ -100.183928647472882, 47.633596236242568 ], [ -100.20268525141698, 47.58818621196734 ], [ -100.174471667222448, 47.539879420772763 ], [ -99.95751357055012, 47.53926208130494 ], [ -99.954959617805955, 47.710220806828019 ], [ -99.879041140811822, 47.708842238650227 ], [ -99.870159631712085, 48.055885734835989 ], [ -99.783375207713377, 48.055287833564378 ], [ -99.780700613330708, 48.228819960368625 ], [ -100.171249017865875, 48.232370402458393 ], [ -101.079101218799821, 48.23769844029944 ] ] ] } },
{ "type": "Feature", "properties": { "drag_region": "West", "NAME": "Williams" }, "geometry": { "type": "Polygon", "coordinates": [ [ [ -105.904371953615751, 49.008502484877589 ], [ -105.895165145696993, 48.764112122854797 ], [ -105.89101019224384, 48.749593481090393 ], [ -105.877046104243902, 48.372289197166289 ], [ -105.836275977985778, 48.343779148514926 ], [ -105.797230773977091, 48.362432275950702 ], [ -105.749241026304631, 48.334038448058664 ], [ -105.699301542002686, 48.351152212075142 ], [ -105.6864313079179, 48.39426405788997 ], [ -105.631499827710385, 48.373704441665282 ], [ -105.615837878965337, 48.439172261643122 ], [ -105.579077868983376, 48.421749657173521 ], [ -105.543606377474831, 48.43948733413135 ], [ -105.577387789341927, 48.474120178451479 ], [ -105.509867757437789, 48.504392429622506 ], [ -105.440957246805468, 48.496930709335153 ], [ -105.382214683921205, 48.471282549541932 ], [ -105.413607487945569, 48.440739063376981 ], [ -105.328685882713771, 48.390628336957825 ], [ -105.257571743007986, 48.421815171880134 ], [ -105.210225450673633, 48.411425963359235 ], [ -105.116908010985611, 48.428383428973966 ], [ -105.063589613862348, 48.452417123589377 ], [ -105.082712176432551, 48.48128587996645 ], [ -105.033729076414289, 48.524988546416978 ], [ -104.940244958324172, 48.537658819888392 ], [ -104.921370023192367, 48.515650662542676 ], [ -104.802692601788593, 48.53130180775986 ], [ -104.737084794004915, 48.516055486224026 ], [ -104.694308207693339, 48.532195237907835 ], [ -104.657686757599265, 48.519054455646909 ], [ -104.666850083426255, 48.767805768750613 ], [ -104.724643607566207, 48.766868930740813 ], [ -104.734355448590577, 49.026767431489695 ], [ -105.904371953615751, 49.008502484877589 ] ] ] } },
{ "type": "Feature", "properties": { "drag_region": "West", "NAME": "Mercer" }, "geometry": { "type": "Polygon", "coordinates": [ [ [ -103.249703385013007, 47.473081516382834 ], [ -103.24844076103615, 47.226651523334624 ], [ -103.187577511743882, 47.22720298667398 ], [ -103.180867349852619, 46.880355049165303 ], [ -102.801330845708691, 46.883777188344965 ], [ -102.806358961404612, 47.143927504681713 ], [ -102.301442720337576, 47.148505970739649 ], [ -102.298313792417403, 47.171721902387247 ], [ -102.388380453263508, 47.19838551926717 ], [ -102.407765924242042, 47.273782576521491 ], [ -102.447832354409769, 47.307769600556149 ], [ -102.484758239979769, 47.364113058459516 ], [ -102.467564974954058, 47.400338283915751 ], [ -102.417905867137378, 47.424836591738369 ], [ -102.476052468554812, 47.467245752519389 ], [ -102.547569136432557, 47.461441193682951 ], [ -102.686660310366506, 47.431834942603039 ], [ -102.754897534839628, 47.441518580568072 ], [ -102.857904134021425, 47.398503000288528 ], [ -102.936844843178548, 47.40637224224443 ], [ -103.009097601324953, 47.438346238141854 ], [ -103.0771749200199, 47.440303074578914 ], [ -103.081400499485113, 47.472895378220187 ], [ -103.206555135433305, 47.464028438903185 ], [ -103.249703385013007, 47.473081516382834 ] ] ] } },
{ "type": "Feature", "properties": { "drag_region": "Central", "NAME": "Sioux" }, "geometry": { "type": "Polygon", "coordinates": [ [ [ -101.176192765570278, 45.627456194124633 ], [ -101.177828773243164, 45.518319858297041 ], [ -100.454599893144945, 45.513011386354449 ], [ -99.703018707103837, 45.506709000815462 ], [ -99.695557652757984, 45.529855994214444 ], [ -99.748369113134672, 45.57234123982542 ], [ -99.800863690761048, 45.63630746946265 ], [ -99.814023926185129, 45.710301941203333 ], [ -99.759662530458016, 45.773496525087765 ], [ -99.744819683134878, 45.813775779295092 ], [ -99.765717615187143, 45.845720759800535 ], [ -99.732963660951569, 45.892744488006457 ], [ -99.742868107986439, 45.945232844133059 ], [ -99.770666481652526, 45.991836185035062 ], [ -99.867092971178252, 45.97449143957229 ], [ -99.903156914824592, 45.944678017507393 ], [ -99.949186420089873, 45.963058354837599 ], [ -99.995679166964706, 45.950507214517692 ], [ -100.098810797880063, 45.961571045861419 ], [ -100.120863519517783, 45.916187673428645 ], [ -100.207323077144508, 45.851509449451818 ], [ -100.268003334627991, 45.843359247113376 ], [ -100.282931596753926, 45.797923100569228 ], [ -100.379798630343174, 45.752226094471759 ], [ -100.373199480451703, 45.716944356212977 ], [ -100.483857242985508, 45.702285066548995 ], [ -100.480717386667962, 45.673903056084342 ], [ -100.545350185885212, 45.640001272539685 ], [ -100.566596404296945, 45.648750546996894 ], [ -100.677862889234007, 45.593706181701187 ], [ -100.716935503255911, 45.601727234973509 ], [ -100.735106384324297, 45.577797640000284 ], [ -100.774256484068289, 45.58066316466369 ], [ -100.802347471714953, 45.608370198726973 ], [ -100.841908094406421, 45.583738392709655 ], [ -100.934088804996676, 45.614496021788838 ], [ -101.019787901030384, 45.602236572097929 ], [ -101.026256528969839, 45.646114758436582 ], [ -101.072817893528025, 45.630129581204102 ], [ -101.115429989097592, 45.639898217991785 ], [ -101.176192765570278, 45.627456194124633 ] ] ] } },
{ "type": "Feature", "properties": { "drag_region": "East", "NAME": "Pembina" }, "geometry": { "type": "Polygon", "coordinates": [ [ [ -96.280745362377672, 49.752518844186561 ], [ -96.290437955889033, 49.470108286729044 ], [ -96.268588641341466, 49.469792247087113 ], [ -96.274524591123452, 49.294680887602318 ], [ -95.495461408495842, 49.283370378055736 ], [ -95.499071875206127, 49.28428178224663 ], [ -95.471245196022835, 49.352568798037019 ], [ -95.437780312379999, 49.37268719037634 ], [ -95.425031432234334, 49.425737686922226 ], [ -95.477263804766068, 49.495196522094133 ], [ -95.502700243093201, 49.602045589170991 ], [ -95.52382708941137, 49.622963907172533 ], [ -95.560944097082881, 49.707660214558224 ], [ -95.548822769117891, 49.741830056837586 ], [ -96.280745362377672, 49.752518844186561 ] ] ] } },
{ "type": "Feature", "properties": { "drag_region": "East", "NAME": "Traill" }, "geometry": { "type": "Polygon", "coordinates": [ [ [ -95.728360822575908, 47.639462377397372 ], [ -95.739803571699412, 47.292688990907784 ], [ -95.718298777064888, 47.292363596254702 ], [ -95.721098089855573, 47.206528856499801 ], [ -95.104756449796184, 47.196359002012308 ], [ -95.113717041479191, 47.251447579752586 ], [ -95.101567361703431, 47.29419608232017 ], [ -95.12767321006757, 47.372728198414585 ], [ -95.11412926636649, 47.457529436519629 ], [ -95.114022380820316, 47.56915274052092 ], [ -95.131851705100615, 47.571999608210803 ], [ -95.14782725739768, 47.630631426739924 ], [ -95.728360822575908, 47.639462377397372 ] ] ] } },
{ "type": "Feature", "properties": { "drag_region": "East", "NAME": "Ramsey" }, "geometry": { "type": "Polygon", "coordinates": [ [ [ -98.233595475801508, 48.814568827220668 ], [ -98.237706537551091, 48.598986514593662 ], [ -98.176391845706505, 48.586448597776418 ], [ -98.148114690409045, 48.550133687463322 ], [ -98.108278126453683, 48.55066013787436 ], [ -98.109901525328524, 48.464772128540694 ], [ -98.040539682596432, 48.495117612646006 ], [ -98.030863805908467, 48.43232928043291 ], [ -97.954589549416497, 48.445436230947209 ], [ -97.841322136662455, 48.500322745076055 ], [ -97.82071099304089, 48.441739045482954 ], [ -97.788492408248288, 48.422571536018729 ], [ -97.708522075226767, 48.439939524958383 ], [ -97.701966223652676, 48.403807721462591 ], [ -97.663062098166336, 48.355379184700126 ], [ -97.561755072944905, 48.352810983487231 ], [ -97.559735646145029, 48.459304538231017 ], [ -97.458396103607527, 48.458451255556213 ], [ -97.451456516697306, 48.631899729063441 ], [ -97.321160865259429, 48.630797694230985 ], [ -97.317785374663416, 48.805132416473839 ], [ -97.346724302268768, 48.806236951567691 ], [ -97.339714799514553, 48.979682629070645 ], [ -97.998539724658443, 48.986117749248962 ], [ -98.001912550433488, 48.811767742736642 ], [ -98.233595475801508, 48.814568827220668 ] ] ] } },
{ "type": "Feature", "properties": { "drag_region": "East", "NAME": "Grand Forks" }, "geometry": { "type": "Polygon", "coordinates": [ [ [ -96.265869699123911, 48.390394290400138 ], [ -96.271450496433417, 48.216124526183471 ], [ -96.249846972236185, 48.215816979341277 ], [ -96.260824507918244, 47.8681366047011 ], [ -95.850443992195352, 47.861461703550816 ], [ -95.267377454381844, 47.853181513389984 ], [ -95.291597753144131, 47.884437994176217 ], [ -95.311109134384125, 47.950833515630158 ], [ -95.339439116843621, 47.965834401269248 ], [ -95.376284069286612, 48.053086674446511 ], [ -95.38550015016348, 48.10302228689531 ], [ -95.424160683098961, 48.132769608568495 ], [ -95.438839750702343, 48.236882564436037 ], [ -95.467028004528942, 48.256177073720785 ], [ -95.506963810129633, 48.358077109687692 ], [ -95.502700303351418, 48.378625448315198 ], [ -96.265869699123911, 48.390394290400138 ] ] ] } },
{ "type": "Feature", "properties": { "drag_region": "West", "NAME": "Mountrail" }, "geometry": { "type": "Polygon", "coordinates": [ [ [ -104.172531847583926, 48.852954335805173 ], [ -104.168034314322441, 48.679590646925448 ], [ -104.110309258836992, 48.680244094372775 ], [ -104.103929101700217, 48.431353390081995 ], [ -104.039142945793685, 48.438093217595728 ], [ -104.034662081632689, 48.403803746189062 ], [ -103.936771648734791, 48.386018745251967 ], [ -103.939726925471248, 48.36023014289561 ], [ -103.88189192457456, 48.356587952777382 ], [ -103.866592113352368, 48.322419105244798 ], [ -103.82297158313952, 48.310031207861165 ], [ -103.836645978893884, 48.279829296489758 ], [ -103.917942500933222, 48.211952473486718 ], [ -103.908769154765025, 48.133930876750398 ], [ -103.828304887733509, 48.091047857724647 ], [ -103.763363434525772, 48.09177458739498 ], [ -103.679675318751762, 48.064378636174155 ], [ -103.650960573844003, 48.070709297463736 ], [ -103.653207684110825, 48.160831543916615 ], [ -103.13719636563286, 48.166591988912963 ], [ -103.137966609527894, 48.341742271702621 ], [ -103.19210051708562, 48.341137594546815 ], [ -103.200966796065245, 48.690496214359115 ], [ -103.251472339440326, 48.68907026504732 ], [ -103.255982057422798, 48.864177289829037 ], [ -103.515809167454904, 48.860388677270407 ], [ -104.172531847583926, 48.852954335805173 ] ] ] } },
{ "type": "Feature", "properties": { "drag_region": "West", "NAME": "Divide" }, "geometry": { "type": "Polygon", "coordinates": [ [ [ -105.970696041663743, 49.669003076832347 ], [ -105.956003207711802, 49.303735750805494 ], [ -104.779039157629455, 49.322778132940819 ], [ -104.782484403948956, 49.410261464153507 ], [ -104.836992024702482, 49.409345041147226 ], [ -104.848087696406793, 49.688087107113773 ], [ -105.28773953508562, 49.679785890593685 ], [ -105.970696041663743, 49.669003076832347 ] ] ] } },
{ "type": "Feature", "properties": { "drag_region": "West", "NAME": "Grant" }, "geometry": { "type": "Polygon", "coordinates": [ [ [ -102.948012573475779, 46.140738581123287 ], [ -102.946734751489373, 46.054867599210475 ], [ -102.90057230878503, 46.054341177687689 ], [ -102.891913971748693, 45.707446073932189 ], [ -102.845757766932849, 45.707776750369604 ], [ -102.842417713124604, 45.47764012913553 ], [ -102.782239830702977, 45.490952238269472 ], [ -102.739492922279368, 45.481811075029007 ], [ -102.693567493415259, 45.498457615163737 ], [ -102.685831590729876, 45.454713012373119 ], [ -102.600794130206523, 45.468205297079137 ], [ -102.508029723914575, 45.438812532903491 ], [ -102.469328843241357, 45.463997633874214 ], [ -102.440519789899852, 45.436721929822944 ], [ -102.401418723901074, 45.434427174039193 ], [ -102.384012552181929, 45.458600749165029 ], [ -102.344835991926914, 45.451153840849294 ], [ -102.235561806979419, 45.507771067056154 ], [ -102.214127894687095, 45.499337701410965 ], [ -102.150708118257143, 45.534153403532819 ], [ -102.154676751415707, 45.562467792368523 ], [ -102.044812734089177, 45.578727807704311 ], [ -102.052436593719676, 45.613887030630963 ], [ -101.957238356024149, 45.660963416101353 ], [ -101.943711351162023, 45.706584707765927 ], [ -101.883466627370055, 45.715615593723875 ], [ -101.904774829838473, 45.715459268288015 ], [ -101.90607431676807, 45.802200248629013 ], [ -102.154653478081087, 45.800379672305141 ], [ -102.158551781744521, 46.059735690864876 ], [ -102.573971660147606, 46.057562420726306 ], [ -102.575274327254533, 46.144296180486556 ], [ -102.948012573475779, 46.140738581123287 ] ] ] } },
{ "type": "Feature", "properties": { "drag_region": "East", "NAME": "Sargent" }, "geometry": { "type": "Polygon", "coordinates": [ [ [ -96.502859144058291, 45.458835250125667 ], [ -96.511901847727799, 45.112780572106367 ], [ -96.483641909255212, 45.111554824206316 ], [ -95.744897325405276, 45.102039882829224 ], [ -95.743450794818401, 45.158704314161668 ], [ -95.775124963877332, 45.164262837154993 ], [ -95.764241678619527, 45.449258397154544 ], [ -96.502859144058291, 45.458835250125667 ] ] ] } },
{ "type": "Feature", "properties": { "drag_region": "West", "NAME": "Bowman" }, "geometry": { "type": "Polygon", "coordinates": [ [ [ -105.805219291855877, 45.531149169214132 ], [ -105.800366977332004, 45.251520955319151 ], [ -105.795199762083058, 45.19668753441217 ], [ -105.194081359231745, 45.205650499931814 ], [ -104.762572380709045, 45.212135542175439 ], [ -104.772786001288793, 45.547546369239193 ], [ -105.129941850619957, 45.541285023854115 ], [ -105.805219291855877, 45.531149169214132 ] ] ] } },
{ "type": "Feature", "properties": { "drag_region": "West", "NAME": "Golden Valley" }, "geometry": { "type": "Polygon", "coordinates": [ [ [ -105.96501272656306, 47.02078900985407 ], [ -105.937598645883796, 46.233668106863824 ], [ -105.695321429390148, 46.236791048549534 ], [ -105.698373914631418, 46.325969491780128 ], [ -105.509543321766586, 46.329080614325271 ], [ -105.521675402088519, 46.678952901066388 ], [ -105.57867856189209, 46.678007879528685 ], [ -105.590975684476589, 47.026160216057406 ], [ -105.96501272656306, 47.02078900985407 ] ] ] } },
{ "type": "Feature", "properties": { "drag_region": "Central", "NAME": "McIntosh" }, "geometry": { "type": "Polygon", "coordinates": [ [ [ -98.194044549149041, 45.834461151121872 ], [ -98.207838178424467, 45.493512474241768 ], [ -98.047671118417696, 45.490298536112 ], [ -97.339444639068105, 45.479070627748555 ], [ -97.325692929490302, 45.821665424669668 ], [ -97.361247794390948, 45.823046417601823 ], [ -98.194044549149041, 45.834461151121872 ] ] ] } },
{ "type": "Feature", "properties": { "drag_region": "West", "NAME": "Stark" }, "geometry": { "type": "Polygon", "coordinates": [ [ [ -104.403283365022716, 46.665013879760025 ], [ -104.599322320069746, 46.662695508119121 ], [ -104.590675737848343, 46.312575646096398 ], [ -104.291241462389024, 46.316097427702537 ], [ -103.464082057887467, 46.327587659994322 ], [ -103.472792778756599, 46.676926660530185 ], [ -103.522714470306795, 46.67633150998553 ], [ -103.523449274304582, 46.705514342124268 ], [ -103.901391666258945, 46.701014026018903 ], [ -103.900659229766006, 46.671833352254879 ], [ -104.403283365022716, 46.665013879760025 ] ] ] } },
{ "type": "Feature", "properties": { "drag_region": "Central", "NAME": "Ward" }, "geometry": { "type": "Polygon", "coordinates": [ [ [ -101.383801111772229, 49.516334411873665 ], [ -101.518543879914375, 49.517037386134326 ], [ -101.519606270527433, 49.430264096239554 ], [ -101.599721813025795, 49.430679632743662 ], [ -101.601834163483105, 49.256272492537533 ], [ -101.339654734466109, 49.255770709099174 ], [ -101.34177894942377, 49.080508317655699 ], [ -101.290797203486676, 49.081101926599032 ], [ -101.294980951503021, 48.731437235851807 ], [ -101.240378608797357, 48.731153861279751 ], [ -101.246088880755394, 48.555911353901472 ], [ -100.332561942411616, 48.551950277624961 ], [ -100.326796557197454, 48.725459447138242 ], [ -100.374099487634268, 48.726573261970771 ], [ -100.369770346958902, 49.07534981781901 ], [ -100.413452109636538, 49.075585940822037 ], [ -100.41236366842756, 49.162350789386473 ], [ -101.206004787381673, 49.167435559951691 ], [ -101.202808681201972, 49.427748376389538 ], [ -101.384869330782763, 49.42956216602888 ], [ -101.383801111772229, 49.516334411873665 ] ] ] } },
{ "type": "Feature", "properties": { "drag_region": "Central", "NAME": "Pierce" }, "geometry": { "type": "Polygon", "coordinates": [ [ [ -98.809492557958436, 49.206946871330402 ], [ -98.814555892774237, 49.033450101730338 ], [ -98.774555447343104, 49.032947690288367 ], [ -98.784591628623872, 48.684237552831142 ], [ -98.744598020639444, 48.683737597027942 ], [ -98.749546817536057, 48.509383145163852 ], [ -98.618697862612336, 48.506890437673555 ], [ -98.360609277715554, 48.503658479210458 ], [ -98.355631407401489, 48.67799941806657 ], [ -98.391982834441777, 48.678456664103358 ], [ -98.378226497013188, 49.027952507377314 ], [ -98.021954811731447, 49.023435601052867 ], [ -98.016831022332568, 49.196905228093094 ], [ -98.678549403774127, 49.206155849732156 ], [ -98.809492557958436, 49.206946871330402 ] ] ] } },
{ "type": "Feature", "properties": { "drag_region": "Central", "NAME": "Sheridan" }, "geometry": { "type": "Polygon", "coordinates": [ [ [ -99.28971807341442, 48.201088280790621 ], [ -99.29404296405535, 48.027564034528261 ], [ -99.380777101052203, 48.028531703814281 ], [ -99.392911615315214, 47.68151654643242 ], [ -98.746139825998767, 47.674321246713909 ], [ -98.737591328442534, 48.020477562141615 ], [ -98.773722202449434, 48.020882896868677 ], [ -98.769377483111043, 48.194391054453504 ], [ -99.28971807341442, 48.201088280790621 ] ] ] } },
{ "type": "Feature", "properties": { "drag_region": "West", "NAME": "McKenzie" }, "geometry": { "type": "Polygon", "coordinates": [ [ [ -105.7717596061363, 48.044966937009669 ], [ -105.749753140989824, 47.379436847086744 ], [ -105.373079113730498, 47.384221154919921 ], [ -104.806176983947424, 47.392708301909543 ], [ -104.803284882370733, 47.414207784884454 ], [ -104.817473793238648, 47.737556238486981 ], [ -104.358085456713539, 47.744466245869717 ], [ -104.363039576296615, 47.893744865008678 ], [ -104.37282538703613, 47.971707534729283 ], [ -104.292510490830296, 48.039872433991157 ], [ -104.279161406629257, 48.070117227719543 ], [ -104.322669149798344, 48.082335315098149 ], [ -104.338183466078505, 48.116435476875971 ], [ -104.39575918134264, 48.119856522384303 ], [ -104.393038670088785, 48.145648370994856 ], [ -104.4905877970874, 48.163055715271121 ], [ -104.495338669510758, 48.19731732988263 ], [ -104.559739824992576, 48.190333632123433 ], [ -104.596095466472534, 48.203516107435533 ], [ -104.638639888118348, 48.187421987416137 ], [ -104.703791966216386, 48.202742774901907 ], [ -104.821753813936425, 48.18722293882962 ], [ -104.840452831987946, 48.209254671760512 ], [ -104.933374691577669, 48.196688953742679 ], [ -104.982158703261618, 48.153037488423109 ], [ -104.963231424212225, 48.12414386335152 ], [ -105.016273562675877, 48.100168524255274 ], [ -105.109044006186451, 48.083316508675146 ], [ -105.156063793357859, 48.093761579134267 ], [ -105.226809504926109, 48.062654034854965 ], [ -105.311062714327036, 48.11286954042032 ], [ -105.279788204556439, 48.143379512908361 ], [ -105.338090799034418, 48.16909944881133 ], [ -105.406544688394447, 48.176643365865083 ], [ -105.473717898264709, 48.146447996336875 ], [ -105.440242680031105, 48.111771185946367 ], [ -105.475537294386754, 48.094073740399388 ], [ -105.512018397441295, 48.111542099894017 ], [ -105.527756819338919, 48.046085784910879 ], [ -105.58228667941647, 48.066713499303717 ], [ -105.5951917425798, 48.023612344893763 ], [ -105.644862908389058, 48.006556833984533 ], [ -105.692473749226579, 48.035011864556616 ], [ -105.731323795807555, 48.016404045633841 ], [ -105.7717596061363, 48.044966937009669 ] ] ] } },
{ "type": "Feature", "properties": { "drag_region": "West", "NAME": "Adams" }, "geometry": { "type": "Polygon", "coordinates": [ [ [ -104.270141277249763, 45.558123077041508 ], [ -104.262894704820894, 45.222534557467398 ], [ -103.278601246064227, 45.232303089164766 ], [ -103.284341591382727, 45.493270312116309 ], [ -103.776485724588468, 45.488763229506752 ], [ -103.778183233318245, 45.566016009249928 ], [ -104.270141277249763, 45.558123077041508 ] ] ] } },
{ "type": "Feature", "properties": { "drag_region": "West", "NAME": "Burke" }, "geometry": { "type": "Polygon", "coordinates": [ [ [ -104.31819173351839, 49.669039519429575 ], [ -104.310123532322038, 49.390147442272543 ], [ -104.25560829704574, 49.390814023874718 ], [ -104.250635193137526, 49.216612185277498 ], [ -103.589136192931576, 49.224633107935603 ], [ -103.59405659733622, 49.39885498798899 ], [ -103.514076297206373, 49.399821072702508 ], [ -103.516538739281671, 49.486504100155308 ], [ -103.382014936210396, 49.488128017166879 ], [ -103.387481564103467, 49.679521729443834 ], [ -104.31819173351839, 49.669039519429575 ] ] ] } },
{ "type": "Feature", "properties": { "drag_region": "Central", "NAME": "Kidder" }, "geometry": { "type": "Polygon", "coordinates": [ [ [ -98.61384400565673, 47.419527732018494 ], [ -98.623556707860402, 47.074227880638112 ], [ -98.584034694472521, 47.072854553293574 ], [ -98.600829066023991, 46.725071673833632 ], [ -97.968244129351532, 46.715165972046897 ], [ -97.954990430706957, 47.064666872973902 ], [ -97.987336879627108, 47.065088153116385 ], [ -97.97759173328717, 47.41120085701052 ], [ -98.61384400565673, 47.419527732018494 ] ] ] } },
{ "type": "Feature", "properties": { "drag_region": "East", "NAME": "Eddy" }, "geometry": { "type": "Polygon", "coordinates": [ [ [ -98.4049623877752, 47.978846672437626 ], [ -98.407947724901817, 47.80447630338999 ], [ -98.375565251086783, 47.804225840775842 ], [ -98.380609145288801, 47.719216146680253 ], [ -97.610714280433243, 47.713257208234857 ], [ -97.609263237912288, 47.798286748681036 ], [ -97.634444333629389, 47.798482274399362 ], [ -97.631463073088455, 47.971977348709345 ], [ -97.653017642405274, 47.973863156383977 ], [ -98.4049623877752, 47.978846672437626 ] ] ] } },
{ "type": "Feature", "properties": { "drag_region": "Central", "NAME": "Foster" }, "geometry": { "type": "Polygon", "coordinates": [ [ [ -97.304451129783274, 47.866602967870293 ], [ -97.314202811207807, 47.606453867178566 ], [ -96.542618888840934, 47.592435024590145 ], [ -96.532805407929274, 47.853388152702422 ], [ -97.304451129783274, 47.866602967870293 ] ] ] } },
{ "type": "Feature", "properties": { "drag_region": "Central", "NAME": "Benson" }, "geometry": { "type": "Polygon", "coordinates": [ [ [ -97.741072437741281, 48.939709270667848 ], [ -98.096710706032809, 48.9450900763213 ], [ -98.112385764802369, 48.595634735976844 ], [ -98.076097624138526, 48.595089643741218 ], [ -98.082021645874718, 48.420764461657221 ], [ -97.5595836987399, 48.412912639026366 ], [ -96.801553692171211, 48.402295974581818 ], [ -96.779856343635046, 48.400248212431393 ], [ -96.777496684636944, 48.468926655440832 ], [ -96.878971286689435, 48.472188355485081 ], [ -96.917206227111379, 48.520871241466722 ], [ -96.923215232831822, 48.557038946899965 ], [ -97.003621753707975, 48.540223463999645 ], [ -97.03561061091203, 48.559607188787112 ], [ -97.055354607399508, 48.618318314271399 ], [ -97.169715510733212, 48.564220852273479 ], [ -97.246356511484876, 48.551639104187764 ], [ -97.255078688242079, 48.614480147011612 ], [ -97.325062180829065, 48.584616167215884 ], [ -97.32209940302009, 48.670475157987859 ], [ -97.362031232134129, 48.67022188434678 ], [ -97.389803904612549, 48.706723274971807 ], [ -97.451058139240899, 48.719679098934613 ], [ -97.443550080839003, 48.935191012762843 ], [ -97.741072437741281, 48.939709270667848 ] ] ] } },
{ "type": "Feature", "properties": { "drag_region": "Central", "NAME": "Emmons" }, "geometry": { "type": "Polygon", "coordinates": [ [ [ -99.391862530180163, 46.325534024583511 ], [ -99.30002246984408, 46.283259085259296 ], [ -99.321895638150778, 46.263737617986777 ], [ -99.28000079016924, 46.222880527969011 ], [ -99.312758710502592, 46.195745819901987 ], [ -99.335442464426805, 46.140998891230765 ], [ -99.325268641411853, 46.1176827390006 ], [ -99.297780299413844, 46.070971371149966 ], [ -99.288273099772042, 46.018444700900112 ], [ -99.321476926371204, 45.971548324882214 ], [ -99.300785636201553, 45.939522308686691 ], [ -99.315982299252724, 45.899300730242636 ], [ -99.370968039942923, 45.836316766269213 ], [ -99.358361703174793, 45.762271274675072 ], [ -99.306251246250639, 45.698102156147051 ], [ -99.253654085548561, 45.655413005857831 ], [ -99.261313247715734, 45.632294959767741 ], [ -98.633188494493567, 45.623667412219447 ], [ -98.621953439026285, 45.964667614927031 ], [ -98.661186874972358, 45.96595973281967 ], [ -98.653179164861456, 46.315590542490099 ], [ -98.817321806225564, 46.317413614163314 ], [ -99.391862530180163, 46.325534024583511 ] ] ] } },
{ "type": "Feature", "properties": { "drag_region": "West", "NAME": "Dunn" }, "geometry": { "type": "Polygon", "coordinates": [ [ [ -104.042058968300879, 47.725915081995979 ], [ -104.038077358339848, 47.576586493341274 ], [ -104.496145620973024, 47.571019831417431 ], [ -104.484062548604328, 47.247546489611004 ], [ -104.487082236984833, 47.226049914090638 ], [ -104.419091381532581, 47.226871231269918 ], [ -104.410105693947102, 46.87846473611647 ], [ -103.905488694769716, 46.885389073235594 ], [ -103.90623595371197, 46.914568812372863 ], [ -103.526792418858136, 46.919137099710888 ], [ -103.535010066013314, 47.236704799711205 ], [ -103.595866820310093, 47.235968082913026 ], [ -103.598757943510947, 47.482338298257105 ], [ -103.660930041217938, 47.531378578634417 ], [ -103.663645352134623, 47.63351294437927 ], [ -103.689389030653771, 47.658955791209422 ], [ -103.661532375894083, 47.688485993826831 ], [ -103.73722982003747, 47.70730967230466 ], [ -103.786171498654681, 47.662927859647802 ], [ -103.814645945655528, 47.656571288253929 ], [ -103.897725195572349, 47.683890339721685 ], [ -103.962149806617148, 47.683105457763389 ], [ -104.042058968300879, 47.725915081995979 ] ] ] } },
{ "type": "Feature", "properties": { "drag_region": "Central", "NAME": "Wells" }, "geometry": { "type": "Polygon", "coordinates": [ [ [ -98.52262679999636, 48.199706999622734 ], [ -98.527801252566178, 48.026211253408015 ], [ -98.49166924015509, 48.025728571744033 ], [ -98.501849798050813, 47.679597012753987 ], [ -97.945535743263918, 47.672188214943596 ], [ -97.732441028675268, 47.669341654639943 ], [ -97.724762348088319, 47.929542019415358 ], [ -97.718617941661307, 48.014509213293721 ], [ -97.751124811711549, 48.014946123103236 ], [ -97.7458959301009, 48.189272066951865 ], [ -98.266093269578278, 48.196267686056849 ], [ -98.52262679999636, 48.199706999622734 ] ] ] } },
{ "type": "Feature", "properties": { "drag_region": "Central", "NAME": "Burleigh" }, "geometry": { "type": "Polygon", "coordinates": [ [ [ -99.77133885694191, 47.261471783161134 ], [ -99.750143313847857, 47.244064681316374 ], [ -99.733543400027642, 47.182019922781578 ], [ -99.691053991804893, 47.151502196317693 ], [ -99.688012584278908, 47.126550062915094 ], [ -99.74643899289309, 47.087626594192351 ], [ -99.718428239577321, 47.052962865313972 ], [ -99.715973387191681, 47.001377427224476 ], [ -99.631607720113109, 46.911993852564414 ], [ -99.650893714368721, 46.85289996403975 ], [ -99.59363219537623, 46.839418677766275 ], [ -99.594723840220453, 46.789589689333035 ], [ -99.565820625561059, 46.795306533112203 ], [ -99.545049909556255, 46.75814188140874 ], [ -99.458230549893528, 46.780446958620246 ], [ -99.477169431039783, 46.736818300285236 ], [ -98.898262408404264, 46.729122573353663 ], [ -98.88339625683102, 47.076950287968046 ], [ -98.922929075709902, 47.078220317442828 ], [ -98.915167629343188, 47.423546200882733 ], [ -99.47615773196388, 47.429403133049654 ], [ -99.551664976668448, 47.43105002790923 ], [ -99.555519558229904, 47.260087117648311 ], [ -99.77133885694191, 47.261471783161134 ] ] ] } }
]
}
