{
"type": "FeatureCollection",
"name": "tmp3i25t2ru",
"crs": { "type": "name", "properties": { "name": "urn:ogc:def:crs:EPSG::32616" } },
"features": [
{ "type": "Feature", "properties": { "drag_region": "North", "NAME": "Ford" }, "geometry": { "type": "Polygon", "coordinates": [ [ [ 419897.711767404107377, 4538046.225998322479427 ], [ 419496.648053858545609, 4513824.653593206778169 ], [ 464274.096715064253658, 4513313.935967296361923 ], [ 464070.584819349925965, 4522852.814112660475075 ], [ 448559.648739403637592, 4523319.589321166276932 ], [ 448073.192936807172373, 4579884.976986089721322 ], [ 438407.422466123243794, 4579635.268658178858459 ], [ 439026.992793757584877, 4537848.745300253853202 ], [ 419897.711767404107377, 4538046.225998322479427 ] ] ] } },
{ "type": "Feature", "properties": { "drag_region": "South", "NAME": "Saline" }, "geometry": { "type": "Polygon", "coordinates": [ [ [ 374251.852881207712926, 4079372.81016014283523 ], [ 373628.86984061228577, 4045247.83775076828897 ], [ 399613.480846584832761, 4044911.201758518349379 ], [ 403097.525271062972024, 4044764.141864354722202 ], [ 403600.080073654593434, 4078983.083224693778902 ], [ 374251.852881207712926, 4079372.81016014283523 ] ] ] } },
{ "type": "Feature", "properties": { "drag_region": "South", "NAME": "Hamilton" }, "geometry": { "type": "Polygon", "coordinates": [ [ [ 373540.043411991908215, 4121378.072247120086104 ], [ 372780.777868998760823, 4097171.297632118221372 ], [ 402129.005061445641331, 4096781.570696669165045 ], [ 403014.222817106347065, 4135382.487910493742675 ], [ 374122.424693136068527, 4135957.413475041743368 ], [ 373540.043411991908215, 4121378.072247120086104 ] ] ] } },
{ "type": "Feature", "properties": { "drag_region": "North", "NAME": "Winnebago" }, "geometry": { "type": "Polygon", "coordinates": [ [ [ 311064.784913697687443, 4840626.114170514978468 ], [ 310426.239783573430032, 4807516.009356703609228 ], [ 328806.482960229041055, 4807309.542743424884975 ], [ 328653.270519335055724, 4801299.957043150439858 ], [ 347934.949711407534778, 4801025.894696197472513 ], [ 348803.540845166367944, 4839086.910122335888445 ], [ 311064.784913697687443, 4840626.114170514978468 ] ] ] } },
{ "type": "Feature", "properties": { "drag_region": "North", "NAME": "DeKalb" }, "geometry": { "type": "Polygon", "coordinates": [ [ [ 363607.443191938102245, 4772948.980850773863494 ], [ 363683.29519921989413, 4763212.684349024668336 ], [ 362951.687460127694067, 4744046.85311331320554 ], [ 362589.681560024095234, 4714757.640626220963895 ], [ 390403.572066986351274, 4714568.101000412367284 ], [ 390883.263614871131722, 4724291.243127375841141 ], [ 391602.097007977718022, 4762825.863592715933919 ], [ 392492.976210155000445, 4762809.245005965232849 ], [ 392674.009492297132965, 4772538.618537872098386 ], [ 363607.443191938102245, 4772948.980850773863494 ] ] ] } },
{ "type": "Feature", "properties": { "drag_region": "North", "NAME": "Marshall" }, "geometry": { "type": "Polygon", "coordinates": [ [ [ 280724.933236992976163, 4624170.804120060056448 ], [ 280136.168877080606762, 4604713.526218940503895 ], [ 296143.630212990683503, 4604247.461908507160842 ], [ 293864.821206870779861, 4598489.105389107018709 ], [ 321689.052841524535324, 4598422.797601944766939 ], [ 329542.454511081858072, 4598043.698014941997826 ], [ 330010.433919667790178, 4617976.571134855039418 ], [ 304083.502670468704309, 4618441.471379456110299 ], [ 306627.584814, 4623336.185428265482187 ], [ 280724.933236992976163, 4624170.804120060056448 ] ] ] } },
{ "type": "Feature", "properties": { "drag_region": "CentralSouth", "NAME": "Piatt" }, "geometry": { "type": "Polygon", "coordinates": [ [ [ 400966.309217169356998, 4405201.310238507576287 ], [ 399993.562733497761656, 4371165.864825586788356 ], [ 424270.98463938588975, 4370634.955899162217975 ], [ 425058.935584853345063, 4418597.420775156468153 ], [ 425471.137653459096327, 4425076.6342747900635 ], [ 415705.142362799553666, 4425148.539598856121302 ], [ 405952.143728203314822, 4409874.710634622722864 ], [ 405861.689529824943747, 4405106.89555318467319 ], [ 400966.309217169356998, 4405201.310238507576287 ] ] ] } },
{ "type": "Feature", "properties": { "drag_region": "CentralSouth", "NAME": "Richland" }, "geometry": { "type": "Polygon", "coordinates": [ [ [ 454766.916798022051807, 4215865.124796254560351 ], [ 454589.692528879560996, 4202995.259207971394062 ], [ 452405.752633861906361, 4203025.594983637332916 ], [ 453235.722466918465216, 4195386.039192169904709 ], [ 451005.145152001117822, 4192270.79548162361607 ], [ 455013.206961801159196, 4188305.828419322613627 ], [ 464076.384894259623252, 4188092.043502007145435 ], [ 464035.879480205534492, 4184850.882536357734352 ], [ 484674.421681200212333, 4184714.987736527342349 ], [ 485294.955604022543412, 4215789.038386947475374 ], [ 454766.916798022051807, 4215865.124796254560351 ] ] ] } },
{ "type": "Feature", "properties": { "drag_region": "CentralNorth", "NAME": "Logan" }, "geometry": { "type": "Polygon", "coordinates": [ [ [ 221087.903954064124264, 4496282.456836044788361 ], [ 220444.315032318758313, 4474347.959890390746295 ], [ 222182.743340514658485, 4470956.645274922251701 ], [ 222116.114886275667232, 4458073.549789845012128 ], [ 230088.806997632607818, 4457942.672415722161531 ], [ 229953.359675656829495, 4453079.192834343761206 ], [ 236698.8170970553183, 4452798.97616796195507 ], [ 236655.133468359883409, 4451177.840100116096437 ], [ 252605.971286746615078, 4450669.368684382177889 ], [ 259050.878929909726139, 4450607.363537945784628 ], [ 259093.063287207914982, 4465109.260548130609095 ], [ 259414.765347416105215, 4491054.937454221770167 ], [ 249647.394791898957919, 4491202.867162412963808 ], [ 249771.782000183942728, 4496066.458078221417964 ], [ 221087.903954064124264, 4496282.456836044788361 ] ] ] } },
{ "type": "Feature", "properties": { "drag_region": "South", "NAME": "Fayette" }, "geometry": { "type": "Polygon", "coordinates": [ [ [ 310823.11224883038085, 4268749.522431834600866 ], [ 310123.582420479098801, 4265618.487141871824861 ], [ 309728.072166554920841, 4237007.440555887296796 ], [ 319698.060299609613139, 4236195.812847619876266 ], [ 319925.520054405962583, 4245920.659534963779151 ], [ 329269.73685382126132, 4245516.628445125184953 ], [ 358568.501265836937819, 4245300.915429496206343 ], [ 358750.704637433926109, 4255120.687239965423942 ], [ 348786.373358081968036, 4255025.902101480402052 ], [ 349767.801419649040326, 4288770.684644812718034 ], [ 311345.489339017542079, 4289821.412866931408644 ], [ 310823.11224883038085, 4268749.522431834600866 ] ] ] } },
{ "type": "Feature", "properties": { "drag_region": "CentralSouth", "NAME": "Effingham" }, "geometry": { "type": "Polygon", "coordinates": [ [ [ 395150.526664021948818, 4271365.16176590602845 ], [ 394169.098602454876527, 4237620.379222573712468 ], [ 404133.429881806834601, 4237715.164361058734357 ], [ 432758.203077574959025, 4236853.949105848558247 ], [ 433501.306416271370836, 4265736.431988301686943 ], [ 423889.084440313396044, 4265886.445869795046747 ], [ 423967.990269061934669, 4270748.803374051116407 ], [ 395150.526664021948818, 4271365.16176590602845 ] ] ] } },
{ "type": "Feature", "properties": { "drag_region": "North", "NAME": "Kendall" }, "geometry": { "type": "Polygon", "coordinates": [ [ [ 400709.558354867913295, 4709482.376873042434454 ], [ 400229.866806983132847, 4699759.234746078960598 ], [ 400469.907867885485757, 4680386.53455023560673 ], [ 429258.531003577576485, 4680580.395392832346261 ], [ 428783.580133220821153, 4709587.903248459100723 ], [ 400709.558354867913295, 4709482.376873042434454 ] ] ] } },
{ "type": "Feature", "properties": { "drag_region": "CentralNorth", "NAME": "Knox" }, "geometry": { "type": "Polygon", "coordinates": [ [ [ 134841.16441321518505, 4604046.727502075955272 ], [ 132711.708278295875061, 4565343.506329232826829 ], [ 171515.84517895540921, 4563635.017363042570651 ], [ 173174.815420231490862, 4612184.031454615294933 ], [ 135225.472061488428153, 4613776.410803627222776 ], [ 134841.16441321518505, 4604046.727502075955272 ] ] ] } },
{ "type": "Feature", "properties": { "drag_region": "North", "NAME": "LaSalle" }, "geometry": { "type": "Polygon", "coordinates": [ [ [ 359787.757961937459186, 4691141.01178505923599 ], [ 340653.925571669242345, 4691691.968540687114 ], [ 340067.554589381907135, 4656298.454143919982016 ], [ 339497.802811771281995, 4633408.137403259985149 ], [ 349145.395504073705524, 4633270.291781969368458 ], [ 348677.416095487773418, 4613337.418662056326866 ], [ 358657.350851482129656, 4613396.555040299892426 ], [ 359094.046529121289495, 4633138.489379985257983 ], [ 388033.739643954439089, 4632840.682281416840851 ], [ 387841.689529802068137, 4671578.771963407285511 ], [ 387601.648468899715226, 4690951.472159250639379 ], [ 359787.757961937459186, 4691141.01178505923599 ] ] ] } },
{ "type": "Feature", "properties": { "drag_region": "CentralNorth", "NAME": "Tazewell" }, "geometry": { "type": "Polygon", "coordinates": [ [ [ 194815.16196171939373, 4529694.37209733016789 ], [ 189968.452626837184653, 4521260.652666003443301 ], [ 207628.487950467766495, 4520696.319020324386656 ], [ 207229.809833219886059, 4507725.880865727551281 ], [ 216992.75726897068671, 4507527.951264993287623 ], [ 245676.635315090505173, 4507311.952507169917226 ], [ 246138.754447548679309, 4537169.554229486733675 ], [ 245899.018978588021128, 4539656.976920149289072 ], [ 241038.145319688046584, 4539688.643736761063337 ], [ 241430.030708641483216, 4554471.06755343079567 ], [ 222335.066336619114736, 4554907.151629936881363 ], [ 221879.082500423566671, 4549670.441949281841516 ], [ 216907.388758172892267, 4545807.735393514856696 ], [ 217474.628292350360425, 4544454.466953857801855 ], [ 213055.538325266417814, 4538954.776584330946207 ], [ 212940.273279020417249, 4535139.863248497247696 ], [ 199781.815180233068531, 4532684.777796631678939 ], [ 194815.16196171939373, 4529694.37209733016789 ] ] ] } },
{ "type": "Feature", "properties": { "drag_region": "South", "NAME": "Christian" }, "geometry": { "type": "Polygon", "coordinates": [ [ [ 306710.770923904958181, 4392557.328745041973889 ], [ 304288.640582932217512, 4394049.032634306699038 ], [ 299230.988211686897557, 4388643.32983235642314 ], [ 294914.486150325101335, 4388278.524825603701174 ], [ 291135.772262753278483, 4385038.886585535481572 ], [ 288737.110775184177328, 4387393.748642329126596 ], [ 288499.599151391943451, 4378620.768950543366373 ], [ 283884.572114933806006, 4378842.426124135032296 ], [ 283752.788046791160014, 4374074.507219850085676 ], [ 279132.280382524535526, 4374203.546772024594247 ], [ 278766.652126793866046, 4361234.851764096878469 ], [ 278529.243274818931241, 4341773.532011203467846 ], [ 312245.223926800128538, 4340902.125343676656485 ], [ 322134.612273860140704, 4340292.674404338002205 ], [ 322596.040736124676187, 4374530.439910654909909 ], [ 313051.569310304475948, 4374847.375926253385842 ], [ 313131.166344191122334, 4391065.083111117593944 ], [ 306710.770923904958181, 4392557.328745041973889 ] ] ] } },
{ "type": "Feature", "properties": { "drag_region": "CentralNorth", "NAME": "Scott" }, "geometry": { "type": "Polygon", "coordinates": [ [ [ 108392.840403597845579, 4426885.885324405506253 ], [ 104003.748568260212778, 4417414.593327070586383 ], [ 107098.080910610660794, 4410028.853686255402863 ], [ 109742.977881793558481, 4398937.399932363070548 ], [ 108741.347123434927198, 4397066.72459980007261 ], [ 132806.251437219500076, 4395954.73452355992049 ], [ 133282.970797404181212, 4408925.098366183228791 ], [ 130202.02499456172518, 4409039.094331102445722 ], [ 130319.140876195669989, 4412186.362649844959378 ], [ 127243.025671608498669, 4412396.988956348970532 ], [ 127916.957010541445925, 4422113.452755706384778 ], [ 118074.404702274347073, 4422490.396532719023526 ], [ 118226.73476908954035, 4426400.80174039490521 ], [ 108392.840403597845579, 4426885.885324405506253 ] ] ] } },
{ "type": "Feature", "properties": { "drag_region": "North", "NAME": "Grundy" }, "geometry": { "type": "Polygon", "coordinates": [ [ [ 400417.123277758772019, 4669181.547275844961405 ], [ 400609.173391911142971, 4630443.457593854516745 ], [ 429551.376320938346907, 4630641.616797150112689 ], [ 429387.78365693509113, 4640278.231492897495627 ], [ 429205.746413450862747, 4669375.408118441700935 ], [ 400417.123277758772019, 4669181.547275844961405 ] ] ] } },
{ "type": "Feature", "properties": { "drag_region": "South", "NAME": "Jefferson" }, "geometry": { "type": "Polygon", "coordinates": [ [ [ 318001.616366546251811, 4143047.229423358570784 ], [ 317461.809851321741007, 4133330.533146298024803 ], [ 356476.884769344178494, 4132520.175892063882202 ], [ 357059.266050488338806, 4147099.517119985539466 ], [ 357505.505224417313002, 4171313.374130402226001 ], [ 338097.772476492100395, 4171981.493881088215858 ], [ 318675.289567142375745, 4172029.24876512074843 ], [ 318001.616366546251811, 4143047.229423358570784 ] ] ] } },
{ "type": "Feature", "properties": { "drag_region": "North", "NAME": "Putnam" }, "geometry": { "type": "Polygon", "coordinates": [ [ [ 324501.164084253949113, 4649665.368507179431617 ], [ 315822.334784036385827, 4651223.238701433874667 ], [ 310050.123750330181792, 4648990.261716878041625 ], [ 308042.388704409706406, 4641504.105680800974369 ], [ 299020.055192182015162, 4641849.9927943283692 ], [ 298752.323478208039887, 4632407.490676424466074 ], [ 310196.155893277958967, 4631996.820438639260828 ], [ 307652.073749746661633, 4627102.10638982988894 ], [ 323931.412306643323973, 4626775.05176651943475 ], [ 324501.164084253949113, 4649665.368507179431617 ] ] ] } },
{ "type": "Feature", "properties": { "drag_region": "South", "NAME": "Marion" }, "geometry": { "type": "Polygon", "coordinates": [ [ [ 320891.537921147886664, 4190678.722762154880911 ], [ 320502.934410954418126, 4187444.538886503782123 ], [ 339925.417320304142777, 4187396.784002471249551 ], [ 359333.150068229355384, 4186728.664251785259694 ], [ 359915.539963511459064, 4201308.790158699266613 ], [ 360679.42003453936195, 4225708.851620575413108 ], [ 331380.655622523685452, 4225924.564636204391718 ], [ 322036.438823108386714, 4226328.595726042985916 ], [ 321808.979068312037271, 4216603.74903869908303 ], [ 320891.537921147886664, 4190678.722762154880911 ] ] ] } },
{ "type": "Feature", "properties": { "drag_region": "CentralNorth", "NAME": "Henry" }, "geometry": { "type": "Polygon", "coordinates": [ [ [ 139871.07771398886689, 4662598.96774666570127 ], [ 137928.584281002258649, 4628758.93836282286793 ], [ 185815.512315539323026, 4626736.777903233654797 ], [ 186130.133198488154449, 4636275.075811237096786 ], [ 187032.656697226193501, 4636245.336608843877912 ], [ 188070.827235310687684, 4667722.442413556389511 ], [ 187715.454854110139422, 4675087.113147525116801 ], [ 160784.458116262481781, 4676031.770045111887157 ], [ 160016.465916635032045, 4671475.138684877194464 ], [ 156048.661259263259126, 4669617.029083025641739 ], [ 148213.338663599890424, 4668673.452257829718292 ], [ 144465.576454408437712, 4664902.058035203255713 ], [ 139871.07771398886689, 4662598.96774666570127 ] ] ] } },
{ "type": "Feature", "properties": { "drag_region": "CentralNorth", "NAME": "Macoupin" }, "geometry": { "type": "Polygon", "coordinates": [ [ [ 158448.973516216967255, 4379925.589183846488595 ], [ 158064.559055467892904, 4351198.9741829065606 ], [ 157058.581829907197971, 4322208.790157007984817 ], [ 195913.757292311056517, 4320769.385968514718115 ], [ 197343.089206114062108, 4379041.35372341889888 ], [ 158448.973516216967255, 4379925.589183846488595 ] ] ] } },
{ "type": "Feature", "properties": { "drag_region": "North", "NAME": "De Witt" }, "geometry": { "type": "Polygon", "coordinates": [ [ [ 332510.581851673370693, 4474850.856318194419146 ], [ 332188.87979146518046, 4448905.179412103258073 ], [ 366497.700523371517193, 4448918.749338028952479 ], [ 366593.021820992056746, 4453781.912570342421532 ], [ 371488.402133647643495, 4453687.497885019518435 ], [ 371578.85633202601457, 4458455.312966457568109 ], [ 381331.854966622253414, 4473729.141930690966547 ], [ 332510.581851673370693, 4474850.856318194419146 ] ] ] } },
{ "type": "Feature", "properties": { "drag_region": "CentralNorth", "NAME": "McDonough" }, "geometry": { "type": "Polygon", "coordinates": [ [ [ 84712.452890046217362, 4546430.226557997055352 ], [ 82662.270063521325937, 4507047.605895674787462 ], [ 121691.865013915623422, 4504469.83742400445044 ], [ 123520.853346730684279, 4543469.270297862589359 ], [ 94411.468351681760396, 4545623.153734157793224 ], [ 84712.452890046217362, 4546430.226557997055352 ] ] ] } },
{ "type": "Feature", "properties": { "drag_region": "CentralSouth", "NAME": "Wayne" }, "geometry": { "type": "Polygon", "coordinates": [ [ [ 405093.974544720782433, 4161601.398681594524533 ], [ 404647.735370791808236, 4137387.541671177837998 ], [ 433539.533494762086775, 4136812.616106629837304 ], [ 452697.868929208954796, 4136646.833881020080298 ], [ 453484.429075793945231, 4174582.605497906450182 ], [ 444421.251143335481174, 4174796.390415221918374 ], [ 417242.25127564748982, 4176071.431545766536146 ], [ 405676.364440002886113, 4176181.52458850806579 ], [ 405093.974544720782433, 4161601.398681594524533 ] ] ] } },
{ "type": "Feature", "properties": { "drag_region": "South", "NAME": "St. Clair" }, "geometry": { "type": "Polygon", "coordinates": [ [ [ 186963.740337488445221, 4190119.752298733685166 ], [ 186606.777049298427301, 4188891.204587626736611 ], [ 196577.313503729033982, 4178042.193314166273922 ], [ 196208.521302106586518, 4176431.874129401985556 ], [ 205602.602204728318611, 4166284.585846352856606 ], [ 205549.300010910286801, 4164663.62206958187744 ], [ 216218.995724950509612, 4164224.44482514122501 ], [ 215156.545088865997968, 4160440.28319924371317 ], [ 217169.546606203221017, 4154459.484787490684539 ], [ 234451.833709571423242, 4153840.954175419639796 ], [ 234774.533735591016011, 4175588.664241378661245 ], [ 235557.751656787149841, 4202190.527693420648575 ], [ 194028.638926030573202, 4204097.570713708177209 ], [ 193839.90614471284789, 4198662.192607212811708 ], [ 186963.740337488445221, 4190119.752298733685166 ] ] ] } },
{ "type": "Feature", "properties": { "drag_region": "CentralSouth", "NAME": "Jasper" }, "geometry": { "type": "Polygon", "coordinates": [ [ [ 443661.379236092965584, 4235659.601522053591907 ], [ 443563.109689261589665, 4229081.512839308008552 ], [ 452589.119137253437657, 4228475.145708564668894 ], [ 479691.020396908279508, 4228433.84263036865741 ], [ 479755.928933159506414, 4264473.229911406524479 ], [ 474794.125379177741706, 4264431.45725757535547 ], [ 444404.482574789377395, 4264542.084404506720603 ], [ 443661.379236092965584, 4235659.601522053591907 ] ] ] } },
{ "type": "Feature", "properties": { "drag_region": "CentralSouth", "NAME": "Cumberland" }, "geometry": { "type": "Polygon", "coordinates": [ [ [ 433433.253499337064568, 4295505.714318604208529 ], [ 433065.942229996609967, 4272909.762539041228592 ], [ 442678.164205954584759, 4272759.748657547868788 ], [ 473067.80701034294907, 4272649.121510616503656 ], [ 473012.459291885781568, 4295438.426730412989855 ], [ 433433.253499337064568, 4295505.714318604208529 ] ] ] } },
{ "type": "Feature", "properties": { "drag_region": "South", "NAME": "Bond" }, "geometry": { "type": "Polygon", "coordinates": [ [ [ 261171.80865110308514, 4259848.148827963508666 ], [ 260768.77458680831478, 4245926.878378415480256 ], [ 264197.142788024968468, 4245923.928908187896013 ], [ 263782.273896094993688, 4231335.551517395302653 ], [ 293727.993960732710548, 4230350.810652635060251 ], [ 294123.504214656888507, 4258961.857238619588315 ], [ 294823.034043008170556, 4262092.892528582364321 ], [ 265613.541100082919002, 4262869.775715147145092 ], [ 265524.033804262930062, 4259723.180708443745971 ], [ 261171.80865110308514, 4259848.148827963508666 ] ] ] } },
{ "type": "Feature", "properties": { "drag_region": "CentralSouth", "NAME": "Edgar" }, "geometry": { "type": "Polygon", "coordinates": [ [ [ 493800.743284496478736, 4365133.771890980191529 ], [ 493698.936739855445921, 4355408.394932696595788 ], [ 490933.106099902593996, 4355437.820621426217258 ], [ 491113.120447634893935, 4343611.669429678469896 ], [ 491178.285157781559974, 4320916.751326362602413 ], [ 514643.995863401796669, 4321369.345555195584893 ], [ 514635.253441784356255, 4320225.265212257392704 ], [ 528218.42232696688734, 4320133.384785267524421 ], [ 528303.867439356865361, 4334625.135855776257813 ], [ 528177.620516380877234, 4365136.973204763606191 ], [ 526326.688718874123879, 4363622.668673779815435 ], [ 521118.083584706822876, 4365087.090223256498575 ], [ 493800.743284496478736, 4365133.771890980191529 ] ] ] } },
{ "type": "Feature", "properties": { "drag_region": "North", "NAME": "Ogle" }, "geometry": { "type": "Polygon", "coordinates": [ [ [ 281115.051967624458484, 4790763.168462375178933 ], [ 280473.577477377722971, 4760896.01947111915797 ], [ 284934.861699372704607, 4760662.17796550039202 ], [ 284838.253587544313632, 4757514.309103615581989 ], [ 297346.411428354564123, 4757237.022194609977305 ], [ 297972.155903872684576, 4758269.09933712054044 ], [ 307171.840694052516483, 4756959.6528614256531 ], [ 307127.191425686585717, 4755338.064355680719018 ], [ 341980.840876877307892, 4754941.134597492404282 ], [ 342712.448615969507955, 4774106.965833203867078 ], [ 342636.596608687716071, 4783843.262334953062236 ], [ 323354.917416615237016, 4784117.324681906029582 ], [ 323508.129857509222347, 4790126.910382180474699 ], [ 305127.886680853611324, 4790333.376995459198952 ], [ 281115.051967624458484, 4790763.168462375178933 ] ] ] } },
{ "type": "Feature", "properties": { "drag_region": "CentralNorth", "NAME": "Jo Daviess" }, "geometry": { "type": "Polygon", "coordinates": [ [ [ 127250.167749704793096, 4823148.892523660324514 ], [ 127057.357404608221259, 4818664.827176627703011 ], [ 133409.609704198781401, 4815049.631825043819845 ], [ 133896.1203137775301, 4812544.331028087064624 ], [ 140533.278835977893323, 4808446.731223025359213 ], [ 144735.657922234211583, 4802542.619997725822031 ], [ 143617.390956406656187, 4796854.278702716343105 ], [ 147777.426763516326901, 4789616.968473831191659 ], [ 152425.360748956445605, 4787045.615502233617008 ], [ 185338.634982007060898, 4786222.610539676621556 ], [ 185929.361343722906895, 4820586.214981181547046 ], [ 144938.039189122559037, 4822219.458479447290301 ], [ 127250.167749704793096, 4823148.892523660324514 ] ] ] } },
{ "type": "Feature", "properties": { "drag_region": "CentralNorth", "NAME": "Fulton" }, "geometry": { "type": "Polygon", "coordinates": [ [ [ 129537.550278734212043, 4504309.604296776466072 ], [ 128856.949309353105491, 4494688.122305421158671 ], [ 150229.712678653741023, 4493313.394149578176439 ], [ 157457.236673696344951, 4498690.086066994816065 ], [ 161652.425843588251155, 4505036.87253543920815 ], [ 164710.06809452775633, 4514002.663938593119383 ], [ 169653.948538349097362, 4515839.384839252568781 ], [ 174686.83078147174092, 4520445.104675834998488 ], [ 179533.540116353949998, 4528878.824107161723077 ], [ 179634.288128591346322, 4541287.52976430952549 ], [ 169921.329942603537347, 4541706.909097975119948 ], [ 170552.396808299556142, 4551329.769279168918729 ], [ 131748.259907640021993, 4553038.258245359174907 ], [ 131366.5386115492729, 4543309.03717063460499 ], [ 129537.550278734212043, 4504309.604296776466072 ] ] ] } },
{ "type": "Feature", "properties": { "drag_region": "North", "NAME": "Bureau" }, "geometry": { "type": "Polygon", "coordinates": [ [ [ 257085.602490515942918, 4691052.127424255013466 ], [ 257440.97487171649118, 4683687.456690286286175 ], [ 256402.804333631996997, 4652210.350885573774576 ], [ 274750.98286433663452, 4651534.586453802883625 ], [ 274464.509522262203973, 4642091.915147161111236 ], [ 288923.328684199310374, 4641667.96669315174222 ], [ 289191.060398173285648, 4651110.468811055645347 ], [ 298213.393910400976893, 4650764.581697528250515 ], [ 300221.128956321452279, 4658250.737733605317771 ], [ 305993.339990027656313, 4660483.714718161150813 ], [ 314672.169290245219599, 4658925.844523906707764 ], [ 315136.295941199641675, 4689454.87424923479557 ], [ 257085.602490515942918, 4691052.127424255013466 ] ] ] } },
{ "type": "Feature", "properties": { "drag_region": "North", "NAME": "Stephenson" }, "geometry": { "type": "Polygon", "coordinates": [ [ [ 246102.112711991881952, 4846478.09408353548497 ], [ 245511.386350276035955, 4812114.48964203055948 ], [ 288797.535856978734955, 4811337.028940703719854 ], [ 289436.080987102992367, 4844447.133754515089095 ], [ 246102.112711991881952, 4846478.09408353548497 ] ] ] } },
{ "type": "Feature", "properties": { "drag_region": "CentralNorth", "NAME": "Pike" }, "geometry": { "type": "Polygon", "coordinates": [ [ [ 32696.153467157841078, 4425195.197921607643366 ], [ 31936.382525517532486, 4422268.038446141406894 ], [ 37223.215457973114098, 4416752.822378314100206 ], [ 43950.734055448774598, 4408879.705020811408758 ], [ 47860.14787648395577, 4406593.48614249099046 ], [ 50057.858432600609376, 4400660.409261120483279 ], [ 54034.210306424400187, 4399713.117162087932229 ], [ 57101.058363789736177, 4392309.628617299720645 ], [ 61813.794859046975034, 4386937.377948444336653 ], [ 67552.750931741364184, 4383626.274692701175809 ], [ 95359.641819579570438, 4381983.918079520575702 ], [ 95943.990613292713533, 4388838.506891019642353 ], [ 98699.995622138885665, 4395892.915484054945409 ], [ 99701.626380497516948, 4397763.590816617943347 ], [ 97056.729409314619261, 4408855.044570510275662 ], [ 93962.397066964171245, 4416240.784211325459182 ], [ 98351.488902301804046, 4425712.076208660379052 ], [ 101031.950299466887373, 4431145.372116003185511 ], [ 73386.836522214565775, 4432396.253346619196236 ], [ 71564.421879020737833, 4432953.780325493775308 ], [ 71138.16944702102046, 4423224.568775523453951 ], [ 32696.153467157841078, 4425195.197921607643366 ] ] ] } },
{ "type": "Feature", "properties": { "drag_region": "CentralNorth", "NAME": "Mason" }, "geometry": { "type": "Polygon", "coordinates": [ [ [ 155879.194005130178994, 4487731.771949295885861 ], [ 154521.857459964783629, 4484056.347000204958022 ], [ 149952.573617680725874, 4484700.775948547758162 ], [ 142484.216977263597073, 4481541.077178300358355 ], [ 145817.230037611589069, 4480556.29341253452003 ], [ 148014.362081266968744, 4473693.643087429925799 ], [ 155659.54528448797646, 4473128.434761252254248 ], [ 161208.573234997893451, 4473981.392178057692945 ], [ 167173.953018928557867, 4478070.43839587457478 ], [ 173016.963643020426389, 4478730.507236049510539 ], [ 175283.151990587910404, 4482378.060958572663367 ], [ 181346.491436116251862, 4480554.572209103964269 ], [ 194190.257023557176581, 4480050.761320323683321 ], [ 199791.094092876155628, 4483029.526663281954825 ], [ 204065.844079109170707, 4482710.59857955109328 ], [ 206717.027828336314997, 4479196.284128888510168 ], [ 207360.616750081680948, 4501130.781074542552233 ], [ 197597.669314330880297, 4501328.710675276815891 ], [ 197996.347431578760734, 4514299.148829873651266 ], [ 180336.312107948178891, 4514863.482475552707911 ], [ 175303.429864825535333, 4510257.762638970278203 ], [ 170359.549421004194301, 4508421.041738310828805 ], [ 167301.907170064689126, 4499455.250335156917572 ], [ 163106.718000172782922, 4493108.463866712525487 ], [ 155879.194005130178994, 4487731.771949295885861 ] ] ] } },
{ "type": "Feature", "properties": { "drag_region": "CentralSouth", "NAME": "Lawrence" }, "geometry": { "type": "Polygon", "coordinates": [ [ [ 496130.884111816587392, 4215147.691909051500261 ], [ 495510.350188994256314, 4184073.641258630901575 ], [ 518022.124864921323024, 4183691.439014848321676 ], [ 520889.76306779315928, 4191583.968132780864835 ], [ 523096.202190432639327, 4194619.923824807628989 ], [ 527474.613163881353103, 4195736.662343272939324 ], [ 531884.711858234717511, 4202956.716012776829302 ], [ 531594.58430040278472, 4206962.168922713957727 ], [ 528524.780672650551423, 4215178.02810076624155 ], [ 496130.884111816587392, 4215147.691909051500261 ] ] ] } },
{ "type": "Feature", "properties": { "drag_region": "North", "NAME": "McHenry" }, "geometry": { "type": "Polygon", "coordinates": [ [ [ 395726.792574428603984, 4836292.408843313343823 ], [ 395266.881926485686563, 4798607.492631236091256 ], [ 437080.260423425235786, 4797896.541879969649017 ], [ 437614.927663409267552, 4835860.894142695702612 ], [ 428765.138179533998482, 4835896.145001666620374 ], [ 395726.792574428603984, 4836292.408843313343823 ] ] ] } },
{ "type": "Feature", "properties": { "drag_region": "North", "NAME": "Kane" }, "geometry": { "type": "Polygon", "coordinates": [ [ [ 404236.305811623926274, 4775102.041698177345097 ], [ 404055.272529481793754, 4765372.66816627047956 ], [ 403164.393327304511331, 4765389.28675302118063 ], [ 402445.559934197925031, 4726854.666287681087852 ], [ 430519.58171255083289, 4726960.192663097754121 ], [ 431078.394075422664173, 4764921.918549322523177 ], [ 433158.460671705252025, 4764986.907104644924402 ], [ 433298.033481207210571, 4774620.745809988118708 ], [ 404236.305811623926274, 4775102.041698177345097 ] ] ] } },
{ "type": "Feature", "properties": { "drag_region": "CentralSouth", "NAME": "Douglas" }, "geometry": { "type": "Polygon", "coordinates": [ [ [ 434501.689543199434411, 4358887.089516669511795 ], [ 434553.96665347495582, 4343340.233613586053252 ], [ 469661.049927755084354, 4342940.346697483211756 ], [ 469699.402850306360051, 4346182.069954316131771 ], [ 478015.353770405345131, 4346564.926127202808857 ], [ 477835.339422673045192, 4358391.077318950556219 ], [ 480601.170062625897117, 4358361.651630220934749 ], [ 480702.976607266929932, 4368087.028588504530489 ], [ 435582.882918284449261, 4368597.67120806965977 ], [ 435423.676715532492381, 4358871.95529699139297 ], [ 434501.689543199434411, 4358887.089516669511795 ] ] ] } },
{ "type": "Feature", "properties": { "drag_region": "CentralNorth", "NAME": "Jersey" }, "geometry": { "type": "Polygon", "coordinates": [ [ [ 146729.22476264758734, 4344570.107925371266901 ], [ 141759.686594369297381, 4344362.683152711950243 ], [ 141941.244993441388942, 4340727.854597330093384 ], [ 132333.860169191670138, 4341073.557344655506313 ], [ 132124.556313390901778, 4335351.575295064598322 ], [ 116930.768041643241304, 4336017.330301244743168 ], [ 112976.909681790668401, 4338176.410038399510086 ], [ 109502.049992798114545, 4336688.98917443677783 ], [ 106751.696401553446776, 4330015.900099104270339 ], [ 108388.344740432206891, 4324219.885972288437188 ], [ 109005.463148708731751, 4316172.111238823272288 ], [ 111963.105572858752566, 4312140.515810071490705 ], [ 119158.378427156290854, 4312914.880234461277723 ], [ 123180.768214179828647, 4312190.307723368518054 ], [ 131423.975589666340966, 4307589.130411360412836 ], [ 134221.749972805322614, 4307392.517054468393326 ], [ 134838.177525302162394, 4315868.632658957503736 ], [ 145723.247537086892407, 4315579.923899472691119 ], [ 146729.22476264758734, 4344570.107925371266901 ] ] ] } },
{ "type": "Feature", "properties": { "drag_region": "CentralNorth", "NAME": "Cass" }, "geometry": { "type": "Polygon", "coordinates": [ [ [ 122152.633343839217559, 4459964.655398321337998 ], [ 122368.963435637313523, 4457663.487196415662766 ], [ 118396.72340683011862, 4450465.187797425314784 ], [ 115523.242301038306323, 4447809.721812251023948 ], [ 166169.221476949518546, 4445561.74139301571995 ], [ 166741.284620322869159, 4471703.413986323401332 ], [ 160898.273996230971534, 4471043.345146148465574 ], [ 154932.894212300307117, 4466954.298928331583738 ], [ 149383.866261790390126, 4466101.341511526145041 ], [ 141738.68305856938241, 4466666.549837703816593 ], [ 139541.551014914002735, 4473529.200162808410823 ], [ 136208.53795456601074, 4474513.983928574249148 ], [ 129817.968793530963012, 4467689.658541644923389 ], [ 129036.168289020730299, 4463325.915000008419156 ], [ 122152.633343839217559, 4459964.655398321337998 ] ] ] } },
{ "type": "Feature", "properties": { "drag_region": "South", "NAME": "Massac" }, "geometry": { "type": "Polygon", "coordinates": [ [ [ 348102.306630018516444, 3979462.913339353632182 ], [ 348247.637596164830029, 3970973.202638195361942 ], [ 358995.282538344152272, 3966565.980942280031741 ], [ 363387.057362773921341, 3962764.99175405036658 ], [ 374477.827328687882982, 3958753.539260120131075 ], [ 380140.905457374174148, 3953986.809370158240199 ], [ 386821.818442009272985, 3952640.137917047832161 ], [ 386981.765391565160826, 3962838.194783475250006 ], [ 367577.498676634044386, 3982901.603640390560031 ], [ 350084.321385052870028, 3983046.208381960634142 ], [ 348102.306630018516444, 3979462.913339353632182 ] ] ] } },
{ "type": "Feature", "properties": { "drag_region": "CentralNorth", "NAME": "Morgan" }, "geometry": { "type": "Polygon", "coordinates": [ [ [ 117366.576313673489494, 4434780.648073518648744 ], [ 114686.114916508406168, 4429347.352166175842285 ], [ 124520.009282000100939, 4428862.268582165241241 ], [ 124367.679215184907662, 4424951.863374489359558 ], [ 134210.231523452006513, 4424574.91959747672081 ], [ 133536.300184519059258, 4414858.455798119306564 ], [ 136612.415389106230577, 4414647.82949161529541 ], [ 136495.299507472285768, 4411500.561172872781754 ], [ 139576.245310314727249, 4411386.565207953564823 ], [ 139099.525950130046112, 4398416.201365330256522 ], [ 151752.49441552857752, 4397962.09521530661732 ], [ 171508.992462755122688, 4397485.45617229770869 ], [ 171642.364664167922456, 4401586.082676615566015 ], [ 166986.21762289426988, 4419401.098046829923987 ], [ 166948.42124900847557, 4436683.167029561474919 ], [ 116302.442073097248795, 4438931.147448796778917 ], [ 117366.576313673489494, 4434780.648073518648744 ] ] ] } },
{ "type": "Feature", "properties": { "drag_region": "CentralNorth", "NAME": "Mercer" }, "geometry": { "type": "Polygon", "coordinates": [ [ [ 71478.786510613790597, 4646800.746838432736695 ], [ 67676.098005770283635, 4636462.873898942023516 ], [ 73316.186244286756846, 4628071.252645679749548 ], [ 77205.553920231104712, 4627317.834381124936044 ], [ 80796.748283972716308, 4619984.167779644951224 ], [ 80662.637070732467691, 4617026.883680189028382 ], [ 94232.332794300207752, 4616328.715977429412305 ], [ 123468.141757681194576, 4614542.987299402244389 ], [ 123852.44940595443768, 4624272.670600953511894 ], [ 124923.533800871038693, 4643720.410165945999324 ], [ 71478.786510613790597, 4646800.746838432736695 ] ] ] } },
{ "type": "Feature", "properties": { "drag_region": "CentralNorth", "NAME": "Schuyler" }, "geometry": { "type": "Polygon", "coordinates": [ [ [ 83079.342894740519114, 4499713.029270538128912 ], [ 81584.075822907907423, 4479708.561120827682316 ], [ 100247.954011300753336, 4478813.206874152645469 ], [ 101545.155759056215174, 4473122.122884223237634 ], [ 107752.413918106525671, 4467326.724379495717585 ], [ 107349.345070171810221, 4464954.630285285413265 ], [ 115350.218606460955925, 4465399.027350421063602 ], [ 122233.753551642468665, 4468760.28695210814476 ], [ 123015.554056152701378, 4473124.030493744648993 ], [ 129406.123217187763657, 4479948.355880673974752 ], [ 136874.479857604892459, 4483108.054650921374559 ], [ 141443.763699888950214, 4482463.625702578574419 ], [ 142801.100245054345578, 4486139.050651669502258 ], [ 121428.336875753710046, 4487513.778807512484491 ], [ 122108.937845134816598, 4497135.260798867791891 ], [ 83079.342894740519114, 4499713.029270538128912 ] ] ] } },
{ "type": "Feature", "properties": { "drag_region": "CentralSouth", "NAME": "Wabash" }, "geometry": { "type": "Polygon", "coordinates": [ [ [ 488919.194295830151532, 4171498.928810675628483 ], [ 489727.252261312911287, 4158810.919495088979602 ], [ 486843.043799831124488, 4152644.179537077434361 ], [ 488912.38110811857041, 4140515.232175914570689 ], [ 485422.82870126812486, 4137119.866575774736702 ], [ 485732.789648021338508, 4136735.22432008292526 ], [ 488226.371065068000462, 4134897.718163194134831 ], [ 491118.212015438592061, 4141350.839943004772067 ], [ 492654.761456167441793, 4137999.016206092201173 ], [ 494889.96571707224939, 4141885.944679498672485 ], [ 497371.602912387694232, 4138716.752800649031997 ], [ 501537.95067606237717, 4148402.941742384806275 ], [ 504053.807497847825289, 4149239.303681160323322 ], [ 506915.014587905898225, 4154077.460763745941222 ], [ 507595.986865822575055, 4160840.384934408590198 ], [ 515138.536345893808175, 4164787.217544643208385 ], [ 515183.189622890611645, 4171078.644464086741209 ], [ 488919.194295830151532, 4171498.928810675628483 ] ] ] } },
{ "type": "Feature", "properties": { "drag_region": "South", "NAME": "Franklin" }, "geometry": { "type": "Polygon", "coordinates": [ [ [ 320321.037764694250654, 4119558.077041778713465 ], [ 320784.816178418928757, 4112298.456837919540703 ], [ 318391.103312230785377, 4104150.604821358807385 ], [ 315462.432548094424419, 4100307.961846449412405 ], [ 317985.608483828778844, 4100249.334484269842505 ], [ 317759.199802704679314, 4090430.392657190561295 ], [ 356599.948275516915601, 4089722.992182176560163 ], [ 356688.962712083593942, 4094584.470346007496119 ], [ 357448.228255076741334, 4118791.24496100936085 ], [ 320321.037764694250654, 4119558.077041778713465 ] ] ] } },
{ "type": "Feature", "properties": { "drag_region": "CentralSouth", "NAME": "Gallatin" }, "geometry": { "type": "Polygon", "coordinates": [ [ [ 438326.484967216732912, 4061936.758939217310399 ], [ 437822.525380391918588, 4027622.497828997671604 ], [ 454932.853763950348366, 4027389.748748579993844 ], [ 459018.597183862526435, 4024574.929162482265383 ], [ 456923.443098469695542, 4034609.89455428160727 ], [ 460469.539345336263068, 4039905.175479913596064 ], [ 465885.547055648930836, 4043178.647941540926695 ], [ 468484.722159598430153, 4049441.195475128479302 ], [ 465010.900435130286496, 4049670.84557623276487 ], [ 463784.500915127806365, 4052926.133876140695065 ], [ 467565.371677592571359, 4052025.205387368798256 ], [ 463231.827807143039536, 4059700.956739874090999 ], [ 459150.985124005994294, 4061560.98326961370185 ], [ 438326.484967216732912, 4061936.758939217310399 ] ] ] } },
{ "type": "Feature", "properties": { "drag_region": "CentralNorth", "NAME": "Greene" }, "geometry": { "type": "Polygon", "coordinates": [ [ [ 106732.049136278074002, 4372082.619976130314171 ], [ 105979.648333217046456, 4368769.326403751969337 ], [ 107202.721327848237706, 4360600.651119606569409 ], [ 106438.678379925637273, 4357001.190120300278068 ], [ 107718.758356742648175, 4350168.061908163130283 ], [ 105698.594934230815852, 4346236.46081512235105 ], [ 106428.332896177278599, 4341144.698327193967998 ], [ 109178.686487421946367, 4347817.787402526475489 ], [ 112653.546176414500223, 4349305.208266489207745 ], [ 116607.404536267073127, 4347146.128529334440827 ], [ 131801.192808014719049, 4346480.373523154295981 ], [ 132010.496663815487409, 4352202.355572745203972 ], [ 141617.881488065206213, 4351856.652825419791043 ], [ 141436.323088993114652, 4355491.481380801647902 ], [ 146405.861257271404611, 4355698.906153460964561 ], [ 146790.275718020478962, 4384425.521154400892556 ], [ 134137.307252621947555, 4384879.627304424531758 ], [ 110072.402938837389229, 4385991.617380664683878 ], [ 107316.397929991217097, 4378937.208787629380822 ], [ 106732.049136278074002, 4372082.619976130314171 ] ] ] } },
{ "type": "Feature", "properties": { "drag_region": "CentralSouth", "NAME": "Edwards" }, "geometry": { "type": "Polygon", "coordinates": [ [ [ 465303.161261238215957, 4170547.896599055733532 ], [ 464557.106528707314283, 4135853.28594781877473 ], [ 478693.117216537473723, 4136071.021667130757123 ], [ 482182.669623387919273, 4139466.38726727059111 ], [ 480113.332315100473352, 4151595.334628433454782 ], [ 482997.54077658226015, 4157762.074586445000023 ], [ 482189.482811099500395, 4170450.083902031648904 ], [ 465303.161261238215957, 4170547.896599055733532 ] ] ] } },
{ "type": "Feature", "properties": { "drag_region": "CentralNorth", "NAME": "Warren" }, "geometry": { "type": "Polygon", "coordinates": [ [ [ 97590.641947296680883, 4603907.599672662094235 ], [ 95205.888484618684743, 4555843.312183362431824 ], [ 124315.273479667608626, 4553689.42874706722796 ], [ 124696.994775758357719, 4563418.649821791797876 ], [ 126826.450910677667707, 4602121.870994634926319 ], [ 97590.641947296680883, 4603907.599672662094235 ] ] ] } },
{ "type": "Feature", "properties": { "drag_region": "CentralNorth", "NAME": "Brown" }, "geometry": { "type": "Polygon", "coordinates": [ [ [ 77766.201395721422159, 4473605.305217760615051 ], [ 76499.558956603650586, 4444798.746695496141911 ], [ 78321.973599797478528, 4444241.219716621562839 ], [ 105967.087377049800125, 4442990.338486005552113 ], [ 104902.953136473559425, 4447140.837861283682287 ], [ 107776.434242265371722, 4449796.303846457973123 ], [ 111748.674271072566626, 4456994.603245448321104 ], [ 111532.344179274470662, 4459295.771447353996336 ], [ 103531.470642985324957, 4458851.374382218346 ], [ 103934.539490920040407, 4461223.46847642865032 ], [ 97727.281331869729911, 4467018.866981156170368 ], [ 96430.079584114268073, 4472709.950971085578203 ], [ 77766.201395721422159, 4473605.305217760615051 ] ] ] } },
{ "type": "Feature", "properties": { "drag_region": "South", "NAME": "Montgomery" }, "geometry": { "type": "Polygon", "coordinates": [ [ [ 255350.351306894881418, 4340071.482237111777067 ], [ 253921.019393091875827, 4281799.514482207596302 ], [ 263560.967248853470664, 4281614.914577381685376 ], [ 263650.474544673459604, 4284761.509584085084498 ], [ 292859.967487598711159, 4283984.626397520303726 ], [ 293382.344577785872389, 4305056.516832617111504 ], [ 302989.076380258833524, 4304823.78554330766201 ], [ 303334.006284292554483, 4319412.141712526790798 ], [ 269618.025632311357185, 4320283.548380053602159 ], [ 269855.43448428629199, 4339744.868132947012782 ], [ 255350.351306894881418, 4340071.482237111777067 ] ] ] } },
{ "type": "Feature", "properties": { "drag_region": "South", "NAME": "Madison" }, "geometry": { "type": "Polygon", "coordinates": [ [ [ 198169.82620179161313, 4260433.289577005431056 ], [ 187284.756190006883116, 4260721.998336490243673 ], [ 186668.328637510043336, 4252245.882732001133263 ], [ 188833.442635952931596, 4251786.373048024252057 ], [ 200394.069836860202486, 4243553.698665811680257 ], [ 199916.384346612176159, 4238701.061408351175487 ], [ 195738.046113527932903, 4235216.834782835096121 ], [ 191485.738999529945431, 4229732.084555481560528 ], [ 193744.027284768380923, 4222779.040071097202599 ], [ 235273.140015524957562, 4220871.997050809673965 ], [ 244959.64649049701984, 4220687.368943792767823 ], [ 244923.189611789101036, 4230421.656292637810111 ], [ 245338.058503719075816, 4245010.033683430403471 ], [ 241909.690302502393024, 4245012.983153657987714 ], [ 242312.724366797163384, 4258934.253603206016123 ], [ 237025.001664195471676, 4258993.885388512164354 ], [ 198169.82620179161313, 4260433.289577005431056 ] ] ] } },
{ "type": "Feature", "properties": { "drag_region": "South", "NAME": "Union" }, "geometry": { "type": "Polygon", "coordinates": [ [ [ 271825.563211502390914, 4028680.636169704608619 ], [ 272367.783400104788598, 4025231.711226015817374 ], [ 280219.63718558329856, 4009667.247027457226068 ], [ 278795.921294867701363, 4003789.71540398336947 ], [ 274316.375692147819791, 4002857.208623526617885 ], [ 295308.54209269490093, 4002426.04340456565842 ], [ 313420.78700464440044, 4001346.545488548930734 ], [ 314381.638603950093966, 4030984.694301161449403 ], [ 304566.382669319980778, 4031585.493362292647362 ], [ 278263.68646443344187, 4032230.613116894382983 ], [ 276251.770733876503073, 4028085.943165152799338 ], [ 271838.367395735811442, 4029157.29303540289402 ], [ 271825.563211502390914, 4028680.636169704608619 ] ] ] } },
{ "type": "Feature", "properties": { "drag_region": "South", "NAME": "Pope" }, "geometry": { "type": "Polygon", "coordinates": [ [ [ 374535.450777256570291, 4024240.893174353986979 ], [ 373690.15025026735384, 3995174.980226967483759 ], [ 393094.416965198528487, 3975111.571370052173734 ], [ 392934.470015642582439, 3964913.514503624755889 ], [ 395497.58528759732144, 3965541.059236305765808 ], [ 398815.658741075370926, 3973975.054841430392116 ], [ 396680.521790700266138, 3980299.280019869096577 ], [ 391364.465928610938136, 3986579.093173172790557 ], [ 390766.119051518908236, 3988972.07282937457785 ], [ 393727.286266298440751, 3995121.872461935505271 ], [ 394445.305806206597481, 4000354.086871735285968 ], [ 400226.457221872056834, 4004364.863287365064025 ], [ 400520.061783229117282, 4023904.257182104047388 ], [ 374535.450777256570291, 4024240.893174353986979 ] ] ] } },
{ "type": "Feature", "properties": { "drag_region": "CentralSouth", "NAME": "Clark" }, "geometry": { "type": "Polygon", "coordinates": [ [ [ 512020.491184334387071, 4308823.418103443458676 ], [ 483923.282955977949314, 4308326.268573388457298 ], [ 484105.814724493189715, 4297072.589578899554908 ], [ 484161.16244295029901, 4274283.284359103068709 ], [ 506799.407258257037029, 4274636.445535385981202 ], [ 514544.467042498406954, 4273813.848060017451644 ], [ 515773.21030046150554, 4272184.283379188738763 ], [ 521708.24447510484606, 4278913.587222107686102 ], [ 519259.895046182326041, 4283505.789948235265911 ], [ 518657.254791841027327, 4285988.679392599500716 ], [ 521484.753000619704835, 4292453.314521056599915 ], [ 525510.830128455418162, 4293286.704424812458456 ], [ 525594.917647899594158, 4307587.457333515398204 ], [ 512011.748762717004865, 4307679.337760505266488 ], [ 512020.491184334387071, 4308823.418103443458676 ] ] ] } },
{ "type": "Feature", "properties": { "drag_region": "North", "NAME": "Lee" }, "geometry": { "type": "Polygon", "coordinates": [ [ [ 286997.849491824745201, 4741336.958759029395878 ], [ 285924.161871890712064, 4706234.285701595246792 ], [ 324522.354159453010652, 4705161.043850002810359 ], [ 324644.598490785923786, 4710025.528521441854537 ], [ 343778.430881054140627, 4709474.571765813976526 ], [ 344140.43678115773946, 4738763.784252906218171 ], [ 309286.787329967017286, 4739160.714011094532907 ], [ 309331.436598332948051, 4740782.302516839466989 ], [ 300131.751808153116144, 4742091.748992534354329 ], [ 299506.007332634995691, 4741059.671850023791194 ], [ 286997.849491824745201, 4741336.958759029395878 ] ] ] } },
{ "type": "Feature", "properties": { "drag_region": "CentralSouth", "NAME": "Shelby" }, "geometry": { "type": "Polygon", "coordinates": [ [ [ 360497.726547030499205, 4297909.346064663492143 ], [ 360152.796642996720038, 4283320.989895444363356 ], [ 388968.376921155257151, 4282502.99296263512224 ], [ 417785.840526195243001, 4281886.634570780210197 ], [ 418204.817944381269626, 4307629.098370291292667 ], [ 408322.998897688696161, 4307892.000490303151309 ], [ 403837.651148751843721, 4316079.314981923438609 ], [ 397049.843415111768991, 4316205.94421489816159 ], [ 397173.72089398256503, 4322689.609285437501967 ], [ 389468.628695101942867, 4322936.14916624315083 ], [ 389323.84383367584087, 4331047.099864766001701 ], [ 370848.543356355046853, 4331537.660631641745567 ], [ 370387.114894090453163, 4297299.895125324837863 ], [ 360497.726547030499205, 4297909.346064663492143 ] ] ] } },
{ "type": "Feature", "properties": { "drag_region": "North", "NAME": "Cook" }, "geometry": { "type": "Polygon", "coordinates": [ [ [ 456530.219198003876954, 4771372.514025031588972 ], [ 456390.646388501918409, 4761738.675319688394666 ], [ 454310.579792219330557, 4761673.68676436599344 ], [ 454179.667536860099062, 4752803.039960279129446 ], [ 482434.840707421652041, 4753301.193760464899242 ], [ 482276.913351385272108, 4738612.587573469616473 ], [ 482701.227319290512241, 4722487.284570870921016 ], [ 478185.041682342067361, 4719198.070406263694167 ], [ 473105.729984739620704, 4719161.58578181732446 ], [ 473345.409835677070078, 4714198.438061454333365 ], [ 482914.073287244187668, 4714377.115942076779902 ], [ 482812.366916686529294, 4704744.220094256103039 ], [ 492691.477406253805384, 4704837.544185432605445 ], [ 492901.110889717470855, 4695011.339017819613218 ], [ 514780.112579928943887, 4694844.928792076185346 ], [ 515240.032979148905724, 4721261.721005003899336 ], [ 514670.439762732421514, 4725748.065013155341148 ], [ 512295.434071236639284, 4727670.723485334776342 ], [ 508181.492001858074218, 4736569.237971399910748 ], [ 507041.589435856265482, 4743731.222805632278323 ], [ 503275.557750732288696, 4757018.330124637112021 ], [ 502425.220492603199091, 4762175.999114477075636 ], [ 495968.834715760138351, 4770720.173913618549705 ], [ 456530.219198003876954, 4771372.514025031588972 ] ] ] } },
{ "type": "Feature", "properties": { "drag_region": "North", "NAME": "Kankakee" }, "geometry": { "type": "Polygon", "coordinates": [ [ [ 450611.735650584101677, 4621750.772685225121677 ], [ 450721.982958935608622, 4608394.951297256164253 ], [ 460387.753429619537201, 4608644.659625167027116 ], [ 511414.166578918346204, 4609590.059864256531 ], [ 511607.561993505689315, 4641537.967592829838395 ], [ 470731.281624773691874, 4641233.395211024209857 ], [ 470919.675779003708158, 4631597.529139613732696 ], [ 451352.198478917358443, 4631374.450363554060459 ], [ 451515.79114292061422, 4621737.83566780667752 ], [ 450611.735650584101677, 4621750.772685225121677 ] ] ] } },
{ "type": "Feature", "properties": { "drag_region": "South", "NAME": "Pulaski" }, "geometry": { "type": "Polygon", "coordinates": [ [ [ 300729.449059209204279, 3985308.516167137771845 ], [ 304510.010888383956626, 3983693.297293942421675 ], [ 304743.625097358599305, 3980063.633022740948945 ], [ 301514.09504891152028, 3978136.637740672565997 ], [ 298727.986669775447808, 3968188.495253097265959 ], [ 299167.654964177403599, 3959880.350614419206977 ], [ 307046.337854664889164, 3955500.187899109907448 ], [ 312596.618695351062343, 3961001.700969670899212 ], [ 315602.6321967424592, 3967134.030133991036564 ], [ 319831.344070906226989, 3971047.578790223225951 ], [ 324014.17999450257048, 3972961.460180765483528 ], [ 328470.551579698221758, 3972773.87709384271875 ], [ 329103.578614648140501, 3972570.256629467010498 ], [ 328958.247648501885124, 3981059.967330625280738 ], [ 322615.638295584009029, 3982145.543028658255935 ], [ 318757.094549017958343, 3980320.916169678326696 ], [ 318841.693971158703789, 3984229.018251121044159 ], [ 300729.449059209204279, 3985308.516167137771845 ] ] ] } },
{ "type": "Feature", "properties": { "drag_region": "CentralSouth", "NAME": "Clay" }, "geometry": { "type": "Polygon", "coordinates": [ [ [ 405508.184376375633292, 4215865.457595366984606 ], [ 404744.304305347730406, 4191465.39613349083811 ], [ 416310.191140992334113, 4191355.303090749308467 ], [ 443489.191008680267259, 4190080.261960204690695 ], [ 439481.129198880284093, 4194045.229022505693138 ], [ 441711.706513797631487, 4197160.472733052447438 ], [ 440881.736680741072632, 4204800.028524519875646 ], [ 443065.676575758727267, 4204769.692748853936791 ], [ 443242.900844901218079, 4217639.558337137103081 ], [ 434216.891396909370087, 4218245.925467880442739 ], [ 434315.160943740746006, 4224824.014150626026094 ], [ 405690.387747972621582, 4225685.229405836202204 ], [ 405508.184376375633292, 4215865.457595366984606 ] ] ] } },
{ "type": "Feature", "properties": { "drag_region": "CentralSouth", "NAME": "Vermilion" }, "geometry": { "type": "Polygon", "coordinates": [ [ [ 497415.226347569492646, 4446092.736084057018161 ], [ 497516.745670132921077, 4426732.574073079042137 ], [ 496295.232915094180498, 4426745.464842864312232 ], [ 496502.923335570900235, 4388408.170297907665372 ], [ 523820.263635781244375, 4388361.488630183972418 ], [ 529028.868769948603585, 4386897.067080707289279 ], [ 530879.800567455240525, 4388411.371611691080034 ], [ 531894.318929161061533, 4455916.228579021990299 ], [ 497211.714451855164953, 4455631.614229421131313 ], [ 497415.226347569492646, 4446092.736084057018161 ] ] ] } },
{ "type": "Feature", "properties": { "drag_region": "CentralNorth", "NAME": "Menard" }, "geometry": { "type": "Polygon", "coordinates": [ [ [ 176058.598028502630768, 4472319.276541147381067 ], [ 175592.053808013093658, 4449324.770580851472914 ], [ 194622.202608623658307, 4448805.764066978357732 ], [ 194669.573141457221936, 4450331.614191714674234 ], [ 200502.002586413756944, 4450248.204221029765904 ], [ 201005.065155721269548, 4456723.744872545823455 ], [ 211430.462067775428295, 4456510.643333440646529 ], [ 211497.090522014419548, 4469393.738818517886102 ], [ 209758.662213818519376, 4472785.053433986380696 ], [ 207107.478464591375086, 4476299.367884648963809 ], [ 202832.728478358360007, 4476618.295968379825354 ], [ 197231.89140903938096, 4473639.53062542155385 ], [ 184388.125821598456241, 4474143.341514201834798 ], [ 178324.786376070114784, 4475966.830263670533895 ], [ 176058.598028502630768, 4472319.276541147381067 ] ] ] } },
{ "type": "Feature", "properties": { "drag_region": "South", "NAME": "Monroe" }, "geometry": { "type": "Polygon", "coordinates": [ [ [ 167214.411543058347888, 4165668.488278416451067 ], [ 164514.042186235252302, 4160515.105619673151523 ], [ 163928.480097272142302, 4153088.6482147811912 ], [ 165256.644050786038861, 4146356.478530196938664 ], [ 170745.260505887446925, 4141385.504196899477392 ], [ 174037.695502520480659, 4136495.626949827652425 ], [ 177662.406623453949578, 4131977.85542897740379 ], [ 192947.633481738041155, 4136713.487488507758826 ], [ 193266.472480413562153, 4146439.106284450273961 ], [ 205199.911288978066295, 4145769.991099373903126 ], [ 203186.909771640843246, 4151750.789511126931757 ], [ 204249.360407725325786, 4155534.951137024443597 ], [ 193579.664693685132079, 4155974.128381465096027 ], [ 193632.966887503163889, 4157595.092158236075193 ], [ 184238.885984881431796, 4167742.380441285204142 ], [ 184607.67818650387926, 4169352.699626049492508 ], [ 174637.141732073272578, 4180201.710899509955198 ], [ 171444.460540404135827, 4169812.817240684758872 ], [ 167214.411543058347888, 4165668.488278416451067 ] ] ] } },
{ "type": "Feature", "properties": { "drag_region": "CentralNorth", "NAME": "Rock Island" }, "geometry": { "type": "Polygon", "coordinates": [ [ [ 75404.1127860557026, 4656172.089308590628207 ], [ 128848.860076312950696, 4653091.752636103890836 ], [ 129720.269114382957923, 4667484.042454954236746 ], [ 134314.767854802543297, 4669787.132743491791189 ], [ 138062.530063993996009, 4673558.526966118253767 ], [ 145897.852659657364711, 4674502.103791314177215 ], [ 149865.65731702913763, 4676360.21339316572994 ], [ 150633.649516656587366, 4680916.844753400422633 ], [ 152481.603620636160485, 4682281.588305660523474 ], [ 152969.764009230595548, 4687421.745720880106091 ], [ 147126.598624430480413, 4691268.627072717063129 ], [ 146676.434024785354268, 4703131.154392265714705 ], [ 140478.13372256240109, 4697349.128946058452129 ], [ 140644.454291449219454, 4693903.433637211099267 ], [ 137737.304392874590121, 4688379.196326000615954 ], [ 137792.142252812627703, 4682071.629689726047218 ], [ 132925.710418317117728, 4680255.48478598613292 ], [ 127320.007984503215994, 4675032.342036494985223 ], [ 119536.076629378410871, 4675444.388203746639192 ], [ 116489.15176853966841, 4674328.286777775734663 ], [ 111470.043664875542163, 4669187.172940781340003 ], [ 104204.472280605739797, 4667872.940859370864928 ], [ 94933.589674521514098, 4668853.158216982148588 ], [ 87863.255246227534371, 4665347.545206094160676 ], [ 84028.748734844426508, 4666956.855578587390482 ], [ 78235.631263703093282, 4665217.871898199431598 ], [ 75404.1127860557026, 4656172.089308590628207 ] ] ] } },
{ "type": "Feature", "properties": { "drag_region": "South", "NAME": "Williamson" }, "geometry": { "type": "Polygon", "coordinates": [ [ [ 318569.959817795315757, 4075975.590397222898901 ], [ 317585.289100306516048, 4046908.091222481336445 ], [ 327400.545034936629236, 4046307.292161350138485 ], [ 356876.73968657880323, 4046004.695676665287465 ], [ 357410.708290607552044, 4075268.189922208897769 ], [ 318569.959817795315757, 4075975.590397222898901 ] ] ] } },
{ "type": "Feature", "properties": { "drag_region": "North", "NAME": "Woodford" }, "geometry": { "type": "Polygon", "coordinates": [ [ [ 297584.784639852296095, 4585529.610722992569208 ], [ 289612.134176600084174, 4571536.29732749518007 ], [ 290070.539865541446488, 4566463.787866352126002 ], [ 309165.504237563814968, 4566027.703789846040308 ], [ 308773.618848610378336, 4551245.279973176307976 ], [ 313634.49250751035288, 4551213.61315656453371 ], [ 313874.227976471011061, 4548726.190465901978314 ], [ 325119.730312835483346, 4548731.177132750861347 ], [ 327928.51942425686866, 4551812.483117682859302 ], [ 332792.784936111827847, 4551984.045382193289697 ], [ 332885.959888298937585, 4555989.468388199806213 ], [ 338048.469089238962624, 4556061.959128459915519 ], [ 337963.101356880564708, 4565700.945072699338198 ], [ 342815.622521555458661, 4565783.418114849366248 ], [ 343242.352700057730544, 4585143.339727071113884 ], [ 333262.417944063374307, 4585084.203348827548325 ], [ 325409.016274506051559, 4585463.302935830317438 ], [ 297584.784639852296095, 4585529.610722992569208 ] ] ] } },
{ "type": "Feature", "properties": { "drag_region": "CentralNorth", "NAME": "Adams" }, "geometry": { "type": "Polygon", "coordinates": [ [ [ 17223.25195936349337, 4486830.690445934422314 ], [ 16179.937338048504898, 4484396.96429406106472 ], [ 17217.512316052190727, 4468562.880131441168487 ], [ 21615.450400091329357, 4458204.576635165140033 ], [ 23050.028313672082732, 4456125.007862822152674 ], [ 20281.024500401894329, 4449950.953520841896534 ], [ 21636.723731977952411, 4446249.508004569448531 ], [ 26086.826080620434368, 4442778.811471597291529 ], [ 26738.828166352090193, 4437200.8437988627702 ], [ 65180.844146215269575, 4435230.214652778580785 ], [ 66873.739017332758522, 4473765.984725013375282 ], [ 67612.94721575253061, 4483577.402255966328084 ], [ 17223.25195936349337, 4486830.690445934422314 ] ] ] } },
{ "type": "Feature", "properties": { "drag_region": "North", "NAME": "Iroquois" }, "geometry": { "type": "Polygon", "coordinates": [ [ [ 464078.69627372577088, 4587133.259882232174277 ], [ 464565.152076322236098, 4530567.872217308729887 ], [ 480076.088156268524472, 4530101.09700880292803 ], [ 514758.692633574421052, 4530385.711358403787017 ], [ 515105.109423024579883, 4588078.660121321678162 ], [ 464078.69627372577088, 4587133.259882232174277 ] ] ] } },
{ "type": "Feature", "properties": { "drag_region": "North", "NAME": "Livingston" }, "geometry": { "type": "Polygon", "coordinates": [ [ [ 397103.29851692536613, 4611423.649548646993935 ], [ 368163.605402092216536, 4611721.456647215411067 ], [ 367300.179545950784814, 4572619.600695308297873 ], [ 396397.50642516015796, 4572513.542321908287704 ], [ 397024.383747017302085, 4556762.098123505711555 ], [ 425871.263589601905551, 4556492.401023467071354 ], [ 425251.693261967564467, 4598278.924381392076612 ], [ 425141.445953616057523, 4611634.745769361034036 ], [ 397103.29851692536613, 4611423.649548646993935 ] ] ] } },
{ "type": "Feature", "properties": { "drag_region": "CentralNorth", "NAME": "Henderson" }, "geometry": { "type": "Polygon", "coordinates": [ [ [ 61243.487076496065129, 4563865.586736402474344 ], [ 60515.811585156305227, 4561318.371572465635836 ], [ 54866.858976892661303, 4557665.562776539474726 ], [ 68517.135921155975666, 4556740.927686487324536 ], [ 78558.278831923380494, 4556765.727364259772003 ], [ 88257.294293558923528, 4555958.654540420509875 ], [ 90642.047756236919668, 4604022.942029720172286 ], [ 77072.352032669179607, 4604721.109732479788363 ], [ 77084.653369259263854, 4598315.919135576114058 ], [ 74813.6083883974934, 4588286.174225883558393 ], [ 71404.879770153434947, 4586625.420774266123772 ], [ 66879.070847923867404, 4580524.591196361929178 ], [ 63731.921834770240821, 4578089.858159511350095 ], [ 61243.487076496065129, 4563865.586736402474344 ] ] ] } },
{ "type": "Feature", "properties": { "drag_region": "North", "NAME": "Boone" }, "geometry": { "type": "Polygon", "coordinates": [ [ [ 362207.115846439264715, 4837034.401883501559496 ], [ 361338.524712680431549, 4798973.386457363143563 ], [ 380915.444511470326688, 4798746.134905997663736 ], [ 381375.355159413302317, 4836431.051118074916303 ], [ 375769.07904076500563, 4836450.793369385413826 ], [ 362207.115846439264715, 4837034.401883501559496 ] ] ] } },
{ "type": "Feature", "properties": { "drag_region": "South", "NAME": "Alexander" }, "geometry": { "type": "Polygon", "coordinates": [ [ [ 270229.876597832830157, 3983932.620258881244808 ], [ 267222.644680514058564, 3978574.809280039276928 ], [ 269668.17205083265435, 3974694.269685749430209 ], [ 272501.458605374558829, 3973380.084190007299185 ], [ 272066.519493799074553, 3968908.057735471054912 ], [ 275997.062480373191647, 3960508.239148609340191 ], [ 279395.376358087814879, 3956034.839629756752402 ], [ 278949.793719591107219, 3950990.76326297968626 ], [ 284932.497622123046312, 3947409.600214099511504 ], [ 288724.334549623250496, 3945601.623714795336127 ], [ 289739.235661204496864, 3947961.813161674886942 ], [ 285052.963351161568426, 3952366.253972335252911 ], [ 289549.066454824875109, 3953402.605953765101731 ], [ 294851.283002087671775, 3947937.428649947047234 ], [ 297290.923534354777075, 3942826.922867939807475 ], [ 300835.822027561836876, 3944081.945074522867799 ], [ 296476.503288981271908, 3949139.786187967751175 ], [ 297538.931793835596181, 3953693.126771892420948 ], [ 289660.248903348110616, 3958073.289487201720476 ], [ 289220.580608946154825, 3966381.434125879779458 ], [ 292006.688988082227297, 3976329.576613455079496 ], [ 295236.219036529306322, 3978256.571895523462445 ], [ 295002.604827554663643, 3981886.236166724935174 ], [ 291222.042998379911296, 3983501.455039920285344 ], [ 270229.876597832830157, 3983932.620258881244808 ] ] ] } },
{ "type": "Feature", "properties": { "drag_region": "CentralNorth", "NAME": "Carroll" }, "geometry": { "type": "Polygon", "coordinates": [ [ [ 159208.109995147096924, 4773576.210355314426124 ], [ 168224.254995784896892, 4768645.163234758190811 ], [ 171935.027238001523074, 4764589.887050375342369 ], [ 171171.567656400846317, 4760032.843388612382114 ], [ 172183.291872898931615, 4755219.060020150616765 ], [ 173273.805591927899513, 4752504.218035850673914 ], [ 170977.714088403794449, 4746761.787843631580472 ], [ 172055.430718490446452, 4743665.250694228336215 ], [ 210753.224531424522866, 4742538.387167090550065 ], [ 211394.699021671258379, 4772405.536158346571028 ], [ 192121.384228197683115, 4772753.205392757430673 ], [ 159208.109995147096924, 4773576.210355314426124 ] ] ] } },
{ "type": "Feature", "properties": { "drag_region": "North", "NAME": "Will" }, "geometry": { "type": "Polygon", "coordinates": [ [ [ 445126.217414901999291, 4704149.756266019307077 ], [ 445601.168285258754622, 4675142.248410392552614 ], [ 445783.205528742983006, 4646045.071784848347306 ], [ 465350.68282882933272, 4646268.150560908019543 ], [ 465162.288674599316437, 4655904.016632318496704 ], [ 506038.569043331313878, 4656208.589014124125242 ], [ 506154.562565483443905, 4675282.724179954268038 ], [ 484275.560875271970872, 4675449.134405697695911 ], [ 484065.927391808305401, 4685275.339573310688138 ], [ 474186.816902241029311, 4685182.015482134185731 ], [ 474288.523272798687685, 4694814.911329954862595 ], [ 464719.859821231570095, 4694636.233449332416058 ], [ 464480.179970294120722, 4699599.381169695407152 ], [ 464537.197630862414371, 4704368.247762560844421 ], [ 445126.217414901999291, 4704149.756266019307077 ] ] ] } },
{ "type": "Feature", "properties": { "drag_region": "CentralNorth", "NAME": "Stark" }, "geometry": { "type": "Polygon", "coordinates": [ [ [ 182721.074306813505245, 4617988.776727636344731 ], [ 182054.418729665572755, 4598530.695206188596785 ], [ 211348.744193012214964, 4597491.840683137066662 ], [ 212223.981894999014912, 4626391.789890898391604 ], [ 192973.279865556338336, 4627097.293525062501431 ], [ 192658.658982607506914, 4617558.995617059059441 ], [ 182721.074306813505245, 4617988.776727636344731 ] ] ] } },
{ "type": "Feature", "properties": { "drag_region": "South", "NAME": "Randolph" }, "geometry": { "type": "Polygon", "coordinates": [ [ [ 193169.897962287213886, 4121149.42594257183373 ], [ 200000.579387384670554, 4118052.35652394592762 ], [ 203294.052957341104047, 4112787.48323384206742 ], [ 205815.436204305588035, 4112704.050313499756157 ], [ 210988.77467958300258, 4106808.575052381493151 ], [ 216056.071619853755692, 4107314.856724650599062 ], [ 216921.051356945623411, 4104710.691319136880338 ], [ 213062.427641216985648, 4102542.508720424026251 ], [ 216037.487227123929188, 4096721.690333818085492 ], [ 219177.341521688445937, 4096050.711669685319066 ], [ 224352.145359960442875, 4099899.332417120225728 ], [ 228375.134212911158102, 4097105.509712746366858 ], [ 228607.987454675487243, 4094331.161829765886068 ], [ 233311.868741122889332, 4093046.496522278059274 ], [ 239174.233217584056547, 4088010.143811900168657 ], [ 240930.803206980141113, 4094161.990198052953929 ], [ 246596.94841033560806, 4104688.68343798443675 ], [ 247483.99934005716932, 4125177.754538749344647 ], [ 247417.738872114015976, 4134053.231926874257624 ], [ 220707.402627811330603, 4134941.561612968333066 ], [ 208773.963819246826461, 4135610.676798044703901 ], [ 208455.124820571305463, 4125885.058002102188766 ], [ 193169.897962287213886, 4121149.42594257183373 ] ] ] } },
{ "type": "Feature", "properties": { "drag_region": "North", "NAME": "Lake" }, "geometry": { "type": "Polygon", "coordinates": [ [ [ 455657.626299664610997, 4836810.409365764819086 ], [ 455122.95905968057923, 4798846.05710303876549 ], [ 491299.570251649711281, 4798240.261093166656792 ], [ 488095.638838294078596, 4804470.050708618015051 ], [ 485234.726111990166828, 4814895.499327339231968 ], [ 487689.320681911427528, 4824125.205299315042794 ], [ 488391.666785284294747, 4835947.80282343737781 ], [ 455657.626299664610997, 4836810.409365764819086 ] ] ] } },
{ "type": "Feature", "properties": { "drag_region": "CentralSouth", "NAME": "Macon" }, "geometry": { "type": "Polygon", "coordinates": [ [ [ 348511.677831888315268, 4380427.52420530281961 ], [ 348225.285079690977, 4368889.221527262590826 ], [ 354645.680499977082945, 4367396.975893338210881 ], [ 354566.083466090494767, 4351179.268708474002779 ], [ 382585.855369231547229, 4350371.771925999782979 ], [ 382782.381757151568308, 4360097.584847117774189 ], [ 387393.963817595038563, 4359910.312321431934834 ], [ 388430.165378204896115, 4365708.703814369626343 ], [ 389307.590564255951904, 4394880.985994976945221 ], [ 354998.769832349615172, 4394867.416069051250815 ], [ 354956.585475051426329, 4380365.519058866426349 ], [ 348511.677831888315268, 4380427.52420530281961 ] ] ] } },
{ "type": "Feature", "properties": { "drag_region": "South", "NAME": "Washington" }, "geometry": { "type": "Polygon", "coordinates": [ [ [ 255302.535483612155076, 4168976.136349004227668 ], [ 254979.835457592562307, 4147228.426283045206219 ], [ 264407.884598527045455, 4146958.627209022175521 ], [ 303671.79334081109846, 4145190.06097589014098 ], [ 304345.466541407222394, 4174172.080317652318627 ], [ 304734.070051600690931, 4177406.264193303417414 ], [ 287226.788627272471786, 4178691.709308931138366 ], [ 279679.676039066456724, 4177551.836722276639193 ], [ 274893.87290541297989, 4174340.231656399089843 ], [ 269919.790615062520374, 4175811.791962273884565 ], [ 263316.856544068374205, 4175042.599769653286785 ], [ 255302.535483612155076, 4168976.136349004227668 ] ] ] } },
{ "type": "Feature", "properties": { "drag_region": "CentralSouth", "NAME": "Crawford" }, "geometry": { "type": "Polygon", "coordinates": [ [ [ 490574.249700712272897, 4263039.989198519848287 ], [ 490509.341164461045992, 4227000.601917481981218 ], [ 526329.375271640601568, 4226996.154778085649014 ], [ 524776.735955170937814, 4227768.051145169883966 ], [ 526987.501878399867564, 4233093.63533319812268 ], [ 528261.822396848117933, 4238329.716935813426971 ], [ 522687.92020315816626, 4242176.447738966904581 ], [ 523046.254813913663384, 4249705.72373269405216 ], [ 518113.753865524020512, 4254981.973973923362792 ], [ 517224.494004241656512, 4260899.215564774349332 ], [ 515995.750746278557926, 4262528.780245603062212 ], [ 508250.690962037246209, 4263351.377720971591771 ], [ 490574.249700712272897, 4263039.989198519848287 ] ] ] } },
{ "type": "Feature", "properties": { "drag_region": "CentralNorth", "NAME": "Calhoun" }, "geometry": { "type": "Polygon", "coordinates": [ [ [ 71324.975334776594536, 4366127.403658268973231 ], [ 83271.282365638850024, 4355582.380955773405731 ], [ 89070.163132878224133, 4345787.23799460567534 ], [ 89687.337680998170981, 4338119.089353387244046 ], [ 91867.324316098267445, 4330578.731330100446939 ], [ 88931.869935051741777, 4327259.192159942351282 ], [ 92021.62384829777875, 4319013.516683581285179 ], [ 92731.918285930441925, 4313444.341676944866776 ], [ 95654.234024410223356, 4308551.211239890195429 ], [ 99293.63701469587977, 4305923.740220359526575 ], [ 102746.1506071187614, 4306457.332684386521578 ], [ 106289.772786232613726, 4309376.579294698312879 ], [ 109332.043275591597194, 4315563.46422098018229 ], [ 111234.832008116849465, 4316446.105531509034336 ], [ 104039.559153819311177, 4315671.741107119247317 ], [ 101081.916729669290362, 4319703.3365358710289 ], [ 100464.798321392765502, 4327751.1112693361938 ], [ 98828.149982514005387, 4333547.125396152026951 ], [ 98098.41202056754264, 4338638.887884080410004 ], [ 100118.575443079374963, 4342570.488977121189237 ], [ 98838.495466262364062, 4349403.617189258337021 ], [ 99602.538414184964495, 4353003.078188564628363 ], [ 98379.465419553773245, 4361171.753472710028291 ], [ 99131.86622261480079, 4364485.047045088373125 ], [ 71324.975334776594536, 4366127.403658268973231 ] ] ] } },
{ "type": "Feature", "properties": { "drag_region": "North", "NAME": "McLean" }, "geometry": { "type": "Polygon", "coordinates": [ [ [ 326814.266461134131532, 4531143.957453824579716 ], [ 326227.760120390972588, 4496422.764815699309111 ], [ 335995.130675908119883, 4496274.83510750811547 ], [ 384816.403790857002605, 4495153.120720004662871 ], [ 394582.399081516545266, 4495081.21539593860507 ], [ 395197.464023516222369, 4532271.466128999367356 ], [ 385479.865207285096403, 4532343.682530969381332 ], [ 384852.987885427952278, 4548095.126729371957481 ], [ 355755.661006218579132, 4548201.185102771967649 ], [ 350903.139841543685179, 4548118.7120606219396 ], [ 350988.507573902083095, 4538479.726116382516921 ], [ 345825.998372962058056, 4538407.235376122407615 ], [ 345732.823420774948318, 4534401.812370115891099 ], [ 340868.557908919989131, 4534230.250105605460703 ], [ 338059.768797498603817, 4531148.944120673462749 ], [ 326814.266461134131532, 4531143.957453824579716 ] ] ] } },
{ "type": "Feature", "properties": { "drag_region": "CentralSouth", "NAME": "Champaign" }, "geometry": { "type": "Polygon", "coordinates": [ [ [ 437433.54637048515724, 4430813.771951017901301 ], [ 437021.344301879405975, 4424334.558451384305954 ], [ 436392.599559163907543, 4386097.809486468322575 ], [ 481512.693248146388214, 4385587.166866903193295 ], [ 481305.002827669668477, 4423924.461411859840155 ], [ 482526.515582708409056, 4423911.57064207457006 ], [ 482424.996260144980624, 4443271.732653052546084 ], [ 437647.547598939272575, 4443782.450278962962329 ], [ 437433.54637048515724, 4430813.771951017901301 ] ] ] } },
{ "type": "Feature", "properties": { "drag_region": "South", "NAME": "Clinton" }, "geometry": { "type": "Polygon", "coordinates": [ [ [ 255022.225108564394759, 4206356.77254250459373 ], [ 254239.007187368260929, 4179754.909090461675078 ], [ 262253.328247824450955, 4185821.372511110734195 ], [ 268856.262318818597123, 4186590.564703731331974 ], [ 273830.344609169056639, 4185119.004397856537253 ], [ 278616.147742822533473, 4188330.609463734086603 ], [ 286163.260331028548535, 4189470.482050388585776 ], [ 303670.54175535676768, 4188185.036934760864824 ], [ 304587.982902520918287, 4214110.063211305066943 ], [ 294617.994769466225989, 4214921.690919572487473 ], [ 264672.27470482850913, 4215906.431784332729876 ], [ 264708.731583536427934, 4206172.144435487687588 ], [ 255022.225108564394759, 4206356.77254250459373 ] ] ] } },
{ "type": "Feature", "properties": { "drag_region": "CentralNorth", "NAME": "Hancock" }, "geometry": { "type": "Polygon", "coordinates": [ [ [ 20736.772863840684295, 4507744.183678121306002 ], [ 19383.997323316754773, 4499204.751918079331517 ], [ 69773.692579705792014, 4495951.463728111237288 ], [ 70529.751453118631616, 4506144.514346868731081 ], [ 72579.934279643523041, 4545527.135009190998971 ], [ 62538.791368876118213, 4545502.335331418551505 ], [ 43427.658145079854876, 4546784.81670717895031 ], [ 33811.214449736522511, 4543144.091403345577419 ], [ 29531.692208850232419, 4536758.511284813284874 ], [ 32710.88009008631343, 4533252.720983629114926 ], [ 31066.942484392900951, 4524727.267897063866258 ], [ 31439.507396258879453, 4519927.08571298699826 ], [ 27705.904552082531154, 4518582.899031558074057 ], [ 25180.762050143792294, 4516988.157720540650189 ], [ 20736.772863840684295, 4507744.183678121306002 ] ] ] } },
{ "type": "Feature", "properties": { "drag_region": "CentralNorth", "NAME": "Whiteside" }, "geometry": { "type": "Polygon", "coordinates": [ [ [ 163245.933553004462738, 4714378.432337773032486 ], [ 163696.098152649588883, 4702515.90501822438091 ], [ 169539.263537449704017, 4698669.023666387423873 ], [ 169051.103148855268955, 4693528.866251167841256 ], [ 167203.149044875695836, 4692164.122698907740414 ], [ 194134.145782723353477, 4691219.465801320970058 ], [ 213586.646945844753645, 4690695.454477893188596 ], [ 214756.942677607177757, 4728945.996397212147713 ], [ 210295.658455612196121, 4729179.837902830913663 ], [ 171597.864642678119708, 4730306.701429968699813 ], [ 168572.011080614407547, 4721057.06030133087188 ], [ 168725.149308065650985, 4717134.857008096762002 ], [ 163245.933553004462738, 4714378.432337773032486 ] ] ] } },
{ "type": "Feature", "properties": { "drag_region": "CentralSouth", "NAME": "White" }, "geometry": { "type": "Polygon", "coordinates": [ [ [ 441292.485704709251877, 4118805.06361744273454 ], [ 440408.672733281739056, 4080299.466153498739004 ], [ 461233.172890071000438, 4079923.690483895130455 ], [ 465314.01557320804568, 4078063.663954155519605 ], [ 472261.52791815873934, 4078366.693008875474334 ], [ 467559.214895114942919, 4081183.593865307047963 ], [ 472360.85867138375761, 4087517.13288383372128 ], [ 472738.0533365123556, 4093232.800442174077034 ], [ 470245.532778171822429, 4095738.797554422169924 ], [ 476247.949396620329935, 4097485.310624956153333 ], [ 476915.14347087306669, 4101100.895503796637058 ], [ 473119.001071314676665, 4099329.803134278394282 ], [ 480113.593121468322352, 4106216.169502981938422 ], [ 475770.608157062495593, 4111980.52839979249984 ], [ 474865.297874760755803, 4115517.400628494098783 ], [ 474896.792773739492986, 4118472.374855453148484 ], [ 474586.831826986279339, 4118857.017111144959927 ], [ 460450.821139156119898, 4118639.281391832977533 ], [ 441292.485704709251877, 4118805.06361744273454 ] ] ] } },
{ "type": "Feature", "properties": { "drag_region": "CentralNorth", "NAME": "Sangamon" }, "geometry": { "type": "Polygon", "coordinates": [ [ [ 179643.097583200084046, 4439928.622284820303321 ], [ 179537.578660316299647, 4436781.455651808530092 ], [ 179575.375034202093957, 4419499.38666907697916 ], [ 184231.522075475746533, 4401684.371298862621188 ], [ 184098.149874062946765, 4397583.744794544763863 ], [ 217740.850694124877919, 4396849.534272961318493 ], [ 218106.478949855547398, 4409818.229280889034271 ], [ 222726.986614122171886, 4409689.1897287145257 ], [ 222858.770682264817879, 4414457.10863299947232 ], [ 227473.797718722955324, 4414235.451459407806396 ], [ 227711.309342515189201, 4423008.43115119356662 ], [ 230109.970830084290355, 4420653.569094399921596 ], [ 233888.684717656113207, 4423893.207334468141198 ], [ 238205.18677901790943, 4424258.012341220863163 ], [ 243262.839150263229385, 4429663.715143171139061 ], [ 245684.969491235970054, 4428172.011253906413913 ], [ 245971.36224343336653, 4439710.313931946642697 ], [ 230020.52442504663486, 4440218.785347680561244 ], [ 230064.208053742069751, 4441839.921415526419878 ], [ 223318.750632343580946, 4442120.138081908226013 ], [ 223454.197954319359269, 4446983.617663286626339 ], [ 205056.108930908259936, 4447327.596576514653862 ], [ 204553.046361600747332, 4440852.055924998596311 ], [ 198720.616916644212324, 4440935.465895683504641 ], [ 198673.246383810648695, 4439409.615770947188139 ], [ 179643.097583200084046, 4439928.622284820303321 ] ] ] } },
{ "type": "Feature", "properties": { "drag_region": "CentralSouth", "NAME": "Moultrie" }, "geometry": { "type": "Polygon", "coordinates": [ [ [ 400305.915570506884251, 4354924.973632260225713 ], [ 399269.714009897026699, 4349126.582139322534204 ], [ 394658.131949453556444, 4349313.854665008373559 ], [ 394461.605561533477157, 4339588.041743890382349 ], [ 394606.390422959579155, 4331477.091045367531478 ], [ 402311.482621840143111, 4331230.551164561882615 ], [ 402187.605142969347071, 4324746.886094022542238 ], [ 408975.412876609480008, 4324620.256861047819257 ], [ 413460.760625546274241, 4316432.942369427531958 ], [ 423342.579672238905914, 4316170.040249415673316 ], [ 423713.627414337475784, 4338862.343022430315614 ], [ 423661.350304061954375, 4354409.198925513774157 ], [ 400305.915570506884251, 4354924.973632260225713 ] ] ] } },
{ "type": "Feature", "properties": { "drag_region": "South", "NAME": "Johnson" }, "geometry": { "type": "Polygon", "coordinates": [ [ [ 330307.08122370269848, 4029272.297489867545664 ], [ 329261.630202256259508, 3995726.046595812775195 ], [ 333120.173948822310194, 3997550.673454792238772 ], [ 339462.783301740186289, 3996465.097756759263575 ], [ 341444.798056774539873, 4000048.392799366265535 ], [ 358937.975348355656024, 3999903.788057796657085 ], [ 359783.275875344872475, 4028969.701005183160305 ], [ 330307.08122370269848, 4029272.297489867545664 ] ] ] } },
{ "type": "Feature", "properties": { "drag_region": "CentralNorth", "NAME": "Peoria" }, "geometry": { "type": "Polygon", "coordinates": [ [ [ 180575.559723874845076, 4559734.966108784079552 ], [ 179944.492858178797178, 4550112.105927590280771 ], [ 189657.451044166635256, 4549692.726593924686313 ], [ 189556.703031929209828, 4537284.0209367768839 ], [ 194523.356250442913733, 4540274.426636078394949 ], [ 207681.814349230262451, 4542729.512087943963706 ], [ 207797.079395476263016, 4546544.425423777662218 ], [ 212216.169362560205627, 4552044.115793304517865 ], [ 211648.929828382737469, 4553397.384232961572707 ], [ 216620.623570633411873, 4557260.090788728557527 ], [ 217076.607406828959938, 4562496.800469383597374 ], [ 216618.201717887597624, 4567569.309930526651442 ], [ 224590.852181139809545, 4581562.62332602404058 ], [ 226869.661187259713188, 4587320.979845424182713 ], [ 210862.199851349636447, 4587787.044155857525766 ], [ 181567.874388002965134, 4588825.898678909055889 ], [ 180575.559723874845076, 4559734.966108784079552 ] ] ] } },
{ "type": "Feature", "properties": { "drag_region": "South", "NAME": "Jackson" }, "geometry": { "type": "Polygon", "coordinates": [ [ [ 262386.416254114126787, 4091550.06643672240898 ], [ 256720.27105075865984, 4081023.373196790926158 ], [ 254963.701061362575274, 4074871.526810638140887 ], [ 255435.352638694748748, 4069228.586979830171913 ], [ 259855.17244889435824, 4068817.528142554685473 ], [ 262591.133149330562446, 4064734.342966216616333 ], [ 268541.867972851439845, 4062282.586979662999511 ], [ 268973.336419100756757, 4054734.356717994902283 ], [ 271739.047185298462864, 4051417.340478193946183 ], [ 267544.669417529483326, 4048762.443355735391378 ], [ 271958.072755670174956, 4047691.093485485296696 ], [ 273969.988486227113754, 4051835.763437226880342 ], [ 300272.684691113652661, 4051190.64368262514472 ], [ 301257.355408602452371, 4080258.142857366707176 ], [ 301483.764089726551902, 4090077.084684445988387 ], [ 262386.416254114126787, 4091550.06643672240898 ] ] ] } },
{ "type": "Feature", "properties": { "drag_region": "CentralSouth", "NAME": "Coles" }, "geometry": { "type": "Polygon", "coordinates": [ [ [ 434282.725209308438934, 4333283.893330538645387 ], [ 433781.105489615758415, 4302582.721033319830894 ], [ 473360.311282164475415, 4302515.43344512861222 ], [ 473177.779513649235014, 4313769.11243961751461 ], [ 477809.277036385494284, 4313813.667740839533508 ], [ 477744.112326238828246, 4336508.585844155400991 ], [ 469428.161406139843166, 4336125.729671268723905 ], [ 469389.808483588567469, 4332884.00641443580389 ], [ 434282.725209308438934, 4333283.893330538645387 ] ] ] } },
{ "type": "Feature", "properties": { "drag_region": "South", "NAME": "Perry" }, "geometry": { "type": "Polygon", "coordinates": [ [ [ 264788.705597893567756, 4136854.038529793266207 ], [ 264854.9660658367211, 4127978.56114166835323 ], [ 263967.915136115159839, 4107489.490040903445333 ], [ 300542.087035993230529, 4106075.13565080659464 ], [ 303470.757800129591487, 4109917.778625715989619 ], [ 305864.470666317734867, 4118065.630642276722938 ], [ 305400.692252593056764, 4125325.250846135895699 ], [ 303512.807824953109957, 4125368.776019600685686 ], [ 304052.614340177620761, 4135085.472296661231667 ], [ 264788.705597893567756, 4136854.038529793266207 ] ] ] } },
{ "type": "Feature", "properties": { "drag_region": "North", "NAME": "DuPage" }, "geometry": { "type": "Polygon", "coordinates": [ [ [ 443053.89838339574635, 4752393.597328572534025 ], [ 442625.998275883146562, 4723302.518246434628963 ], [ 462036.978491843561642, 4723521.009742976166308 ], [ 461979.960831275267992, 4718752.143150110729039 ], [ 467059.272528877714649, 4718788.627774557098746 ], [ 471575.458165826159529, 4722077.841939164325595 ], [ 471151.144197920919396, 4738203.144941763021052 ], [ 471309.071553957299329, 4752891.751128758303821 ], [ 443053.89838339574635, 4752393.597328572534025 ] ] ] } }
]
}
