{
"type": "FeatureCollection",
"name": "map",
"crs": { "type": "name", "properties": { "name": "urn:ogc:def:crs:EPSG::32619" } },
"features": [
{ "type": "Feature", "properties": { "drag_region": "Central", "NAME": "Newport", "NAMELSAD": "Newport" }, "geometry": { "type": "MultiPolygon", "coordinates": [ [ [ [ 356998.91710662166588, 4598037.3797307908535 ], [ 362334.61489529220853, 4596185.401076726615429 ], [ 362788.243712803348899, 4578136.215230079367757 ], [ 356684.816776841063984, 4573898.207117853686213 ], [ 355135.261759410030209, 4583672.871231303550303 ], [ 355890.114531164988875, 4589761.984927331097424 ], [ 352953.331633071880788, 4591937.549487050622702 ], [ 353158.795342324185185, 4576756.315869694575667 ], [ 348069.309106346103363, 4577080.595966044813395 ], [ 347381.03967368719168, 4573758.199062943458557 ], [ 344364.865197636536323, 4573170.991110969334841 ], [ 344207.168981338851154, 4578425.091123883612454 ], [ 349240.913065943401307, 4587358.017624293453991 ], [ 351804.582597044180147, 4593781.036813599988818 ], [ 356998.91710662166588, 4598037.3797307908535 ] ] ], [ [ [ 342911.269130026572384, 4596787.624566645361483 ], [ 344423.755032270913944, 4597414.456444263458252 ], [ 347578.114758710726164, 4592365.713951275683939 ], [ 346064.921864496660419, 4591738.195448195561767 ], [ 342911.269130026572384, 4596787.624566645361483 ] ] ], [ [ [ 339304.627144113881513, 4574645.975016757845879 ], [ 341237.198420238681138, 4579460.759324272163212 ], [ 340099.633516809088178, 4581687.646725725382566 ], [ 341746.668575853924267, 4587083.138382382690907 ], [ 342891.549867811845616, 4585142.629843735136092 ], [ 342669.979979435447603, 4577035.129032104276121 ], [ 339304.627144113881513, 4574645.975016757845879 ] ] ] ] } },
{ "type": "Feature", "properties": { "drag_region": "North", "NAME": "Kent", "NAMELSAD": "Kent" }, "geometry": { "type": "Polygon", "coordinates": [ [ [ 261219.420210144715384, 4650432.977511239238083 ], [ 288410.94598460290581, 4650367.115362983196974 ], [ 290283.316718642076012, 4653177.671893844380975 ], [ 294756.833951584994793, 4652956.670522266067564 ], [ 296426.708446936565451, 4648519.481829203665257 ], [ 295692.872005645534955, 4643575.902365610934794 ], [ 289165.302004635566846, 4645381.488303384743631 ], [ 292646.174799675354734, 4641560.34255195595324 ], [ 287502.136170347919688, 4639510.27617834508419 ], [ 286204.552048319077585, 4636015.393840997479856 ], [ 260756.256604198017158, 4636124.767081334255636 ], [ 261219.420210144715384, 4650432.977511239238083 ] ] ] } },
{ "type": "Feature", "properties": { "drag_region": "North", "NAME": "Providence", "NAMELSAD": "Providence" }, "geometry": { "type": "Polygon", "coordinates": [ [ [ 262840.735204691940453, 4700680.86854599788785 ], [ 287840.653855399694294, 4700957.32146562077105 ], [ 297356.503930229460821, 4700876.856813663616776 ], [ 296966.478160521714017, 4686854.738366985693574 ], [ 300555.485010949138086, 4687328.688962817192078 ], [ 299748.682460588519461, 4679618.612458758056164 ], [ 301976.358307272545062, 4673735.302285563200712 ], [ 298336.206471100565977, 4671638.860350898467004 ], [ 291776.410556958231609, 4672012.907222001813352 ], [ 289904.039822919061407, 4669202.350691140629351 ], [ 262712.514048460870981, 4669268.212839396670461 ], [ 262507.098953997483477, 4690473.924997729249299 ], [ 262840.735204691940453, 4700680.86854599788785 ] ] ] } },
{ "type": "Feature", "properties": { "drag_region": "South", "NAME": "Washington", "NAMELSAD": "Washington" }, "geometry": { "type": "MultiPolygon", "coordinates": [ [ [ [ 248747.475401648174739, 4537952.353492485359311 ], [ 251241.408901540300576, 4540639.621323409490287 ], [ 250578.274416401836788, 4547918.372410204261541 ], [ 254203.34235500896466, 4548564.134919898584485 ], [ 255746.716132195520913, 4568470.781780000776052 ], [ 281195.011576316552237, 4568361.408539664000273 ], [ 282492.595698345394339, 4571856.290877011604607 ], [ 287636.634327672829386, 4573906.357250622473657 ], [ 287736.048701103194617, 4566744.20154520496726 ], [ 284115.990339786163531, 4565795.92434691824019 ], [ 286368.246877532859799, 4560673.111262354068458 ], [ 286176.052962425921578, 4553805.561653342097998 ], [ 283056.950884757156018, 4549597.813872552476823 ], [ 280457.987482137919869, 4542703.388816221617162 ], [ 276872.261338712240104, 4543379.819391222670674 ], [ 268715.436225332145113, 4541903.809085027314723 ], [ 260506.813773411005968, 4538910.718551429919899 ], [ 248997.658786824147683, 4536416.300175361335278 ], [ 248747.475401648174739, 4537952.353492485359311 ] ] ], [ [ [ 268944.683574901253451, 4519557.404413685202599 ], [ 272483.413780914677773, 4527089.073921835981309 ], [ 273948.447496737353504, 4525709.36219272390008 ], [ 274036.693837097322103, 4518451.676239117980003 ], [ 268944.683574901253451, 4519557.404413685202599 ] ] ] ] } },
{ "type": "Feature", "properties": { "drag_region": "Central", "NAME": "Bristol", "NAMELSAD": "Bristol" }, "geometry": { "type": "Polygon", "coordinates": [ [ [ 339726.609776511846576, 4624085.044046702794731 ], [ 343366.76161268382566, 4626181.485981367528439 ], [ 348069.733273625315633, 4623383.592978595755994 ], [ 350935.701258556102403, 4618727.33203983027488 ], [ 349928.393683830101509, 4614458.273160828277469 ], [ 345641.380830617679749, 4610657.325882437638938 ], [ 343954.832331598037854, 4614711.235932610929012 ], [ 345238.934153244190384, 4618017.766474751755595 ], [ 339726.609776511846576, 4624085.044046702794731 ] ] ] } }
]
}
