{
"type": "FeatureCollection",
"name": "tmpb39sceeg",
"crs": { "type": "name", "properties": { "name": "urn:ogc:def:crs:EPSG::32615" } },
"features": [
{ "type": "Feature", "properties": { "drag_region": "North", "NAME": "Polk" }, "geometry": { "type": "Polygon", "coordinates": [ [ [ 117007.174390066313208, 5433800.587339838966727 ], [ 119606.76043770108663, 5422364.710589523427188 ], [ 121633.874497666038224, 5420150.943535070866346 ], [ 122362.117762399153435, 5408530.097679072991014 ], [ 125140.247895677704946, 5405130.145163934677839 ], [ 125656.835303378364188, 5399551.853251320309937 ], [ 128113.213424278903403, 5389758.278316646814346 ], [ 130180.902987960274913, 5388025.495778311043978 ], [ 131421.764582907082513, 5380593.431764034554362 ], [ 133133.45470737060532, 5377061.919945534318686 ], [ 134155.593823693692684, 5370503.408004688099027 ], [ 135489.759908315376379, 5370149.764201884157956 ], [ 135142.901280871941708, 5357727.28638403583318 ], [ 194335.101776509603951, 5355089.432695995084941 ], [ 232990.964252290839795, 5353786.485688512213528 ], [ 233625.699736706272233, 5373070.526014073751867 ], [ 231739.860584266658407, 5373132.990671225823462 ], [ 232436.632829561305698, 5402068.843093299306929 ], [ 222793.223995326145086, 5402590.860072979703546 ], [ 222454.546180183941033, 5392948.548919189721346 ], [ 213053.673249526473228, 5393190.58598920237273 ], [ 212699.77211437484948, 5383548.489670327864587 ], [ 173968.046049368393142, 5385003.181279178708792 ], [ 174386.550914427032694, 5394644.816555930301547 ], [ 164725.258802726049908, 5395168.219037832692266 ], [ 165596.402582244190853, 5414451.514289475046098 ], [ 164258.489921662199777, 5414512.194846392609179 ], [ 165032.090456601523329, 5431504.677055100910366 ], [ 117007.174390066313208, 5433800.587339838966727 ] ] ] } },
{ "type": "Feature", "properties": { "drag_region": "North", "NAME": "Red Lake" }, "geometry": { "type": "Polygon", "coordinates": [ [ [ 174677.285304412100231, 5410910.220245289616287 ], [ 174095.350959395233076, 5398022.910487772896886 ], [ 183756.643071096215863, 5397499.508005870506167 ], [ 183338.13820603757631, 5387857.872729118913412 ], [ 222069.864271044032648, 5386403.181120268069208 ], [ 222423.765406195656396, 5396045.27743914257735 ], [ 231824.638336853124201, 5395803.240369129925966 ], [ 232277.431642373325303, 5408691.503649462014437 ], [ 174677.285304412100231, 5410910.220245289616287 ] ] ] } },
{ "type": "Feature", "properties": { "drag_region": "Central", "NAME": "Meeker" }, "geometry": { "type": "Polygon", "coordinates": [ [ [ 342290.546735795098357, 4944854.355514359660447 ], [ 341520.959821486962028, 4896559.426978544332087 ], [ 361929.236585461476352, 4896244.955824866890907 ], [ 362107.62564253580058, 4905883.354759675450623 ], [ 381351.12687429250218, 4905555.912607706151903 ], [ 381594.979509009222966, 4939343.511666648089886 ], [ 372022.616894628910813, 4939404.971340414136648 ], [ 372106.121758274559397, 4944272.181864801794291 ], [ 342290.546735795098357, 4944854.355514359660447 ] ] ] } },
{ "type": "Feature", "properties": { "drag_region": "South", "NAME": "Isanti" }, "geometry": { "type": "Polygon", "coordinates": [ [ [ 495848.291849180764984, 5026312.207845378667116 ], [ 496002.921794201072771, 5006744.930671637877822 ], [ 495901.679475740180351, 4990806.659054189920425 ], [ 528479.212792347418144, 4990588.84472434874624 ], [ 534376.914134411606938, 4990298.402506650425494 ], [ 534100.544075898244046, 5006523.065477155148983 ], [ 524856.286014827899635, 5006627.888454580679536 ], [ 524889.796735033625737, 5025716.17839238140732 ], [ 495848.291849180764984, 5026312.207845378667116 ] ] ] } },
{ "type": "Feature", "properties": { "drag_region": "Central", "NAME": "Rock" }, "geometry": { "type": "Polygon", "coordinates": [ [ [ 134292.786877828271827, 4705573.767261399887502 ], [ 132674.329752474703128, 4666739.211651456542313 ], [ 165176.55634932834073, 4665467.744583604857326 ], [ 166602.691172355756862, 4704206.164123320020735 ], [ 134292.786877828271827, 4705573.767261399887502 ] ] ] } },
{ "type": "Feature", "properties": { "drag_region": "South", "NAME": "Carver" }, "geometry": { "type": "Polygon", "coordinates": [ [ [ 440978.777160740399268, 4902563.685685550794005 ], [ 440901.347527604200877, 4873549.984211425296962 ], [ 450566.826486970297992, 4873437.418908952735364 ], [ 450513.816388942184858, 4868570.709534912370145 ], [ 459902.090767387126107, 4868475.31245662085712 ], [ 459866.990194470970891, 4864753.737374516204 ], [ 465587.871439297276083, 4867947.012162422761321 ], [ 467887.464999439544044, 4870790.707908809185028 ], [ 471879.75709451653529, 4872190.657393326051533 ], [ 470768.399919188639615, 4875539.300652474164963 ], [ 473362.59581966442056, 4880482.124393748119473 ], [ 479624.974135911033954, 4882824.744787174277008 ], [ 479403.989354517892934, 4892560.238718941807747 ], [ 460130.303208076395094, 4892618.360877001658082 ], [ 460221.653522671025712, 4902256.747910491190851 ], [ 440978.777160740399268, 4902563.685685550794005 ] ] ] } },
{ "type": "Feature", "properties": { "drag_region": "Central", "NAME": "Kandiyohi" }, "geometry": { "type": "Polygon", "coordinates": [ [ [ 285638.137852145649958, 4955482.630044630728662 ], [ 285098.372419501072727, 4936204.687340538948774 ], [ 285393.383513226173818, 4926550.175635119900107 ], [ 284587.949505000375211, 4897539.138346803374588 ], [ 323136.266271862550639, 4896682.887735399417579 ], [ 324116.999007412930951, 4954616.885577187873423 ], [ 285638.137852145649958, 4955482.630044630728662 ] ] ] } },
{ "type": "Feature", "properties": { "drag_region": "Central", "NAME": "Cottonwood" }, "geometry": { "type": "Polygon", "coordinates": [ [ [ 259681.567721543338848, 4763881.017387209460139 ], [ 258526.445732850377681, 4725236.984952606260777 ], [ 306996.206571273563895, 4723969.68265045247972 ], [ 307648.123900071892422, 4752880.540509898215532 ], [ 288402.381520791503135, 4753343.681937796995044 ], [ 288074.926023768202867, 4762995.632436842657626 ], [ 259681.567721543338848, 4763881.017387209460139 ] ] ] } },
{ "type": "Feature", "properties": { "drag_region": "South", "NAME": "Freeborn" }, "geometry": { "type": "Polygon", "coordinates": [ [ [ 482054.235726501501631, 4725658.037575435824692 ], [ 481752.273437113151886, 4686922.109450166113675 ], [ 529921.808935113949701, 4686720.22056092787534 ], [ 529945.592998824897222, 4725456.030728857032955 ], [ 482054.235726501501631, 4725658.037575435824692 ] ] ] } },
{ "type": "Feature", "properties": { "drag_region": "South", "NAME": "Benton" }, "geometry": { "type": "Polygon", "coordinates": [ [ [ 450237.099723406892736, 5046522.371426940895617 ], [ 404511.433160861197393, 5047128.877550030127168 ], [ 410840.649364825279918, 5041774.110922751016915 ], [ 416244.24072706955485, 5029853.022888987325132 ], [ 415882.969415023224428, 5024417.079200598411262 ], [ 419984.61066632042639, 5017674.675553509965539 ], [ 450518.220753081666771, 5017311.789004131220281 ], [ 450237.099723406892736, 5046522.371426940895617 ] ] ] } },
{ "type": "Feature", "properties": { "drag_region": "Central", "NAME": "Douglas" }, "geometry": { "type": "Polygon", "coordinates": [ [ [ 235454.698918931302615, 5081228.988513295538723 ], [ 234783.928685542778112, 5061949.318967960774899 ], [ 235618.673157716053538, 5061920.375840800814331 ], [ 234952.48756879667053, 5042641.152552827261388 ], [ 282955.748651536705438, 5040979.470646643079817 ], [ 282918.65550233918475, 5060369.356617451645434 ], [ 283438.792224234086461, 5079649.337510299868882 ], [ 235454.698918931302615, 5081228.988513295538723 ] ] ] } },
{ "type": "Feature", "properties": { "drag_region": "Central", "NAME": "Murray" }, "geometry": { "type": "Polygon", "coordinates": [ [ [ 189958.207991693401709, 4767012.070881350897253 ], [ 188232.913537621265277, 4728378.055794070474803 ], [ 236700.034808948810678, 4726661.262276951223612 ], [ 237855.156797641771846, 4765305.294711554422975 ], [ 227526.344884435355198, 4765527.627906849607825 ], [ 189958.207991693401709, 4767012.070881350897253 ] ] ] } },
{ "type": "Feature", "properties": { "drag_region": "Central", "NAME": "Pipestone" }, "geometry": { "type": "Polygon", "coordinates": [ [ [ 138698.903465831011999, 4767194.431290348991752 ], [ 137082.112892206467222, 4728644.620757414959371 ], [ 168237.958354069094639, 4727319.739455725997686 ], [ 169963.252808141231071, 4765953.754543006420135 ], [ 138698.903465831011999, 4767194.431290348991752 ] ] ] } },
{ "type": "Feature", "properties": { "drag_region": "Metro", "NAME": "Carlton" }, "geometry": { "type": "Polygon", "coordinates": [ [ [ 573195.693629528163001, 5231819.140343442559242 ], [ 572913.469222845043987, 5221987.030408393591642 ], [ 573729.416767448070459, 5211008.738615752197802 ], [ 573717.158813538844697, 5193253.96141788829118 ], [ 632192.838387552066706, 5193304.019685125909746 ], [ 631948.512594440137036, 5220604.465891585685313 ], [ 631299.268278974457644, 5231863.7256113961339 ], [ 573195.693629528163001, 5231819.140343442559242 ] ] ] } },
{ "type": "Feature", "properties": { "drag_region": "Metro", "NAME": "Aitkin" }, "geometry": { "type": "Polygon", "coordinates": [ [ [ 501334.480728462629486, 5236671.325619638897479 ], [ 500825.237962273473386, 5212904.847612097859383 ], [ 498344.696765960601624, 5212357.075160824693739 ], [ 497964.517093882663175, 5175320.936630686745048 ], [ 499062.549743454321288, 5174450.647613963112235 ], [ 527288.735566449002363, 5174613.818952954374254 ], [ 527232.71174534689635, 5164305.14645785279572 ], [ 538598.508996794465929, 5164922.113630670122802 ], [ 556334.456401179428212, 5164693.392781510949135 ], [ 556366.678135952097364, 5211465.657775030471385 ], [ 555550.730591349070892, 5222443.949567671865225 ], [ 555832.954998032189906, 5232276.059502720832825 ], [ 556401.187570763402618, 5261200.776640032418072 ], [ 501583.784143328783102, 5261873.351132800802588 ], [ 501334.480728462629486, 5236671.325619638897479 ] ] ] } },
{ "type": "Feature", "properties": { "drag_region": "South", "NAME": "Rice" }, "geometry": { "type": "Polygon", "coordinates": [ [ [ 495434.559255312371533, 4835094.576705455780029 ], [ 495187.057827907847241, 4796449.40936734341085 ], [ 533907.767211284372024, 4796411.756886692717671 ], [ 533922.73034356138669, 4826945.988522075116634 ], [ 514795.657684962614439, 4826983.50530581176281 ], [ 514823.18175751430681, 4834998.987395102158189 ], [ 495434.559255312371533, 4835094.576705455780029 ] ] ] } },
{ "type": "Feature", "properties": { "drag_region": "Central", "NAME": "Watonwan" }, "geometry": { "type": "Polygon", "coordinates": [ [ [ 330442.428242542722728, 4748539.966284577734768 ], [ 329790.510913744394202, 4719629.108425131998956 ], [ 369315.928484740376007, 4718857.542044838890433 ], [ 369795.409902097948361, 4747768.140817312523723 ], [ 330442.428242542722728, 4748539.966284577734768 ] ] ] } },
{ "type": "Feature", "properties": { "drag_region": "North", "NAME": "Otter Tail" }, "geometry": { "type": "Polygon", "coordinates": [ [ [ 190986.679233144968748, 5187238.259940003976226 ], [ 189380.221672555053374, 5148582.132247926667333 ], [ 190762.666824168467429, 5148525.004037998616695 ], [ 189688.000855632359162, 5129161.204037527553737 ], [ 228239.153446842014091, 5127601.121576986275613 ], [ 276223.246752144827042, 5126021.470573990605772 ], [ 276752.674043727281969, 5145588.304883757606149 ], [ 276459.367462730791885, 5155148.298924203962088 ], [ 277251.137349186115898, 5184165.810789522714913 ], [ 276694.66243159759324, 5193924.797028788365424 ], [ 256116.174880388396559, 5194335.3112524561584 ], [ 199621.255793830379844, 5196636.336606496945024 ], [ 199228.547492519952357, 5186900.408162094652653 ], [ 190986.679233144968748, 5187238.259940003976226 ] ] ] } },
{ "type": "Feature", "properties": { "drag_region": "North", "NAME": "Pennington" }, "geometry": { "type": "Polygon", "coordinates": [ [ [ 175577.57915876165498, 5442786.879628028720617 ], [ 174803.978623822331429, 5425794.397419320419431 ], [ 176141.891284404322505, 5425733.71686240285635 ], [ 175852.681849903077818, 5419337.731368277221918 ], [ 233452.828187864273787, 5417119.014772449620068 ], [ 233338.712697486276738, 5413873.062645907513797 ], [ 242982.12153172143735, 5413351.045666227117181 ], [ 243305.071634342311881, 5422993.572310850955546 ], [ 242502.239783511613496, 5423020.535508265718818 ], [ 243071.640835688682273, 5439919.090985927730799 ], [ 213984.947974570677616, 5440878.903259211219847 ], [ 175577.57915876165498, 5442786.879628028720617 ] ] ] } },
{ "type": "Feature", "properties": { "drag_region": "North", "NAME": "Mahnomen" }, "geometry": { "type": "Polygon", "coordinates": [ [ [ 209971.727424785116455, 5336901.316462177783251 ], [ 208453.032431874162285, 5298336.023434457369149 ], [ 247357.207901704969117, 5296840.781100369989872 ], [ 248627.589900566352298, 5335598.369454694911838 ], [ 209971.727424785116455, 5336901.316462177783251 ] ] ] } },
{ "type": "Feature", "properties": { "drag_region": "North", "NAME": "Roseau" }, "geometry": { "type": "Polygon", "coordinates": [ [ [ 193726.383744670398301, 5574160.355744366534054 ], [ 192582.102217393141473, 5542738.062218075618148 ], [ 193637.915349946997594, 5542690.978408165276051 ], [ 192785.104783790942747, 5523501.430651418864727 ], [ 250769.026299664838007, 5520557.727671449072659 ], [ 270113.792947462701704, 5520123.03992573171854 ], [ 270438.525203887489624, 5539322.912200514227152 ], [ 289183.250075455405749, 5538777.612301400862634 ], [ 289554.886608480475843, 5561892.5011190706864 ], [ 286056.233603041269816, 5559123.111598811112344 ], [ 278908.775383288797457, 5557799.843500887975097 ], [ 274250.582167206972372, 5560519.332923176698387 ], [ 272777.677177488454618, 5564004.832663274370134 ], [ 273256.402740971534513, 5571062.786451081745327 ], [ 193726.383744670398301, 5574160.355744366534054 ] ] ] } },
{ "type": "Feature", "properties": { "drag_region": "Central", "NAME": "Martin" }, "geometry": { "type": "Polygon", "coordinates": [ [ [ 334672.755555910465773, 4698923.216024749912322 ], [ 333811.699496494140476, 4660377.253463055938482 ], [ 382849.868621802132111, 4659368.701678393408656 ], [ 383430.327445565664675, 4698009.544282332994044 ], [ 334672.755555910465773, 4698923.216024749912322 ] ] ] } },
{ "type": "Feature", "properties": { "drag_region": "North", "NAME": "Beltrami" }, "geometry": { "type": "Polygon", "coordinates": [ [ [ 275441.444215504743624, 5476951.665497052483261 ], [ 274788.510822375188582, 5457760.850305462256074 ], [ 275585.955540171009488, 5457733.811038576997817 ], [ 274290.768144181813113, 5419353.524616299197078 ], [ 301317.051970052998513, 5418412.070253939367831 ], [ 297589.853161047270987, 5410112.208376894704998 ], [ 299536.519714249821845, 5403270.808682916685939 ], [ 303528.913648259767797, 5402009.370743678882718 ], [ 302900.633049186202697, 5379860.230989411473274 ], [ 302895.352256771817338, 5350910.832854367792606 ], [ 341607.138687650673091, 5349665.650206591933966 ], [ 360833.73104766337201, 5349380.032733725383878 ], [ 361446.721816824865527, 5397693.828313764184713 ], [ 361717.515099520212971, 5455664.74137188307941 ], [ 303762.820201579714194, 5456850.44210684299469 ], [ 304323.054095007595606, 5476232.879688010551035 ], [ 275441.444215504743624, 5476951.665497052483261 ] ] ] } },
{ "type": "Feature", "properties": { "drag_region": "Metro", "NAME": "St. Louis" }, "geometry": { "type": "Polygon", "coordinates": [ [ [ 575134.747601751703769, 5472035.164249232038856 ], [ 574262.061164969927631, 5409778.790466957725585 ], [ 574796.84999614325352, 5409778.137637802399695 ], [ 575578.816209094715305, 5390203.735466420650482 ], [ 575290.057910760631785, 5371203.962542570196092 ], [ 576905.105075540137477, 5371106.974612555466592 ], [ 576334.615435949526727, 5334922.969923598691821 ], [ 576578.952066933037713, 5303227.228764333762228 ], [ 577389.532928589149378, 5294061.932067796587944 ], [ 576821.30035585782025, 5265137.214930485002697 ], [ 634924.875005304114893, 5265181.800198438577354 ], [ 635574.119320769794285, 5253922.540478628128767 ], [ 641630.257188446703367, 5252452.414905115962029 ], [ 644608.490318816853687, 5256587.984181172214448 ], [ 642120.009713443927467, 5258376.326320277526975 ], [ 646495.761196101317182, 5259758.549831157550216 ], [ 647288.455242520431057, 5262535.804567404091358 ], [ 651115.079779443447478, 5263629.082139153033495 ], [ 656932.077109583420679, 5258925.579231438226998 ], [ 653038.679814996779896, 5263269.777810008265078 ], [ 650790.256025994778611, 5268017.054557238705456 ], [ 653227.274710519472137, 5270432.523408303968608 ], [ 669742.75552004459314, 5283447.300455787219107 ], [ 673270.125404507154599, 5285123.68617925606668 ], [ 672767.59734062384814, 5352627.010484636761248 ], [ 670823.97751080209855, 5425463.172366491518915 ], [ 666016.511611700523645, 5425867.531082921661437 ], [ 663567.072757325600833, 5429269.894920569844544 ], [ 659847.774428009986877, 5428358.096990834921598 ], [ 655265.815479862387292, 5432212.508728372864425 ], [ 655717.608996171271428, 5438425.898315792903304 ], [ 651408.732211070251651, 5442573.296324130147696 ], [ 640257.608786896336824, 5440919.100637531839311 ], [ 636258.220552661805414, 5441929.613561643287539 ], [ 632840.261764356400818, 5437600.50303730648011 ], [ 635044.404535250505432, 5429599.3874381640926 ], [ 628403.610273010795936, 5426962.687361313030124 ], [ 621919.139642860041931, 5439040.321394589729607 ], [ 620291.006064623710699, 5443708.035497372969985 ], [ 621862.806861959281377, 5446965.702209588140249 ], [ 617844.81628869229462, 5452095.091841789893806 ], [ 606968.135280063375831, 5450794.410421130247414 ], [ 602709.388948571751826, 5453737.06485496647656 ], [ 603756.863965681288391, 5457274.220047526992857 ], [ 608791.962552487617359, 5457964.698056919500232 ], [ 608504.461781055550091, 5462642.405343468300998 ], [ 601617.798326773685403, 5462231.726851432584226 ], [ 586774.015213134582154, 5469742.175125543028116 ], [ 585184.813823041855358, 5472319.18465278018266 ], [ 575134.747601751703769, 5472035.164249232038856 ] ] ] } },
{ "type": "Feature", "properties": { "drag_region": "South", "NAME": "Dodge" }, "geometry": { "type": "Polygon", "coordinates": [ [ [ 545037.765067220549099, 4782074.398628169670701 ], [ 545305.78424705134239, 4746675.461327137425542 ], [ 545015.514780755736865, 4743336.215189219452441 ], [ 574730.841604135115631, 4743481.025963946245611 ], [ 574580.506613285047933, 4781932.985154813155532 ], [ 545037.765067220549099, 4782074.398628169670701 ] ] ] } },
{ "type": "Feature", "properties": { "drag_region": "South", "NAME": "Le Sueur" }, "geometry": { "type": "Polygon", "coordinates": [ [ [ 450469.199929464724846, 4825689.871588364243507 ], [ 447779.189280103426427, 4815509.553887909278274 ], [ 450039.990810610353947, 4813097.570686036720872 ], [ 447990.394308934162837, 4809113.070620970800519 ], [ 442768.33987750497181, 4803641.051911956630647 ], [ 443603.181962510803714, 4801626.602186872623861 ], [ 463092.52467103744857, 4801415.17759267333895 ], [ 463046.984629867132753, 4796548.871309585869312 ], [ 482550.754540080029983, 4796395.385673162527382 ], [ 482798.255967484554276, 4835040.55301127396524 ], [ 452288.597090798721183, 4835212.859952555969357 ], [ 454254.584742350853048, 4832423.692683758214116 ], [ 450469.199929464724846, 4825689.871588364243507 ] ] ] } },
{ "type": "Feature", "properties": { "drag_region": "South", "NAME": "Steele" }, "geometry": { "type": "Polygon", "coordinates": [ [ [ 505797.793224324472249, 4782653.712995763868093 ], [ 505607.36669177596923, 4744010.912294583395123 ], [ 534457.565473587950692, 4743931.79208171274513 ], [ 534747.834939883556217, 4747271.038219630718231 ], [ 534479.815760052762926, 4782669.97552066296339 ], [ 505797.793224324472249, 4782653.712995763868093 ] ] ] } },
{ "type": "Feature", "properties": { "drag_region": "Central", "NAME": "Nobles" }, "geometry": { "type": "Polygon", "coordinates": [ [ [ 187967.418223114713328, 4705025.73211476765573 ], [ 186541.283400087297196, 4666287.312575052492321 ], [ 201921.572895008110208, 4665740.525677242316306 ], [ 234715.887357009312836, 4664787.806297475472093 ], [ 236146.01937822214677, 4703325.926127437502146 ], [ 187967.418223114713328, 4705025.73211476765573 ] ] ] } },
{ "type": "Feature", "properties": { "drag_region": "South", "NAME": "Sibley" }, "geometry": { "type": "Polygon", "coordinates": [ [ [ 386979.260872839775402, 4864520.379977166652679 ], [ 376459.006553850660566, 4864627.002309937030077 ], [ 376452.457265060045756, 4835702.074615103192627 ], [ 431565.760454328614287, 4834937.271126663312316 ], [ 435351.145267214742489, 4841671.092222057282925 ], [ 433385.157615662610624, 4844460.259490855038166 ], [ 434010.217413574631792, 4849415.96390772331506 ], [ 437468.338112632511184, 4853100.63762180134654 ], [ 444606.86562765162671, 4855128.962744848802686 ], [ 444641.966200567781925, 4858850.537826953455806 ], [ 435253.691822122840676, 4858945.934905244968832 ], [ 435306.701920150953811, 4863812.644279285334051 ], [ 406311.721140427165665, 4864289.236552900634706 ], [ 406161.997570364270359, 4854555.837970096617937 ], [ 386800.371217966312543, 4854786.970029692165554 ], [ 386979.260872839775402, 4864520.379977166652679 ] ] ] } },
{ "type": "Feature", "properties": { "drag_region": "South", "NAME": "Olmsted" }, "geometry": { "type": "Polygon", "coordinates": [ [ [ 589790.354730100021698, 4740931.608123734593391 ], [ 589796.823709668242373, 4739214.205362313427031 ], [ 609130.551942299469374, 4739410.535906688310206 ], [ 609120.363314418122172, 4740937.118178508244455 ], [ 638837.224987969035283, 4741106.481573255732656 ], [ 638515.312168109929189, 4769921.492274063639343 ], [ 619268.535495517309755, 4769829.510769018903375 ], [ 619188.714805594063364, 4779466.588264824822545 ], [ 590505.513492511119694, 4779386.884190043434501 ], [ 590655.848483361187391, 4740934.92499917652458 ], [ 589790.354730100021698, 4740931.608123734593391 ] ] ] } },
{ "type": "Feature", "properties": { "drag_region": "Central", "NAME": "Lyon" }, "geometry": { "type": "Polygon", "coordinates": [ [ [ 188946.397202877240488, 4838302.348653202876449 ], [ 188580.602566941874102, 4828664.336589104495943 ], [ 189717.535222038597567, 4828525.757969056256115 ], [ 188270.405779113381868, 4790070.189372865483165 ], [ 227272.679766565124737, 4788532.101956126280129 ], [ 228207.975591959868325, 4827091.78189171757549 ], [ 227948.314516534068389, 4836843.316220798529685 ], [ 188946.397202877240488, 4838302.348653202876449 ] ] ] } },
{ "type": "Feature", "properties": { "drag_region": "Central", "NAME": "Renville" }, "geometry": { "type": "Polygon", "coordinates": [ [ [ 285302.160628342186101, 4879018.362321449443698 ], [ 266595.871927714906633, 4879563.859702902846038 ], [ 266125.955377044447232, 4864199.900033878162503 ], [ 269503.749037790461443, 4863046.954834058880806 ], [ 275895.473552803392522, 4857891.925566890276968 ], [ 279007.273065009154379, 4857229.491030984558165 ], [ 281183.159801373723894, 4853634.311887418851256 ], [ 284898.140038636338431, 4854103.915781085379422 ], [ 289325.148758222581819, 4849304.260092869400978 ], [ 302768.623814375838265, 4839886.807599010877311 ], [ 304773.860299148131162, 4840219.570803097449243 ], [ 314345.687024663784541, 4834646.921410018578172 ], [ 318592.087813053862192, 4833023.76665851008147 ], [ 321092.262441416969523, 4829818.341537712141871 ], [ 333656.753881403245032, 4829556.86068254429847 ], [ 333663.303170193859842, 4858481.78837737813592 ], [ 344183.557489182974678, 4858375.166044607758522 ], [ 344258.754159178875852, 4877847.640556368045509 ], [ 323850.477395204361528, 4878162.111710045486689 ], [ 285302.160628342186101, 4879018.362321449443698 ] ] ] } },
{ "type": "Feature", "properties": { "drag_region": "Central", "NAME": "Todd" }, "geometry": { "type": "Polygon", "coordinates": [ [ [ 306254.249832668807358, 5118480.949624724686146 ], [ 306547.556413665297441, 5108920.955584278330207 ], [ 305497.99240018799901, 5070074.140381663106382 ], [ 305578.52433693734929, 5052306.764981343410909 ], [ 344090.320774007006548, 5051490.497279115021229 ], [ 344858.135353587567806, 5115356.073071151971817 ], [ 339617.118216490140185, 5115754.172373623587191 ], [ 338830.391651598736644, 5117681.258739059790969 ], [ 306254.249832668807358, 5118480.949624724686146 ] ] ] } },
{ "type": "Feature", "properties": { "drag_region": "Metro", "NAME": "Cook" }, "geometry": { "type": "Polygon", "coordinates": [ [ [ 788113.465798554942012, 5443339.393276342190802 ], [ 789194.903224777430296, 5411552.819447345100343 ], [ 789773.009226880734786, 5409943.511042889207602 ], [ 790705.929424545960501, 5362869.792380895465612 ], [ 802056.601184467086568, 5373392.164551774971187 ], [ 811826.946792531525716, 5381217.021389824338257 ], [ 825347.490619200514629, 5388985.944301439449191 ], [ 826382.272624173900113, 5390356.639217521995306 ], [ 837545.980695934500545, 5395023.263468917459249 ], [ 841562.047800641041249, 5395733.751767804846168 ], [ 854285.989460848970339, 5401348.398480565287173 ], [ 868098.140179798705503, 5406079.05502163618803 ], [ 871717.614114421186969, 5409759.756752130575478 ], [ 881514.07461408781819, 5413409.758943540044129 ], [ 888251.839434232795611, 5419240.904206843115389 ], [ 892745.396353805204853, 5420869.790750853717327 ], [ 893674.876110896235332, 5424162.404800191521645 ], [ 896437.270773914176971, 5422371.160674821585417 ], [ 903426.107760019600391, 5428041.95071480050683 ], [ 896828.909941995516419, 5425640.657477643340826 ], [ 893808.567897875327617, 5427228.984950321726501 ], [ 887677.36704328423366, 5426389.244442292489111 ], [ 884117.049757106928155, 5428150.581717331893742 ], [ 878800.896677777636796, 5427067.889938903972507 ], [ 874922.137111898278818, 5423562.225959789939225 ], [ 865620.238602489000186, 5428259.841894161887467 ], [ 862969.04188141413033, 5434467.318570146337152 ], [ 855118.999222247395664, 5436846.360195402055979 ], [ 842323.3510946999304, 5435618.901635461486876 ], [ 837289.460458493093029, 5434202.166131264530122 ], [ 830284.835872879251838, 5435687.66769933886826 ], [ 823651.483624450862408, 5434039.493676730431616 ], [ 821960.972311083460227, 5436757.527309673838317 ], [ 812695.336142483400181, 5433701.998942541889846 ], [ 808411.398114681709558, 5433862.407717040739954 ], [ 805608.005165457958356, 5438368.085373502224684 ], [ 807138.164322208613157, 5440896.576401602476835 ], [ 802555.45708846510388, 5442390.162495147436857 ], [ 802375.273146271938458, 5448787.108932525850832 ], [ 798609.975873606977984, 5449924.397949035279453 ], [ 792024.149488764116541, 5446880.5668740933761 ], [ 788113.465798554942012, 5443339.393276342190802 ] ] ] } },
{ "type": "Feature", "properties": { "drag_region": "Central", "NAME": "Lincoln" }, "geometry": { "type": "Polygon", "coordinates": [ [ [ 141705.740506000729511, 4790004.019602866843343 ], [ 171535.952753601100994, 4788816.987297762185335 ], [ 172983.082196526316693, 4827272.555893952958286 ], [ 171846.149541429593228, 4827411.134514001198113 ], [ 172211.944177364959614, 4837049.146578099578619 ], [ 144029.770112239610171, 4838276.754176109097898 ], [ 143332.697579192317789, 4828555.330117963254452 ], [ 141705.740506000729511, 4790004.019602866843343 ] ] ] } },
{ "type": "Feature", "properties": { "drag_region": "Central", "NAME": "Redwood" }, "geometry": { "type": "Polygon", "coordinates": [ [ [ 247262.943985146470368, 4826685.714969046413898 ], [ 246327.64815975172678, 4788126.035033455118537 ], [ 256656.460072958143428, 4787903.701838159933686 ], [ 285049.818375183036551, 4787018.316887793131173 ], [ 285297.252398695680313, 4796655.704102465882897 ], [ 304488.703495922498405, 4796286.220079995691776 ], [ 305034.891204457147978, 4820237.03427192568779 ], [ 295463.064478941494599, 4825809.683665004558861 ], [ 293457.827994169201702, 4825476.920460917986929 ], [ 280014.352938015945256, 4834894.372954776510596 ], [ 275587.344218429701868, 4839694.02864299248904 ], [ 271872.363981167087331, 4839224.424749325960875 ], [ 269696.477244802517816, 4842819.603892891667783 ], [ 266584.677732596755959, 4843482.038428797386587 ], [ 266082.161582280532457, 4826114.606635198928416 ], [ 247262.943985146470368, 4826685.714969046413898 ] ] ] } },
{ "type": "Feature", "properties": { "drag_region": "Metro", "NAME": "Lake" }, "geometry": { "type": "Polygon", "coordinates": [ [ [ 699872.590045060263947, 5429768.640470165759325 ], [ 701816.209874882013537, 5356932.478588311001658 ], [ 702318.737938765319996, 5289429.15428293030709 ], [ 709028.343929324881174, 5296793.16741397511214 ], [ 712011.770239189383574, 5297893.638608615845442 ], [ 718951.262579965521581, 5306419.481413058936596 ], [ 725957.836186342523433, 5310467.018970838747919 ], [ 732893.817304506432265, 5317482.400894858874381 ], [ 747454.285075778723694, 5334803.288517327979207 ], [ 751905.021024080226198, 5341499.490818639285862 ], [ 759574.505694998544641, 5348949.261369233950973 ], [ 758641.585497333202511, 5396022.980031227692962 ], [ 758063.479495229898021, 5397632.288435683585703 ], [ 756982.042069007409737, 5429418.862264680676162 ], [ 753002.223430674523115, 5428458.389438259415329 ], [ 740975.412789329770021, 5417376.5692392103374 ], [ 731921.638718692003749, 5415553.926404046826065 ], [ 726887.960373167064972, 5413157.22933829203248 ], [ 723102.011721516610123, 5415183.097491825930774 ], [ 717269.227368220104836, 5412397.322097794152796 ], [ 717937.618936552084051, 5419573.214839252643287 ], [ 711814.483770307619125, 5418220.107556260190904 ], [ 706436.219266138039529, 5420133.267505653202534 ], [ 707454.685937862377614, 5423111.144275483675301 ], [ 706012.80066001531668, 5429485.9337785448879 ], [ 699872.590045060263947, 5429768.640470165759325 ] ] ] } },
{ "type": "Feature", "properties": { "drag_region": "Central", "NAME": "Brown" }, "geometry": { "type": "Polygon", "coordinates": [ [ [ 324785.777038819855079, 4808755.313996834680438 ], [ 324239.589330285205506, 4784804.499804904684424 ], [ 305048.138233058387414, 4785173.983827374875546 ], [ 304800.704209545743652, 4775536.596612702123821 ], [ 305128.159706569043919, 4765884.646113656461239 ], [ 324373.902085849433206, 4765421.504685757681727 ], [ 363726.883745404658839, 4764649.679218492470682 ], [ 363729.494237722246908, 4782020.503252548165619 ], [ 360594.531798111449461, 4783028.126693406142294 ], [ 356701.606610790535342, 4789682.287827606312931 ], [ 351904.280423740274273, 4793396.816651354543865 ], [ 340530.280493737605866, 4796863.783795109950006 ], [ 338320.47434905054979, 4800632.167386426590383 ], [ 331532.352455573040061, 4803926.734124528244138 ], [ 329032.17782720993273, 4807132.159245326183736 ], [ 324785.777038819855079, 4808755.313996834680438 ] ] ] } },
{ "type": "Feature", "properties": { "drag_region": "North", "NAME": "Kittson" }, "geometry": { "type": "Polygon", "coordinates": [ [ [ 99560.44106315888348, 5581224.485140090808272 ], [ 98559.581263583240798, 5577450.035195277072489 ], [ 100930.359024869947461, 5567934.05436656717211 ], [ 102382.598537026060512, 5565555.888374310918152 ], [ 103841.596942469157511, 5553603.261271798983216 ], [ 107386.49081485052011, 5545751.945369679480791 ], [ 106275.166139697743347, 5539876.056122442707419 ], [ 103771.455012912192615, 5537713.737647385336459 ], [ 101503.201054776698584, 5530177.831041624769568 ], [ 158714.776481059321668, 5527443.07877971790731 ], [ 159567.587047215376515, 5546632.626536464318633 ], [ 158511.773914661520394, 5546679.71034637466073 ], [ 159656.055441938777221, 5578102.003872665576637 ], [ 121337.483403809164884, 5579956.417607685551047 ], [ 99560.44106315888348, 5581224.485140090808272 ] ] ] } },
{ "type": "Feature", "properties": { "drag_region": "Central", "NAME": "Lac qui Parle" }, "geometry": { "type": "Polygon", "coordinates": [ [ [ 153125.693749476020457, 4937633.91581753641367 ], [ 151742.161239569686586, 4905282.435428315773606 ], [ 151213.07771170468186, 4886184.446475117467344 ], [ 198612.3596674251894, 4884250.42882729228586 ], [ 199234.244422228337498, 4893878.788754412904382 ], [ 208020.413547406060388, 4893576.443255449645221 ], [ 208184.611227327404777, 4898443.355105569586158 ], [ 202856.465869953244692, 4900154.113144524395466 ], [ 201304.073430379183264, 4904412.057869560085237 ], [ 189586.95928327148431, 4917063.39460573066026 ], [ 185298.017874326760648, 4923339.271785251796246 ], [ 180325.849684400920523, 4926299.902515538036823 ], [ 174753.083523363806307, 4928237.005022667348385 ], [ 170931.809718916279962, 4931542.806781176477671 ], [ 166994.368577514425851, 4931892.643867627717555 ], [ 166257.887142669846071, 4934599.165393589064479 ], [ 153125.693749476020457, 4937633.91581753641367 ] ] ] } },
{ "type": "Feature", "properties": { "drag_region": "South", "NAME": "Waseca" }, "geometry": { "type": "Polygon", "coordinates": [ [ [ 466168.092803884763271, 4782139.265117611736059 ], [ 465807.736617556365672, 4743496.374465758912265 ], [ 494946.492169066215865, 4743289.369239636696875 ], [ 495136.918701614660677, 4781932.169940817169845 ], [ 466168.092803884763271, 4782139.265117611736059 ] ] ] } },
{ "type": "Feature", "properties": { "drag_region": "South", "NAME": "Houston" }, "geometry": { "type": "Polygon", "coordinates": [ [ [ 707056.400225008139387, 4720589.214565160684288 ], [ 707644.997526154271327, 4682139.17419414408505 ], [ 717222.316571197006851, 4682196.706094012595713 ], [ 749142.059521743794903, 4682804.98726152908057 ], [ 746713.948549876105972, 4687812.276048476807773 ], [ 747784.453463009209372, 4692034.844635090790689 ], [ 744812.990776990307495, 4695503.922267010435462 ], [ 744092.865757690626197, 4702265.971417419612408 ], [ 745423.148687441251241, 4707830.062688554637134 ], [ 746179.281633128877729, 4713096.012075185775757 ], [ 742831.657962799537927, 4721234.91343492642045 ], [ 707056.400225008139387, 4720589.214565160684288 ] ] ] } },
{ "type": "Feature", "properties": { "drag_region": "Central", "NAME": "Jackson" }, "geometry": { "type": "Polygon", "coordinates": [ [ [ 260743.767994280147832, 4702641.676274346187711 ], [ 259313.635973067313898, 4664103.556444384157658 ], [ 264824.379538601788227, 4663847.637542230077088 ], [ 303128.733611705538351, 4662857.437960451468825 ], [ 308063.950451429525856, 4662841.190165101550519 ], [ 308925.006510845851153, 4701387.152726795524359 ], [ 260743.767994280147832, 4702641.676274346187711 ] ] ] } },
{ "type": "Feature", "properties": { "drag_region": "South", "NAME": "Washington" }, "geometry": { "type": "Polygon", "coordinates": [ [ [ 547399.368344171904027, 4902224.478155768476427 ], [ 548532.378648917889223, 4888959.852365205995739 ], [ 554495.655707028345205, 4890107.424028878100216 ], [ 558188.414115805062465, 4889252.867025838233531 ], [ 560465.743854384752922, 4886298.331089230254292 ], [ 564444.040583467460237, 4886115.864840786904097 ], [ 564154.012631487334147, 4888596.275161335244775 ], [ 567540.196721002226695, 4896239.454901493154466 ], [ 566669.250948931090534, 4903394.171185323037207 ], [ 568640.512112977099605, 4907408.017708138562739 ], [ 566930.265217836597003, 4911315.620199807919562 ], [ 567478.235780509421602, 4917520.236790683120489 ], [ 564360.086008456302807, 4920756.590337839908898 ], [ 568864.423016889137216, 4926304.240535146556795 ], [ 567145.256000580731779, 4934983.554347677156329 ], [ 567983.131595205632038, 4937658.197757981717587 ], [ 567674.32677746610716, 4946723.664139682427049 ], [ 568798.639681893168017, 4947204.290728582069278 ], [ 547409.770111087360419, 4947363.919231980107725 ], [ 547123.037180190440267, 4928086.287119860760868 ], [ 549945.853721298393793, 4928086.137548767961562 ], [ 550233.561126309679821, 4902606.169262643903494 ], [ 547399.368344171904027, 4902224.478155768476427 ] ] ] } },
{ "type": "Feature", "properties": { "drag_region": "South", "NAME": "Chisago" }, "geometry": { "type": "Polygon", "coordinates": [ [ [ 538462.901563273044303, 5022175.577904446050525 ], [ 538429.390843067318201, 5003087.28796664532274 ], [ 547673.648904137662612, 5002982.464989219792187 ], [ 547950.018962651025504, 4986757.802018715068698 ], [ 547947.080799269140698, 4974064.735511218197644 ], [ 569335.950370075064711, 4973905.107007820159197 ], [ 572978.905789324548095, 4978116.880188865587115 ], [ 572687.446688504191115, 4980883.492855176329613 ], [ 576884.724950839183293, 4985386.004454378038645 ], [ 577144.609180179890245, 4990159.119739162735641 ], [ 570660.817866602446884, 4998246.243939269334078 ], [ 570931.006833714898676, 5001205.824026882648468 ], [ 566999.415930102812126, 5004247.657371614128351 ], [ 564200.659117415547371, 5003381.45370359160006 ], [ 558315.350029500201344, 5005374.566650691442192 ], [ 558305.021890319883823, 5012628.07536886446178 ], [ 559968.520099969930016, 5021315.92340783122927 ], [ 561642.712318548350595, 5022177.976089662872255 ], [ 538462.901563273044303, 5022175.577904446050525 ] ] ] } },
{ "type": "Feature", "properties": { "drag_region": "South", "NAME": "Faribault" }, "geometry": { "type": "Polygon", "coordinates": [ [ [ 412949.475386612408329, 4724661.575438050553203 ], [ 412369.016562848875765, 4686020.732834110967815 ], [ 434711.48757509351708, 4685627.861939628608525 ], [ 460827.610838354332373, 4685374.239485044032335 ], [ 461129.573127742682118, 4724110.167610313743353 ], [ 412949.475386612408329, 4724661.575438050553203 ] ] ] } },
{ "type": "Feature", "properties": { "drag_region": "South", "NAME": "Blue Earth" }, "geometry": { "type": "Polygon", "coordinates": [ [ [ 401324.945841999375261, 4789390.025375727564096 ], [ 401322.335349681787193, 4772019.201341671869159 ], [ 400842.853932324214838, 4743108.602569198235869 ], [ 449023.027203179080971, 4742486.080973468720913 ], [ 449428.923430677736178, 4785995.277908409014344 ], [ 429939.580722151091322, 4786206.702502608299255 ], [ 429054.781315563828684, 4784213.582864666357636 ], [ 430703.983043959713541, 4778371.899643313139677 ], [ 427239.964039608836174, 4776792.679686423391104 ], [ 421826.617022713879123, 4779822.180997282266617 ], [ 413826.049676783150062, 4782130.503519197925925 ], [ 407870.715783987310715, 4786516.060806211084127 ], [ 401324.945841999375261, 4789390.025375727564096 ] ] ] } },
{ "type": "Feature", "properties": { "drag_region": "South", "NAME": "Nicollet" }, "geometry": { "type": "Polygon", "coordinates": [ [ [ 363319.645928968151566, 4825547.945792575366795 ], [ 370107.767822445661295, 4822253.37905447371304 ], [ 372317.573967132717371, 4818484.995463157072663 ], [ 383691.573897135385778, 4815018.028319401666522 ], [ 388488.900084185646847, 4811303.499495653435588 ], [ 392381.825271506560966, 4804649.338361453264952 ], [ 395516.787711117358413, 4803641.714920595288277 ], [ 402062.557653105293866, 4800767.75035107973963 ], [ 408017.891545901133213, 4796382.193064066581428 ], [ 416018.458891831862275, 4794073.87054215092212 ], [ 421431.805908726819325, 4791044.369231292046607 ], [ 424895.824913077696692, 4792623.58918818179518 ], [ 423246.623184681811836, 4798465.272409534081817 ], [ 424131.422591269074474, 4800458.392047476023436 ], [ 423296.580506263242569, 4802472.841772560030222 ], [ 428518.634937692433596, 4807944.860481574200094 ], [ 430568.231439368624706, 4811929.360546640120447 ], [ 428307.429908861697186, 4814341.343748512677848 ], [ 430997.440558222995605, 4824521.661448967643082 ], [ 375884.137368954427075, 4825286.464937407523394 ], [ 363319.645928968151566, 4825547.945792575366795 ] ] ] } },
{ "type": "Feature", "properties": { "drag_region": "Central", "NAME": "Stevens" }, "geometry": { "type": "Polygon", "coordinates": [ [ [ 175896.317867560806917, 5022850.820233732461929 ], [ 175112.571462211257312, 5003572.255291761830449 ], [ 175952.5245696354541, 5003538.215125192888081 ], [ 175173.70882017997792, 4984260.045952971093357 ], [ 213930.929184367909329, 4982816.287282669916749 ], [ 214590.553974578127963, 5002094.606303757987916 ], [ 213750.593168605788378, 5002123.445565183646977 ], [ 214418.084514451940777, 5021497.654715552926064 ], [ 175896.317867560806917, 5022850.820233732461929 ] ] ] } },
{ "type": "Feature", "properties": { "drag_region": "Metro", "NAME": "Mille Lacs" }, "geometry": { "type": "Polygon", "coordinates": [ [ [ 519306.688948027091101, 5143510.169931954704225 ], [ 489973.677138128608931, 5143358.227143000811338 ], [ 489678.30558814026881, 5114437.192236389964819 ], [ 493014.455887827090919, 5114404.096456752158701 ], [ 493402.389919758192264, 5067342.522983141243458 ], [ 512730.425781308847945, 5067094.322792664170265 ], [ 512474.732625354721677, 5114151.541215412318707 ], [ 519146.632910087704659, 5114016.357472817413509 ], [ 519306.688948027091101, 5143510.169931954704225 ] ] ] } },
{ "type": "Feature", "properties": { "drag_region": "South", "NAME": "Mower" }, "geometry": { "type": "Polygon", "coordinates": [ [ [ 549880.457293088315055, 4724669.306788956746459 ], [ 549856.673229377483949, 4685933.496621027588844 ], [ 598605.908363995840773, 4686175.64909662399441 ], [ 598358.989452882437035, 4723289.557024911046028 ], [ 579025.261220251210034, 4723093.226480536162853 ], [ 579018.792240682989359, 4724810.629241957329214 ], [ 549880.457293088315055, 4724669.306788956746459 ] ] ] } },
{ "type": "Feature", "properties": { "drag_region": "Central", "NAME": "Grant" }, "geometry": { "type": "Polygon", "coordinates": [ [ [ 174996.755936337431194, 5084573.460465477779508 ], [ 174204.843842940405011, 5065294.102803516201675 ], [ 175317.802763767511351, 5065248.554655660875142 ], [ 174523.930530521320179, 5045778.707562647759914 ], [ 213045.697177412454039, 5044425.542044468224049 ], [ 213711.882766331837047, 5063704.765332441776991 ], [ 212877.138294158561621, 5063733.708459601737559 ], [ 213547.908527547086123, 5083013.378004936501384 ], [ 174996.755936337431194, 5084573.460465477779508 ] ] ] } },
{ "type": "Feature", "properties": { "drag_region": "North", "NAME": "Hubbard" }, "geometry": { "type": "Polygon", "coordinates": [ [ [ 304249.307459841424134, 5310865.016118925064802 ], [ 303976.218832796672359, 5301127.614801618270576 ], [ 305061.021749424398877, 5301097.312639652751386 ], [ 303990.292749449727125, 5262530.796404927968979 ], [ 304536.241852021717932, 5262515.706791389733553 ], [ 304004.925245924270712, 5243233.197714847512543 ], [ 342343.345171133230906, 5242205.513068689033389 ], [ 342749.040334165445529, 5261392.925483365543187 ], [ 342961.093890720279887, 5309619.833471149206161 ], [ 304249.307459841424134, 5310865.016118925064802 ] ] ] } },
{ "type": "Feature", "properties": { "drag_region": "Central", "NAME": "Big Stone" }, "geometry": { "type": "Polygon", "coordinates": [ [ [ 113733.06602553272387, 4998430.538775553926826 ], [ 118716.357183548097964, 4991020.451378682628274 ], [ 120914.876224263221957, 4983935.689247726462781 ], [ 124602.754037209611852, 4978505.270753928460181 ], [ 129640.8793002430466, 4977893.8041638918221 ], [ 137065.430752762244083, 4973930.32982234004885 ], [ 140765.095965797139797, 4968319.455332203768194 ], [ 141897.194301638752222, 4961864.866130621172488 ], [ 155029.387694832577836, 4958830.115706673823297 ], [ 155765.869129677157616, 4956123.594180712476373 ], [ 159703.310271079011727, 4955773.757094261236489 ], [ 163524.584075526538072, 4952467.955335752107203 ], [ 169097.350236563652288, 4950530.852828622795641 ], [ 167956.74013003273285, 4957551.835386575199664 ], [ 168981.085587584006134, 4976723.300624148920178 ], [ 159151.379635109944502, 4977112.119450208730996 ], [ 159930.195384565420682, 4996390.28862243052572 ], [ 113733.06602553272387, 4998430.538775553926826 ] ] ] } },
{ "type": "Feature", "properties": { "drag_region": "North", "NAME": "Wadena" }, "geometry": { "type": "Polygon", "coordinates": [ [ [ 303700.671812299173325, 5203111.925755843520164 ], [ 304257.146729887695983, 5193352.939516577869654 ], [ 303465.37684343237197, 5164335.427651259116828 ], [ 336041.518662362301257, 5163535.736765594221652 ], [ 332516.933495033998042, 5166478.836123392917216 ], [ 332721.913474956643768, 5212029.497804359532893 ], [ 304242.684763169032522, 5212840.903799438849092 ], [ 303700.671812299173325, 5203111.925755843520164 ] ] ] } },
{ "type": "Feature", "properties": { "drag_region": "Central", "NAME": "Chippewa" }, "geometry": { "type": "Polygon", "coordinates": [ [ [ 206373.043521361541934, 4921965.055155568756163 ], [ 210661.984930306265596, 4915689.177976047620177 ], [ 222379.099077413964551, 4903037.841239877045155 ], [ 223931.491516988025978, 4898779.896514841355383 ], [ 229259.636874362186063, 4897069.138475886546075 ], [ 231124.059141880250536, 4893471.637631650082767 ], [ 234241.079650215746369, 4893368.222091217525303 ], [ 238584.354116583417635, 4887303.906411738134921 ], [ 247443.207163096929435, 4879956.439644384197891 ], [ 245115.313022587972227, 4878213.549074783921242 ], [ 248462.32420922187157, 4876104.518025994300842 ], [ 248932.240759892330971, 4891468.477695018984377 ], [ 267638.529460519610438, 4890922.980313565582037 ], [ 268443.963468745409045, 4919934.017601882107556 ], [ 206373.043521361541934, 4921965.055155568756163 ] ] ] } },
{ "type": "Feature", "properties": { "drag_region": "South", "NAME": "Wabasha" }, "geometry": { "type": "Polygon", "coordinates": [ [ [ 630277.146746661979705, 4821012.36649130936712 ], [ 615427.21572421467863, 4820987.384561664424837 ], [ 615494.314671938773245, 4811349.875439376570284 ], [ 605770.960668348940089, 4811289.472757639363408 ], [ 605876.17856734059751, 4792014.900909774005413 ], [ 624520.541396799497306, 4792047.561469988897443 ], [ 624600.362086722627282, 4782410.483974182978272 ], [ 643847.138759315246716, 4782502.465479227714241 ], [ 643739.139298860915005, 4792139.559281361289322 ], [ 661235.982012707274407, 4792359.104100603610277 ], [ 658597.835963970748708, 4796522.169924658723176 ], [ 658245.69642274081707, 4801384.65634947642684 ], [ 655935.427087652729824, 4802785.492761735804379 ], [ 655869.069875474786386, 4807842.726799144409597 ], [ 651815.148124579340219, 4811608.172660802491009 ], [ 642900.570942480349913, 4815892.536649044603109 ], [ 632579.053226595977321, 4819220.88811559882015 ], [ 630277.146746661979705, 4821012.36649130936712 ] ] ] } },
{ "type": "Feature", "properties": { "drag_region": "Metro", "NAME": "Koochiching" }, "geometry": { "type": "Polygon", "coordinates": [ [ [ 445132.31000876671169, 5508341.395318571478128 ], [ 444439.636849500937387, 5471292.746269771829247 ], [ 444168.843566805589944, 5413321.833211652934551 ], [ 492236.703472418477759, 5412639.329061672091484 ], [ 492296.167390424874611, 5418558.960424629971385 ], [ 544338.602695241221227, 5417411.309402527287602 ], [ 543556.636482289759442, 5436985.711573909968138 ], [ 543021.847651116433553, 5436986.364403065294027 ], [ 543894.534087898209691, 5499242.738185338675976 ], [ 537281.423967987648211, 5498776.687398508191109 ], [ 534906.648414826369844, 5500883.50666612945497 ], [ 524587.053261596010998, 5499202.335333459079266 ], [ 515832.205263265874237, 5494856.414988437667489 ], [ 516069.082938384672161, 5490271.282559206709266 ], [ 509962.616315927880351, 5488401.744498565793037 ], [ 504134.299019637575839, 5488637.382277548313141 ], [ 502797.325474518118426, 5487216.037768162786961 ], [ 491663.162617717403919, 5487129.657123865559697 ], [ 490085.020379158842843, 5488292.25239741243422 ], [ 490929.295919250347652, 5492962.785991920158267 ], [ 488879.768857650225982, 5499287.806163629516959 ], [ 476210.69078183057718, 5501445.999166551977396 ], [ 460093.431468187365681, 5502350.072800131514668 ], [ 457277.247624692565296, 5507935.86565544642508 ], [ 448587.969376183813438, 5509519.453077729791403 ], [ 445132.31000876671169, 5508341.395318571478128 ] ] ] } },
{ "type": "Feature", "properties": { "drag_region": "North", "NAME": "Norman" }, "geometry": { "type": "Polygon", "coordinates": [ [ [ 131314.313814779394306, 5338521.659607836976647 ], [ 130033.389775491552427, 5329112.090470642782748 ], [ 131770.75500723242294, 5320318.622171840630472 ], [ 130721.634803253808059, 5315586.152776096947491 ], [ 131234.93014391354518, 5309437.094253351911902 ], [ 131028.296138621924911, 5299687.716860651038587 ], [ 179189.280071533314185, 5297615.811461026780307 ], [ 188987.819317506102379, 5297318.512892075814307 ], [ 190506.514310417056549, 5335883.805919796228409 ], [ 131314.313814779394306, 5338521.659607836976647 ] ] ] } },
{ "type": "Feature", "properties": { "drag_region": "North", "NAME": "Becker" }, "geometry": { "type": "Polygon", "coordinates": [ [ [ 201952.498386382183526, 5277587.148023785091937 ], [ 201164.448575360118411, 5258305.304186133667827 ], [ 202802.228689420095179, 5258238.68812751583755 ], [ 201636.164240143611096, 5229412.094090001657605 ], [ 258131.083326701656915, 5227111.068735960870981 ], [ 278709.570877910824493, 5226700.554512293078005 ], [ 279251.583828780683689, 5236429.532555888406932 ], [ 279782.900434878130909, 5255712.041632430627942 ], [ 279236.951332306140102, 5255727.131245968863368 ], [ 279774.207196523842867, 5275105.599441548809409 ], [ 250655.213102185807656, 5275794.607120746746659 ], [ 211751.037632355000824, 5277289.849454834125936 ], [ 201952.498386382183526, 5277587.148023785091937 ] ] ] } },
{ "type": "Feature", "properties": { "drag_region": "South", "NAME": "Goodhue" }, "geometry": { "type": "Polygon", "coordinates": [ [ [ 548576.96987265907228, 4833153.848265264183283 ], [ 548559.615142620983534, 4797753.08714166469872 ], [ 577528.725828554364853, 4797611.979133486747742 ], [ 587567.564312178408727, 4797659.022648053243756 ], [ 587462.346413186867721, 4816933.594495918601751 ], [ 597185.700416776700877, 4816993.99717765673995 ], [ 597118.601469052489847, 4826631.506299944594502 ], [ 611968.532491499907337, 4826656.488229589536786 ], [ 607067.693411918589845, 4832052.454133087769151 ], [ 606176.529564050375484, 4836243.826801227405667 ], [ 604454.066821024636738, 4837661.055229237303138 ], [ 596748.392776036518626, 4838843.604826709255576 ], [ 588196.659961204510182, 4838980.771856164559722 ], [ 585609.601253404282033, 4843165.511462368071079 ], [ 581614.956430224468932, 4844672.685122653841972 ], [ 581889.053914711112157, 4846964.191336449235678 ], [ 573037.211290266597643, 4855231.10853005386889 ], [ 573068.021943020401523, 4845879.443749889731407 ], [ 568228.001700235530734, 4845865.319927118718624 ], [ 568252.501875763759017, 4836227.524912828579545 ], [ 558272.920948730665259, 4836209.849592948332429 ], [ 558275.789158328785561, 4833347.166773641481996 ], [ 555423.866848338977434, 4832199.866323718801141 ], [ 548576.96987265907228, 4833153.848265264183283 ] ] ] } },
{ "type": "Feature", "properties": { "drag_region": "South", "NAME": "Ramsey" }, "geometry": { "type": "Polygon", "coordinates": [ [ [ 543211.564908509375528, 4926548.275763975456357 ], [ 524298.961927246302366, 4926668.63886265270412 ], [ 524271.140520788787398, 4916743.712585872970521 ], [ 525684.975041053141467, 4916835.34100155159831 ], [ 526215.262125450768508, 4902710.240385826677084 ], [ 527910.211546671227552, 4900415.946271410211921 ], [ 531883.870945756556466, 4903843.813730998896062 ], [ 538116.209706989699043, 4903836.868279912509024 ], [ 540665.079531382885762, 4900686.616370975971222 ], [ 543499.272313520661555, 4901068.307477851398289 ], [ 543211.564908509375528, 4926548.275763975456357 ] ] ] } },
{ "type": "Feature", "properties": { "drag_region": "Central", "NAME": "Yellow Medicine" }, "geometry": { "type": "Polygon", "coordinates": [ [ [ 162577.569799507851712, 4873378.467198669910431 ], [ 161755.822624090942554, 4854006.631811985746026 ], [ 189937.996689216291998, 4852779.024213976226747 ], [ 228939.914002873119898, 4851319.991781571879983 ], [ 229199.575078298919834, 4841568.457452490925789 ], [ 248018.792675432981923, 4840997.349118643440306 ], [ 248521.308825749205425, 4858364.780912241898477 ], [ 242129.584310736274347, 4863519.810179410502315 ], [ 238751.790649990260135, 4864672.755379229784012 ], [ 235404.779463356360793, 4866781.786428019404411 ], [ 237732.673603865318, 4868524.67699761968106 ], [ 228873.820557351806201, 4875872.14376497361809 ], [ 224530.546090984134935, 4881936.459444453008473 ], [ 221413.525582648639102, 4882039.874984885565937 ], [ 219549.103315130574629, 4885637.375829122029245 ], [ 219384.90563520923024, 4880770.463979002088308 ], [ 210598.736510031507351, 4881072.809477965347469 ], [ 209976.851755228359252, 4871444.449550844728947 ], [ 162577.569799507851712, 4873378.467198669910431 ] ] ] } },
{ "type": "Feature", "properties": { "drag_region": "South", "NAME": "Fillmore" }, "geometry": { "type": "Polygon", "coordinates": [ [ [ 623436.969561744481325, 4722486.288073665462434 ], [ 623694.077100739232264, 4683845.797873558476567 ], [ 681727.728427537716925, 4684576.441680017858744 ], [ 681139.131126391584985, 4723026.482051034457982 ], [ 653153.831235295394436, 4722655.651468412950635 ], [ 623436.969561744481325, 4722486.288073665462434 ] ] ] } },
{ "type": "Feature", "properties": { "drag_region": "South", "NAME": "Wright" }, "geometry": { "type": "Polygon", "coordinates": [ [ [ 414471.0196933967527, 4955598.517913384363055 ], [ 414227.167058680031914, 4921810.918854442425072 ], [ 452712.34818286501104, 4921139.080863500013947 ], [ 453386.950140267261304, 4932680.906093113124371 ], [ 455365.242796925303992, 4932758.030847656540573 ], [ 458242.178239256725647, 4938745.188307184726 ], [ 463065.565390225267038, 4941950.142780222930014 ], [ 463104.1107688897755, 4946817.264757548458874 ], [ 468466.160216674150433, 4947731.441328181885183 ], [ 472431.910564899968449, 4950854.079783344641328 ], [ 467961.395982120069675, 4955942.856741487979889 ], [ 453891.592584659985732, 4956345.825500565581024 ], [ 448309.04201165685663, 4960886.747413523495197 ], [ 445220.582211475644726, 4961396.555615254677832 ], [ 441340.237783757678699, 4966402.976496772840619 ], [ 438241.336732143769041, 4965770.991636668331921 ], [ 431280.415955915930681, 4970821.349362074397504 ], [ 428669.846832584764343, 4964651.40264792367816 ], [ 422100.236230363661889, 4957488.392072443850338 ], [ 420157.166083479765803, 4959330.416990756057203 ], [ 414792.695253770216368, 4958170.878400239162147 ], [ 414471.0196933967527, 4955598.517913384363055 ] ] ] } },
{ "type": "Feature", "properties": { "drag_region": "North", "NAME": "Wilkin" }, "geometry": { "type": "Polygon", "coordinates": [ [ [ 123738.495934386941371, 5185347.308081516996026 ], [ 125960.891933769540628, 5179979.405526460148394 ], [ 126522.322846566996304, 5168569.099716586060822 ], [ 127679.366795672132866, 5163827.212043544277549 ], [ 132761.551443092728732, 5154216.412987058050931 ], [ 136233.84180152087356, 5151474.894776611588895 ], [ 135950.727006633736892, 5139150.081140774302185 ], [ 138191.173556892987108, 5121069.442392805591226 ], [ 136618.498833476827713, 5117027.758475469425321 ], [ 160509.512341097113676, 5115999.947332047857344 ], [ 160905.759724268689752, 5125639.675860030576587 ], [ 161980.425692804798018, 5145003.475860501639545 ], [ 160597.980541191383963, 5145060.604070429690182 ], [ 162204.438101781299338, 5183716.731762506999075 ], [ 123738.495934386941371, 5185347.308081516996026 ] ] ] } },
{ "type": "Feature", "properties": { "drag_region": "Central", "NAME": "Swift" }, "geometry": { "type": "Polygon", "coordinates": [ [ [ 197186.322914929623948, 4964596.837759518995881 ], [ 196161.977457378350664, 4945425.372521945275366 ], [ 197302.587563909270102, 4938404.389963992871344 ], [ 202274.755753835110227, 4935443.759233706630766 ], [ 264345.675701219006442, 4933412.721680019982159 ], [ 264050.664607493905351, 4943067.233385439030826 ], [ 264590.430040138424374, 4962345.176089530810714 ], [ 226113.837326643493725, 4963541.897915277630091 ], [ 197186.322914929623948, 4964596.837759518995881 ] ] ] } },
{ "type": "Feature", "properties": { "drag_region": "North", "NAME": "Marshall" }, "geometry": { "type": "Polygon", "coordinates": [ [ [ 117393.831461559020681, 5503057.275212396867573 ], [ 117653.4606882884691, 5502947.371252576820552 ], [ 118963.015508691576542, 5497706.175282157957554 ], [ 118675.394486455508741, 5487477.752226869575679 ], [ 117609.686355829384411, 5482557.081398331560194 ], [ 119258.739084544737125, 5473564.711351091973484 ], [ 117121.818559732317226, 5468605.936818972229958 ], [ 116879.515255474456353, 5464119.479745901189744 ], [ 116489.075641107425326, 5461842.933494267985225 ], [ 202921.360523451672634, 5457639.046840712428093 ], [ 232008.053384569677291, 5456679.234567428939044 ], [ 232733.839728381804889, 5478160.965512044727802 ], [ 231936.395010585983982, 5478188.00477892998606 ], [ 232589.328403715539025, 5497378.819970520213246 ], [ 174605.406887841643766, 5500322.522950490005314 ], [ 117393.831461559020681, 5503057.275212396867573 ] ] ] } },
{ "type": "Feature", "properties": { "drag_region": "Metro", "NAME": "Pine" }, "geometry": { "type": "Polygon", "coordinates": [ [ [ 573042.743584182113409, 5172071.762585401535034 ], [ 573009.301772789331153, 5123391.865534811280668 ], [ 566058.752342671738006, 5123400.53677199408412 ], [ 566287.67074270255398, 5095530.101542642340064 ], [ 589467.481497977860272, 5095532.499727859161794 ], [ 593925.633161954465322, 5099360.610698162578046 ], [ 599457.048536521266215, 5113503.887604027055204 ], [ 605006.276215406018309, 5118012.34245107229799 ], [ 611950.610568425385281, 5120242.775774910114706 ], [ 614154.258355939877219, 5123882.660136087797582 ], [ 618054.526497597806156, 5122666.364563522860408 ], [ 620797.360705727594905, 5128030.422988845966756 ], [ 627470.469629365601577, 5127413.031021599657834 ], [ 629090.125129936728626, 5133058.268500783480704 ], [ 631857.602547904942185, 5134036.773455091752112 ], [ 631518.423158195335418, 5172121.8208526391536 ], [ 573042.743584182113409, 5172071.762585401535034 ] ] ] } },
{ "type": "Feature", "properties": { "drag_region": "South", "NAME": "Scott" }, "geometry": { "type": "Polygon", "coordinates": [ [ [ 469194.965900423238054, 4856094.715611849911511 ], [ 462056.438385404122528, 4854066.390488802455366 ], [ 458598.317686346243136, 4850381.716774724423885 ], [ 457973.257888434221968, 4845426.012357856146991 ], [ 507871.539267321990337, 4845158.116106220521033 ], [ 508189.383697378274519, 4854794.939924064092338 ], [ 504772.948970373603515, 4854807.448868269100785 ], [ 505095.089849058946129, 4864444.281944408081472 ], [ 503991.347678805352189, 4872655.484810244292021 ], [ 500013.387053436366841, 4872004.896737974137068 ], [ 495486.7233531306847, 4875081.465270793065429 ], [ 488952.949841863301117, 4874165.723024507984519 ], [ 482690.571525616687723, 4871823.102631081826985 ], [ 480096.375625140906777, 4866880.278889807872474 ], [ 481207.732800468802452, 4863531.635630659759045 ], [ 477215.440705391811207, 4862131.68614614289254 ], [ 474915.847145249543246, 4859287.990399756468832 ], [ 469194.965900423238054, 4856094.715611849911511 ] ] ] } },
{ "type": "Feature", "properties": { "drag_region": "North", "NAME": "Clearwater" }, "geometry": { "type": "Polygon", "coordinates": [ [ [ 259368.529787889827276, 5403157.218492332845926 ], [ 259045.579685268952744, 5393514.691847709007561 ], [ 258348.807439974305453, 5364578.839425635524094 ], [ 260234.646592413919279, 5364516.374768483452499 ], [ 258329.52910913710366, 5306474.746088596992195 ], [ 287448.523203475167975, 5305785.738409399054945 ], [ 287981.996339232078753, 5324973.786448543891311 ], [ 286897.193422604352236, 5325004.088610509410501 ], [ 287170.282049649162218, 5334741.489927816204727 ], [ 287175.56284206348937, 5363690.888062859885395 ], [ 287803.843441137112677, 5385840.027817127294838 ], [ 283811.449507127166726, 5387101.465756365098059 ], [ 281864.782953924615867, 5393942.865450343117118 ], [ 285591.981762930285186, 5402242.727327387779951 ], [ 259368.529787889827276, 5403157.218492332845926 ] ] ] } },
{ "type": "Feature", "properties": { "drag_region": "Metro", "NAME": "Crow Wing" }, "geometry": { "type": "Polygon", "coordinates": [ [ [ 438858.84598733013263, 5171888.000736644491553 ], [ 434583.099064261652529, 5164705.467942503280938 ], [ 437014.11944838706404, 5161130.47383411321789 ], [ 436138.424112555803731, 5158567.686783865094185 ], [ 479647.990424236631952, 5157873.160722784698009 ], [ 479746.592456241429318, 5167513.649745132774115 ], [ 480853.41844314528862, 5167502.421195095404983 ], [ 479755.385793573630508, 5168372.710211819037795 ], [ 480135.565465651568957, 5205408.848741956986487 ], [ 482616.106661964440718, 5205956.62119323015213 ], [ 483125.349428153596818, 5229723.099200771190226 ], [ 439857.918427979922853, 5230592.906538532115519 ], [ 439252.424066835665144, 5211219.634576770476997 ], [ 440351.40378836489981, 5211200.953798771835864 ], [ 439987.375079804332927, 5173205.673555384390056 ], [ 438858.84598733013263, 5171888.000736644491553 ] ] ] } },
{ "type": "Feature", "properties": { "drag_region": "South", "NAME": "Dakota" }, "geometry": { "type": "Polygon", "coordinates": [ [ [ 516235.509084053337574, 4873001.17424775660038 ], [ 517339.251254306931514, 4864789.971381920389831 ], [ 517017.110375621588901, 4855153.138305781409144 ], [ 520433.545102626259904, 4855140.629361576400697 ], [ 520115.700672569975723, 4845503.805543732829392 ], [ 520088.176600018283352, 4837488.323454443365335 ], [ 539215.249258617055602, 4837450.80667070671916 ], [ 539217.640856378129683, 4842317.336158922873437 ], [ 546064.537832057918422, 4841363.354217378422618 ], [ 548916.460142047842965, 4842510.654667301103473 ], [ 548913.591932449722663, 4845373.337486607953906 ], [ 558893.17285948281642, 4845391.012806488201022 ], [ 558868.672683954471722, 4855028.807820777408779 ], [ 563708.692926739342511, 4855042.931643549352884 ], [ 563677.882273985655047, 4864394.596423712559044 ], [ 557983.447039589285851, 4867909.12173652369529 ], [ 554005.150310506578535, 4868091.587984967045486 ], [ 551727.820571926771663, 4871046.123921575024724 ], [ 548035.062163150054403, 4871900.68092461489141 ], [ 542071.785105039714836, 4870753.109260942786932 ], [ 540938.774800293729641, 4884017.73505150526762 ], [ 538389.904975900542922, 4887167.986960441805422 ], [ 532157.566214667400345, 4887174.932411528192461 ], [ 528183.906815582071431, 4883747.064951939508319 ], [ 525618.717574138776399, 4878313.816567225381732 ], [ 522488.470909371622838, 4875173.619263220578432 ], [ 516235.509084053337574, 4873001.17424775660038 ] ] ] } },
{ "type": "Feature", "properties": { "drag_region": "Metro", "NAME": "Itasca" }, "geometry": { "type": "Polygon", "coordinates": [ [ [ 450841.619314977200702, 5383341.954485643655062 ], [ 450296.352558781509288, 5338751.447108639404178 ], [ 456735.258838891750202, 5335390.931523801758885 ], [ 472813.67674114939291, 5342395.602410610765219 ], [ 475497.913493848172948, 5340925.306636699475348 ], [ 479468.140742038143799, 5334282.846335830166936 ], [ 478331.342437647748739, 5330287.52794939558953 ], [ 487989.042799607734196, 5321859.340425723232329 ], [ 489914.604788565309718, 5324128.658914010971785 ], [ 498579.445065148174763, 5322508.736672479659319 ], [ 495513.439051943016239, 5314710.692489008419216 ], [ 498206.512834253720939, 5312296.371781747788191 ], [ 498004.691735472646542, 5291962.201770663261414 ], [ 552822.095162907266058, 5291289.627277894876897 ], [ 552011.514301251154393, 5300454.923974432051182 ], [ 551767.177670267643407, 5332150.665133696980774 ], [ 552337.667309858254157, 5368334.669822653755546 ], [ 550722.620145078748465, 5368431.657752668485045 ], [ 551011.378443412831984, 5387431.430676518939435 ], [ 498968.943138596485369, 5388579.081698621623218 ], [ 498909.479220590088516, 5382659.450335662811995 ], [ 450841.619314977200702, 5383341.954485643655062 ] ] ] } },
{ "type": "Feature", "properties": { "drag_region": "Metro", "NAME": "Cass" }, "geometry": { "type": "Polygon", "coordinates": [ [ [ 400453.96160975046223, 5249101.401277408003807 ], [ 400248.981629827816505, 5203550.73959644138813 ], [ 403773.566797156119719, 5200607.640238642692566 ], [ 404560.29336204752326, 5198680.553873206488788 ], [ 409801.310499144950882, 5198282.454570734873414 ], [ 411959.805336155637633, 5195755.021879612468183 ], [ 418815.163601931708399, 5192944.746590974740684 ], [ 424403.150433434813749, 5196085.61206732224673 ], [ 427167.453829528938513, 5196130.70476062502712 ], [ 433417.750236738822423, 5189910.744443692266941 ], [ 434546.27932921302272, 5191228.417262432165444 ], [ 434910.308037773589604, 5229223.697505819611251 ], [ 433811.328316244354937, 5229242.378283818252385 ], [ 434416.822677388612647, 5248615.650245579890907 ], [ 477684.253677562286612, 5247745.842907818965614 ], [ 478135.378191209572833, 5293282.038432065397501 ], [ 475442.304408898809925, 5295696.359139326028526 ], [ 478508.310422104026657, 5303494.403322797268629 ], [ 469843.470145521103404, 5305114.325564328581095 ], [ 467917.90815656358609, 5302845.007076040841639 ], [ 458260.207794603600632, 5311273.194599713198841 ], [ 459397.006098993995693, 5315268.512986147776246 ], [ 455426.778850804024842, 5321910.973287017084658 ], [ 452742.542098105244804, 5323381.269060928374529 ], [ 436664.124195847602095, 5316376.598174119368196 ], [ 430225.217915737361182, 5319737.113758957013488 ], [ 430157.493902771559078, 5316013.825555922463536 ], [ 410930.90154275886016, 5316299.443028789013624 ], [ 410718.847986204025801, 5268072.535041005350649 ], [ 410313.152823171811178, 5248885.122626328840852 ], [ 400453.96160975046223, 5249101.401277408003807 ] ] ] } },
{ "type": "Feature", "properties": { "drag_region": "Metro", "NAME": "Kanabec" }, "geometry": { "type": "Polygon", "coordinates": [ [ [ 528856.966053010546602, 5134103.931943906471133 ], [ 528752.933836173149757, 5114918.791979870758951 ], [ 522081.033551440166775, 5115053.975722465664148 ], [ 522182.096762373985257, 5087564.034473458305001 ], [ 551223.601648226846009, 5086968.005020461045206 ], [ 550994.683248196030036, 5114838.440249812789261 ], [ 557945.232678313739598, 5114829.769012629985809 ], [ 557958.710708842962049, 5134492.178267564624548 ], [ 540222.763304458116181, 5134720.899116723798215 ], [ 528856.966053010546602, 5134103.931943906471133 ] ] ] } },
{ "type": "Feature", "properties": { "drag_region": "South", "NAME": "Sherburne" }, "geometry": { "type": "Polygon", "coordinates": [ [ [ 429349.210875354998279, 5001021.613318396732211 ], [ 429804.918146686221007, 4993664.798941122367978 ], [ 436994.592840208613779, 4985739.439862251281738 ], [ 443955.513616436452139, 4980689.082136845216155 ], [ 447054.414668050361797, 4981321.066996949724853 ], [ 450934.759095768327825, 4976314.646115431562066 ], [ 454023.218895949539728, 4975804.837913700379431 ], [ 459605.769468952668831, 4971263.916000742465258 ], [ 473675.572866412752774, 4970860.947241664864123 ], [ 478146.087449192651547, 4965772.170283521525562 ], [ 478708.829705132287927, 4965673.121696938760579 ], [ 479109.614505206001922, 4984472.254961092956364 ], [ 479210.856823666894343, 5000410.526578540913761 ], [ 429349.210875354998279, 5001021.613318396732211 ] ] ] } },
{ "type": "Feature", "properties": { "drag_region": "South", "NAME": "Winona" }, "geometry": { "type": "Polygon", "coordinates": [ [ [ 681379.36453832371626, 4776959.846435602754354 ], [ 663882.521824477356859, 4776740.3016163604334 ], [ 664312.434104790911078, 4738288.197113418951631 ], [ 692297.733995887101628, 4738659.027696040458977 ], [ 728072.991733678500168, 4739304.72656580619514 ], [ 719761.58167873241473, 4751068.79858364444226 ], [ 716529.916838670498691, 4754347.096874721348286 ], [ 715342.417765083257109, 4756233.512483587488532 ], [ 705801.163445867248811, 4758636.814105230383575 ], [ 702913.260429810150526, 4759255.018006252124906 ], [ 693582.213985353242606, 4767214.73154036141932 ], [ 692677.349246880970895, 4769968.347747499123216 ], [ 684868.088855721871369, 4773764.329421135596931 ], [ 681379.36453832371626, 4776959.846435602754354 ] ] ] } },
{ "type": "Feature", "properties": { "drag_region": "Central", "NAME": "Pope" }, "geometry": { "type": "Polygon", "coordinates": [ [ [ 234667.354253915225854, 5019599.434561834670603 ], [ 233999.862908069073455, 5000225.225411465391517 ], [ 234839.823714041413041, 5000196.386150039732456 ], [ 234180.198923831194406, 4980918.067128951661289 ], [ 282205.756024576839991, 4979460.835854571312666 ], [ 282715.281105197500437, 4998643.862873699516058 ], [ 282155.293604497099295, 4998658.78394578769803 ], [ 282670.615336655289866, 5017937.752655650489032 ], [ 234667.354253915225854, 5019599.434561834670603 ] ] ] } },
{ "type": "Feature", "properties": { "drag_region": "South", "NAME": "McLeod" }, "geometry": { "type": "Polygon", "coordinates": [ [ [ 423458.324481022893451, 4904602.708970049396157 ], [ 384972.518487011780962, 4905295.051337901502848 ], [ 384794.129429937456734, 4895656.652403092943132 ], [ 384718.93275994155556, 4876184.177891332656145 ], [ 384540.043105068150908, 4866450.767943858169019 ], [ 403901.669457466108724, 4866219.635884262621403 ], [ 404051.39302752900403, 4875953.034467066638172 ], [ 423380.894847886636853, 4875589.007495923899114 ], [ 423458.324481022893451, 4904602.708970049396157 ] ] ] } },
{ "type": "Feature", "properties": { "drag_region": "North", "NAME": "Lake of the Woods" }, "geometry": { "type": "Polygon", "coordinates": [ [ [ 304682.811436536314432, 5571456.054797162301838 ], [ 304204.085873053234536, 5564398.101009354926646 ], [ 305676.99086277175229, 5560912.601269257254899 ], [ 310335.184078853577375, 5558193.111846968531609 ], [ 317482.642298606049735, 5559516.379944891668856 ], [ 320981.295304045255762, 5562285.769465151242912 ], [ 320609.658771020185668, 5539170.880647481419146 ], [ 301864.933899452269543, 5539716.180546594783664 ], [ 301540.201643027481623, 5520516.308271812275052 ], [ 311077.044874732440803, 5520232.210208487696946 ], [ 310516.810981304559391, 5500849.7726273201406 ], [ 368471.505879245058168, 5499664.07189236022532 ], [ 369164.17903851083247, 5536712.720941159874201 ], [ 361245.41168663505232, 5537057.798110399395227 ], [ 353679.704877710086294, 5541514.357172260060906 ], [ 350076.648657770245336, 5545701.128237434662879 ], [ 349137.464778184250463, 5550881.043008180335164 ], [ 350863.954766517854296, 5557434.627386054955423 ], [ 346679.907809330790769, 5581509.869947308674455 ], [ 344901.873595402925275, 5583939.816602855920792 ], [ 341700.705318887310568, 5603316.668798634782434 ], [ 339695.014740771905053, 5606709.801749591715634 ], [ 332263.054230429872405, 5611961.802006200887263 ], [ 324915.443067015556153, 5610245.954035920090973 ], [ 317978.929814454924781, 5613975.548510680906475 ], [ 316758.168533321644645, 5571100.092305 ], [ 304682.811436536314432, 5571456.054797162301838 ] ] ] } },
{ "type": "Feature", "properties": { "drag_region": "Metro", "NAME": "Morrison" }, "geometry": { "type": "Polygon", "coordinates": [ [ [ 406723.541709396697115, 5158201.314347212202847 ], [ 405955.72712981607765, 5094335.738555175252259 ], [ 434978.869309275061823, 5093901.870987418107688 ], [ 428649.653105310979299, 5099256.637614697217941 ], [ 474375.319667856674641, 5098650.131491607986391 ], [ 474268.506665600347333, 5116501.122542409226298 ], [ 470932.356365913525224, 5116534.218322047032416 ], [ 471129.125883897067979, 5135814.76420630980283 ], [ 427619.559572216239758, 5136509.290267390199006 ], [ 428495.254908047500066, 5139072.077317638322711 ], [ 426064.234523922088556, 5142647.071426028385758 ], [ 430339.981446990568656, 5149829.604220169596374 ], [ 424089.685039780684747, 5156049.564537102356553 ], [ 421325.381643686559983, 5156004.471843799576163 ], [ 415737.394812183454633, 5152863.606367452070117 ], [ 408882.036546407383867, 5155673.881656089797616 ], [ 406723.541709396697115, 5158201.314347212202847 ] ] ] } },
{ "type": "Feature", "properties": { "drag_region": "North", "NAME": "Clay" }, "geometry": { "type": "Polygon", "coordinates": [ [ [ 126322.08194187573099, 5276609.804965630173683 ], [ 126951.447032174604828, 5272751.768834352493286 ], [ 125880.912610338928062, 5256443.174590221606195 ], [ 128648.600598024655483, 5251429.327506018802524 ], [ 130338.35285765909066, 5252400.299277026206255 ], [ 128160.182170303698513, 5241311.776806240901351 ], [ 126713.130436192484922, 5239755.328707910142839 ], [ 127841.021530414858717, 5228985.832905833609402 ], [ 126156.226937616811483, 5222561.575231871567667 ], [ 126535.155630958775873, 5219003.570815554820001 ], [ 127066.213000468778773, 5218595.345284739509225 ], [ 173774.023427238105796, 5216626.917187820188701 ], [ 175332.796177825017367, 5255189.439669736661017 ], [ 173695.016063765040599, 5255256.055728354491293 ], [ 174483.065874787105713, 5274537.899566005915403 ], [ 126322.08194187573099, 5276609.804965630173683 ] ] ] } },
{ "type": "Feature", "properties": { "drag_region": "South", "NAME": "Hennepin" }, "geometry": { "type": "Polygon", "coordinates": [ [ [ 489767.352852413838264, 4939987.605736628174782 ], [ 485801.602504188020248, 4936864.967281465418637 ], [ 480439.553056403645314, 4935950.790710831992328 ], [ 480401.007677739136852, 4931083.668733506463468 ], [ 475577.620526770595461, 4927878.714260468259454 ], [ 472700.685084439173806, 4921891.556800940074027 ], [ 470722.392427781131119, 4921814.432046396657825 ], [ 470047.790470378880855, 4910272.606816783547401 ], [ 469956.440155784250237, 4900634.219783294014633 ], [ 489230.126302225748077, 4900576.097625234164298 ], [ 489451.111083618889097, 4890840.603693466633558 ], [ 495984.88459488627268, 4891756.345939751714468 ], [ 500511.548295191954821, 4888679.777406932786107 ], [ 504489.508920560940169, 4889330.36547920294106 ], [ 510742.470745879225433, 4891502.810494666919112 ], [ 513872.717410646378994, 4894643.007798671722412 ], [ 516437.906652089674026, 4900076.256183385848999 ], [ 514742.957230869273189, 4902370.550297802314162 ], [ 514212.670146471646149, 4916495.650913527235389 ], [ 512798.835626207233872, 4916404.0224978486076 ], [ 508275.352853426535148, 4916418.296815753914416 ], [ 508866.598923703248147, 4923955.449541281908751 ], [ 506060.127422331424896, 4928451.086732724681497 ], [ 497352.013089073298033, 4936030.235150172375143 ], [ 490330.095108353474643, 4939888.557150045409799 ], [ 489767.352852413838264, 4939987.605736628174782 ] ] ] } },
{ "type": "Feature", "properties": { "drag_region": "South", "NAME": "Anoka" }, "geometry": { "type": "Polygon", "coordinates": [ [ [ 497663.380277802469209, 4973318.097854005172849 ], [ 497262.595477728755213, 4954518.964589850977063 ], [ 504284.513458448578604, 4950660.642589977942407 ], [ 512992.627791706705466, 4943081.494172530248761 ], [ 515799.099293078528717, 4938585.856981087476015 ], [ 515207.853222801815718, 4931048.70425555948168 ], [ 519731.335995582514443, 4931034.429937654174864 ], [ 519759.157402040087618, 4940959.356214433908463 ], [ 535848.943842195090838, 4940839.142686849460006 ], [ 536135.67677309201099, 4960116.774798968806863 ], [ 536138.61493647377938, 4972809.841306465677917 ], [ 530240.913594409590587, 4973100.283524163998663 ], [ 497663.380277802469209, 4973318.097854005172849 ] ] ] } },
{ "type": "Feature", "properties": { "drag_region": "Central", "NAME": "Traverse" }, "geometry": { "type": "Polygon", "coordinates": [ [ [ 132450.384500396903604, 5058198.6866540517658 ], [ 130788.885287600525771, 5046032.313542706891894 ], [ 126686.252034596298472, 5041818.455894071608782 ], [ 123061.994865669475985, 5035958.952203823253512 ], [ 116743.744345298400731, 5032522.301839229650795 ], [ 109474.077142898648162, 5026936.947484415024519 ], [ 107863.974621807763469, 5022614.162451328709722 ], [ 109718.052504253646475, 5020325.000648660585284 ], [ 155075.228755862161051, 5018318.790662106126547 ], [ 156652.847394457901828, 5057067.202697089873254 ], [ 155539.888473630766384, 5057112.750844945199788 ], [ 155935.553183856245596, 5066752.379978924058378 ], [ 132044.539676235930528, 5067780.191122345626354 ], [ 132450.384500396903604, 5058198.6866540517658 ] ] ] } },
{ "type": "Feature", "properties": { "drag_region": "Central", "NAME": "Stearns" }, "geometry": { "type": "Polygon", "coordinates": [ [ [ 313641.045442419534083, 5018954.680114716291428 ], [ 313082.284922709513921, 4998053.200834364630282 ], [ 313642.272423409915064, 4998038.279762276448309 ], [ 313132.747342789254617, 4978855.252743148244917 ], [ 342062.644110805878881, 4978250.017724338918924 ], [ 341851.498289563634899, 4968610.94841836579144 ], [ 371667.073312043095939, 4968028.774768807925284 ], [ 371583.568448397447355, 4963161.564244420267642 ], [ 381155.931062777759507, 4963100.104570654220879 ], [ 381477.606623151223175, 4965672.465057509019971 ], [ 386842.07745286077261, 4966832.003648025915027 ], [ 388785.147599744668696, 4964989.978729713708162 ], [ 395354.75820196577115, 4972152.989305193535984 ], [ 397965.327325296937488, 4978322.936019344255328 ], [ 390775.652631774544716, 4986248.295098215341568 ], [ 390319.945360443321988, 4993605.109475489705801 ], [ 386218.304109146120027, 5000347.513122578151524 ], [ 386579.575421192450449, 5005783.456810967065394 ], [ 381175.984058948175516, 5017704.544844730757177 ], [ 352152.841879489191342, 5018138.412412487901747 ], [ 313641.045442419534083, 5018954.680114716291428 ] ] ] } }
]
}
