{
"type": "FeatureCollection",
"name": "map",
"crs": { "type": "name", "properties": { "name": "urn:ogc:def:crs:EPSG::32617" } },
"features": [
{ "type": "Feature", "properties": { "drag_region": "East", "NAME": "Tucker", "NAMELSAD": "Tucker" }, "geometry": { "type": "Polygon", "coordinates": [ [ [ 649466.315023390226997, 4366947.927504515275359 ], [ 660245.830561171635054, 4371483.533881125971675 ], [ 675516.965752287767828, 4365712.332782792858779 ], [ 678994.870389016577974, 4361669.527612937614322 ], [ 692882.733542006113566, 4365349.857389939948916 ], [ 694475.470464014913887, 4363090.730451879091561 ], [ 690839.602695916197263, 4358445.01632434502244 ], [ 689102.956162591814063, 4351546.497669185511768 ], [ 694097.011118793627247, 4350207.940921632573009 ], [ 690581.408188673784025, 4338602.905330165289342 ], [ 689036.900923118926585, 4338002.686532556079328 ], [ 684664.772432185360231, 4338974.113378190435469 ], [ 675955.277342561283149, 4339017.404077738523483 ], [ 651922.110958460369147, 4345525.806468369439244 ], [ 652794.945528301876038, 4349923.779535449109972 ], [ 648392.69227623520419, 4354156.492293725721538 ], [ 647129.500358783639967, 4355856.583755203522742 ], [ 649466.315023390226997, 4366947.927504515275359 ] ] ] } },
{ "type": "Feature", "properties": { "drag_region": "West", "NAME": "Pocahontas", "NAMELSAD": "Pocahontas" }, "geometry": { "type": "Polygon", "coordinates": [ [ [ 538922.631540577043779, 4178188.103108612354845 ], [ 539687.776385835953988, 4203740.300981534644961 ], [ 541577.29872404166963, 4202705.188409494236112 ], [ 560251.824243493610993, 4218210.667960995808244 ], [ 567783.349628931609914, 4216665.863716514781117 ], [ 582061.94111952802632, 4227125.946511632762849 ], [ 587151.41570559493266, 4244638.703299477696419 ], [ 589603.44745903275907, 4248008.309409848414361 ], [ 593390.52628187648952, 4244913.381469712592661 ], [ 592497.479959885240532, 4241754.547774309292436 ], [ 597833.77039733401034, 4239827.217559368349612 ], [ 599354.86568047828041, 4242614.440387632697821 ], [ 602518.043567729415372, 4239895.985833628103137 ], [ 603215.764558831811883, 4235043.477654671296477 ], [ 600763.671326818293892, 4231765.046977098099887 ], [ 596550.497012728243135, 4220167.05666409432888 ], [ 597577.91500156337861, 4213984.090030238032341 ], [ 593897.109900494222529, 4208211.861540561541915 ], [ 587106.679781145998277, 4199826.697597021237016 ], [ 588417.8931497259764, 4195553.375736055895686 ], [ 585301.95595369907096, 4193606.636581004131585 ], [ 577540.045017477823421, 4185790.222863900009543 ], [ 575400.090958103421144, 4180426.941364299040288 ], [ 577319.583892648341134, 4177684.301130365114659 ], [ 574226.060318933101371, 4172882.483354247640818 ], [ 561324.738978237612173, 4171890.465370796155185 ], [ 555991.069019064772874, 4169648.53543297899887 ], [ 547477.542617456172593, 4170720.76253930432722 ], [ 538922.631540577043779, 4178188.103108612354845 ] ] ] } },
{ "type": "Feature", "properties": { "drag_region": "West", "NAME": "McDowell", "NAMELSAD": "McDowell" }, "geometry": { "type": "Polygon", "coordinates": [ [ [ 360012.065037519321777, 4083300.251267858315259 ], [ 372136.870950959506445, 4090425.394891203846782 ], [ 375584.00318542716559, 4085724.215692437253892 ], [ 385091.810346722253598, 4084408.077616069465876 ], [ 389237.289557167387102, 4087332.592902555596083 ], [ 392406.45550869993167, 4086929.640654071699828 ], [ 394608.482821726996917, 4084055.92317575449124 ], [ 400943.622307941899635, 4082111.676673916168511 ], [ 406977.74884066300001, 4082937.728013827465475 ], [ 409498.897657083929516, 4079113.421371728181839 ], [ 412680.879572688485496, 4080814.969738029874861 ], [ 414576.239209248451516, 4078519.823119613341987 ], [ 420284.286145263409708, 4076402.317964273504913 ], [ 415801.42535834305454, 4066792.340636703651398 ], [ 413249.630389152676798, 4064801.049277843907475 ], [ 410682.297290003858507, 4059570.211073815822601 ], [ 403354.678272770834155, 4057985.585354851093143 ], [ 402702.779421369312331, 4055129.879229791462421 ], [ 398547.528468229167629, 4052389.305962655693293 ], [ 387713.892018980754074, 4051792.524508100468665 ], [ 382330.907006290333811, 4055930.994984859600663 ], [ 381715.9147026175051, 4058699.809478820301592 ], [ 377916.585479867644608, 4061113.363116889260709 ], [ 372192.015329215617385, 4061448.939101717900485 ], [ 370010.868383261724375, 4066425.234269549138844 ], [ 365588.204746767412871, 4069422.288987003732473 ], [ 365037.485881762462668, 4078006.284757154993713 ], [ 360296.384774838224985, 4080151.696365316864103 ], [ 360012.065037519321777, 4083300.251267858315259 ] ] ] } },
{ "type": "Feature", "properties": { "drag_region": "Central", "NAME": "Gilmer", "NAMELSAD": "Gilmer" }, "geometry": { "type": "Polygon", "coordinates": [ [ [ 500125.739258779562078, 4377773.620716230943799 ], [ 510687.715063415467739, 4381780.671005975455046 ], [ 517203.17060710513033, 4385793.628001236356795 ], [ 519369.951856273051817, 4388848.474497037008405 ], [ 526511.962231709738262, 4387341.211465524509549 ], [ 527473.255207456531934, 4377620.194461706094444 ], [ 537156.855459254351445, 4366120.919512863270938 ], [ 534053.203863732982427, 4363915.543183795176446 ], [ 531559.295678721508011, 4364859.479790110141039 ], [ 504482.155308627989143, 4345361.49085137899965 ], [ 503233.950636492052581, 4348602.464560876600444 ], [ 498246.557793826854322, 4353751.585410986095667 ], [ 502922.245363644440658, 4359565.120125033892691 ], [ 501988.984977987303864, 4368144.792034643702209 ], [ 502611.506858973123599, 4372339.243918278254569 ], [ 500125.739258779562078, 4377773.620716230943799 ] ] ] } },
{ "type": "Feature", "properties": { "drag_region": "Central", "NAME": "Wetzel", "NAMELSAD": "Wetzel" }, "geometry": { "type": "Polygon", "coordinates": [ [ [ 519872.464719243289437, 4467346.458519482985139 ], [ 555249.353478626348078, 4467493.795276860706508 ], [ 556482.387866467703134, 4467120.477102969773114 ], [ 557465.727791664772667, 4458164.41593224927783 ], [ 554075.921185586135834, 4458428.368321131914854 ], [ 552565.604932385263965, 4453556.397977720946074 ], [ 550407.216861406806856, 4453734.243442471139133 ], [ 548579.406658943858929, 4449910.07999677490443 ], [ 551095.934780320967548, 4441438.930722063407302 ], [ 548945.948132194112986, 4439519.746631724759936 ], [ 547113.922844368498772, 4435696.046781467273831 ], [ 544646.139101344509982, 4435015.84192178864032 ], [ 538457.651815812801942, 4437370.656037576496601 ], [ 535360.98558087553829, 4439550.964367096312344 ], [ 530419.064830719958991, 4440200.920628455467522 ], [ 527937.542033168952912, 4444292.973881532438099 ], [ 518976.138231851160526, 4452090.145220411010087 ], [ 515277.813087382935919, 4451703.242436676286161 ], [ 510343.998267016024329, 4454654.166768779978156 ], [ 515888.311181297991425, 4456185.054782255552709 ], [ 517108.717874345777091, 4464100.157226273790002 ], [ 519872.464719243289437, 4467346.458519482985139 ] ] ] } },
{ "type": "Feature", "properties": { "drag_region": "West", "NAME": "Webster", "NAMELSAD": "Webster" }, "geometry": { "type": "Polygon", "coordinates": [ [ [ 500889.266854825837072, 4224931.125908887013793 ], [ 515514.691840222280007, 4240724.529416752979159 ], [ 520138.289746160095092, 4251141.539785331115127 ], [ 525762.157248021452688, 4249842.290380915626884 ], [ 529191.429980344604701, 4250247.144383542239666 ], [ 532037.498243693611585, 4245119.824930949136615 ], [ 535462.550927257863805, 4246289.978178104385734 ], [ 544057.41121632559225, 4227581.293650768697262 ], [ 538862.84753315220587, 4212379.349833207204938 ], [ 531382.541301100281999, 4206411.287957524880767 ], [ 529493.018962894566357, 4207446.400529565289617 ], [ 528957.527086879010312, 4194192.474173345137388 ], [ 506903.654553789121564, 4208844.676903134211898 ], [ 505651.226911497360561, 4208362.878175374120474 ], [ 502491.298587777244393, 4214832.578401178121567 ], [ 504366.592434386198875, 4216078.897958969697356 ], [ 500889.266854825837072, 4224931.125908887013793 ] ] ] } },
{ "type": "Feature", "properties": { "drag_region": "Central", "NAME": "Doddridge", "NAMELSAD": "Doddridge" }, "geometry": { "type": "Polygon", "coordinates": [ [ [ 512479.155358046933543, 4411970.411158529110253 ], [ 519894.974603855633177, 4419798.425455327145755 ], [ 528228.768376615131274, 4425634.226427136920393 ], [ 529762.035853241453879, 4429452.470582108944654 ], [ 534703.220255067804828, 4429851.037054083310068 ], [ 538093.033227137639187, 4431771.465996723622084 ], [ 544281.520512669347227, 4429416.651880935765803 ], [ 544316.534964043530636, 4422456.985716845840216 ], [ 545556.780945544596761, 4421795.940605425275862 ], [ 539408.307300534448586, 4413567.383052509278059 ], [ 544389.768701345310546, 4407870.530606825836003 ], [ 542538.403348442167044, 4406336.071901214309037 ], [ 545961.489935564924963, 4403493.041266458109021 ], [ 534826.053447453887202, 4397436.853912687860429 ], [ 531122.39842496428173, 4391799.031867428682745 ], [ 521495.422061270219274, 4393870.488799740560353 ], [ 512479.155358046933543, 4411970.411158529110253 ] ] ] } },
{ "type": "Feature", "properties": { "drag_region": "Central", "NAME": "Randolph", "NAMELSAD": "Randolph" }, "geometry": { "type": "Polygon", "coordinates": [ [ [ 595246.157436175155453, 4367983.154860155656934 ], [ 611695.7253533488838, 4371120.961978696286678 ], [ 614357.20284715865273, 4382118.905438764952123 ], [ 617711.004855401813984, 4386929.164660718291998 ], [ 622113.258107468485832, 4382696.451902441680431 ], [ 621240.423537626978941, 4378298.478835362009704 ], [ 645273.589921727892943, 4371790.076444731093943 ], [ 653983.085011351970024, 4371746.785745183005929 ], [ 658355.213502285536379, 4370775.358899548649788 ], [ 658990.996308616944589, 4370023.888830460608006 ], [ 656886.943025542306714, 4365885.242794339545071 ], [ 650023.291152351070195, 4366814.957975302822888 ], [ 651015.258757347357459, 4363398.708484469912946 ], [ 645454.507098385947756, 4360731.050366965122521 ], [ 642713.139383917441592, 4356872.347771967761219 ], [ 645627.258401817409322, 4350148.871657160110772 ], [ 635531.39144778077025, 4337117.894584659487009 ], [ 632368.213560529635288, 4339836.349138664081693 ], [ 630847.118277385365218, 4337049.126310399733484 ], [ 625510.82783993659541, 4338976.456525340676308 ], [ 626403.874161927844398, 4342135.290220743976533 ], [ 622616.795339084113948, 4345230.218160879798234 ], [ 620164.763585646287538, 4341860.612050509080291 ], [ 615075.288999579381198, 4324347.855262664146721 ], [ 600796.697508982964791, 4313887.772467546164989 ], [ 593265.172123544965871, 4315432.576712027192116 ], [ 582070.952836144948378, 4305895.159036207944155 ], [ 587265.516519318334758, 4321097.102853769436479 ], [ 578670.656230250606313, 4339805.787381104193628 ], [ 582371.093107075197622, 4345269.784183690324426 ], [ 592038.167919639497995, 4345642.225664196535945 ], [ 594429.99190777388867, 4356152.741567693650723 ], [ 593434.922487718868069, 4362340.082644920796156 ], [ 595246.157436175155453, 4367983.154860155656934 ] ] ] } },
{ "type": "Feature", "properties": { "drag_region": "West", "NAME": "Greenbrier", "NAMELSAD": "Greenbrier" }, "geometry": { "type": "Polygon", "coordinates": [ [ [ 481955.095144833438098, 4166557.835715996101499 ], [ 497068.398919516243041, 4163921.990388829261065 ], [ 512741.079048715881072, 4177235.297350652515888 ], [ 520866.096005345229059, 4184906.279993100091815 ], [ 527806.125577580882236, 4180280.506972729228437 ], [ 527576.472608337528072, 4167982.235456028021872 ], [ 536131.383685216656886, 4160514.894886719994247 ], [ 544644.910086825257167, 4159442.667780394665897 ], [ 549978.580045998096466, 4161684.597718211822212 ], [ 562879.901386693585664, 4162676.615701663307846 ], [ 558563.981070135720074, 4153954.540492580272257 ], [ 543563.770022895303555, 4139033.892467220779508 ], [ 537017.325806013075635, 4128303.478179371915758 ], [ 537677.116638291510753, 4124877.268975652288646 ], [ 533909.416406147996895, 4121130.649310544598848 ], [ 525997.562497467501089, 4121170.193202155642211 ], [ 525030.996088534360752, 4123832.718857882078737 ], [ 520307.730509694782086, 4120086.31636103708297 ], [ 515239.474659910076298, 4120915.887635872233659 ], [ 501299.640513918711804, 4125333.852847769390792 ], [ 500970.849290025769733, 4128859.223103971686214 ], [ 493678.220476443588268, 4136842.779148108325899 ], [ 488617.232403394649737, 4140548.00653929123655 ], [ 493669.559317122504581, 4140083.395621758885682 ], [ 488283.619517226179596, 4149411.481658310629427 ], [ 492057.858273588411976, 4153423.207120340317488 ], [ 489526.527470070053823, 4157897.112677540630102 ], [ 486690.102325168903917, 4158558.625133546069264 ], [ 489202.514079534972552, 4162090.305477454327047 ], [ 483535.85628064890625, 4161508.227228887379169 ], [ 481014.079741028195713, 4163887.855696265585721 ], [ 481955.095144833438098, 4166557.835715996101499 ] ] ] } },
{ "type": "Feature", "properties": { "drag_region": "West", "NAME": "Mercer", "NAMELSAD": "Mercer" }, "geometry": { "type": "Polygon", "coordinates": [ [ [ 426893.811054883117322, 4067962.712177672889084 ], [ 431376.671841803472489, 4077572.689505242742598 ], [ 433915.577462756424211, 4076992.88035981869325 ], [ 431706.658178428304382, 4081383.881067334674299 ], [ 435527.04519500938477, 4085375.209892443846911 ], [ 439338.410040465299971, 4087080.933100593276322 ], [ 441256.823504139727447, 4094224.727889378555119 ], [ 446965.28966368600959, 4096692.603828878607601 ], [ 450449.620918402448297, 4095735.266248167958111 ], [ 471390.520014851295855, 4078013.462560686282814 ], [ 469173.869286343338899, 4072959.253884088248014 ], [ 472040.08914236642886, 4068865.198617742396891 ], [ 466003.715001742530148, 4064378.57824183255434 ], [ 460596.74873085191939, 4062850.847948802635074 ], [ 460596.528645929822233, 4063899.181803470011801 ], [ 448823.985677353397477, 4061331.795354850124568 ], [ 438948.525690226000734, 4056488.941207665018737 ], [ 430376.613643101241905, 4063661.420075963251293 ], [ 426893.811054883117322, 4067962.712177672889084 ] ] ] } },
{ "type": "Feature", "properties": { "drag_region": "Central", "NAME": "Marshall", "NAMELSAD": "Marshall" }, "geometry": { "type": "Polygon", "coordinates": [ [ [ 520296.316908892069478, 4486993.277328756637871 ], [ 523055.292904313711915, 4488906.171064952388406 ], [ 521814.862208381120581, 4494624.11707790941 ], [ 525805.387187578831799, 4493585.094912995584309 ], [ 525178.749426077352837, 4498541.458593358285725 ], [ 527319.295887306216173, 4500454.3539999704808 ], [ 527911.713319785194471, 4507321.183643544092774 ], [ 545989.315802261698991, 4505585.30760380718857 ], [ 546370.964901490253396, 4491666.290032586082816 ], [ 546165.195781380753033, 4472786.399674337357283 ], [ 519401.841440167219844, 4472689.937177191488445 ], [ 516319.743226379912812, 4476689.227261512540281 ], [ 520000.404602537513711, 4481272.008763672783971 ], [ 520296.316908892069478, 4486993.277328756637871 ] ] ] } },
{ "type": "Feature", "properties": { "drag_region": "Central", "NAME": "Barbour", "NAMELSAD": "Barbour" }, "geometry": { "type": "Polygon", "coordinates": [ [ [ 585462.764622986200266, 4407160.163763120770454 ], [ 597846.459191459463909, 4407856.193768468685448 ], [ 603085.53604662430007, 4410202.963165089488029 ], [ 605214.859255127375945, 4413469.666248353198171 ], [ 608617.121865328052081, 4413701.14813675172627 ], [ 611732.55474213231355, 4412118.763784549199045 ], [ 612714.572789324214682, 4407935.601335633546114 ], [ 616145.438242164789699, 4406168.19424663670361 ], [ 613808.623577558202669, 4395076.850497324950993 ], [ 615071.815495009766892, 4393376.759035847149789 ], [ 611718.013486766605638, 4388566.499813893809915 ], [ 609056.535992956836708, 4377568.55635382514447 ], [ 592606.968075783108361, 4374430.749235284514725 ], [ 595373.696340881404467, 4377605.291861918754876 ], [ 595302.367168475408107, 4384469.311874574050307 ], [ 588777.844356067129411, 4384499.511997579596937 ], [ 585310.224322947789915, 4389996.918139106594026 ], [ 580319.892776384134777, 4392717.75530977267772 ], [ 580264.63654327695258, 4399200.52801010850817 ], [ 585462.764622986200266, 4407160.163763120770454 ] ] ] } },
{ "type": "Feature", "properties": { "drag_region": "East", "NAME": "Preston", "NAMELSAD": "Preston" }, "geometry": { "type": "Polygon", "coordinates": [ [ [ 649491.859185855602846, 4431435.625462893396616 ], [ 674103.090937751345336, 4431814.566895603202283 ], [ 674161.218969839625061, 4373352.595902819186449 ], [ 672262.15843585296534, 4375705.290623735636473 ], [ 656991.023244736832567, 4381476.491722068749368 ], [ 646211.50770695542451, 4376940.885345458053052 ], [ 642780.642254114849493, 4378708.292434454895556 ], [ 641798.62420692294836, 4382891.454883370548487 ], [ 638683.191330118686892, 4384473.839235573075712 ], [ 638126.189903691294603, 4404777.627089298330247 ], [ 647483.859441007021815, 4420632.143567082472146 ], [ 649491.859185855602846, 4431435.625462893396616 ] ] ] } },
{ "type": "Feature", "properties": { "drag_region": "West", "NAME": "Summers", "NAMELSAD": "Summers" }, "geometry": { "type": "Polygon", "coordinates": [ [ [ 468352.054888158221729, 4128248.13803977239877 ], [ 480344.990814200020395, 4133792.159951484762132 ], [ 485405.978887249017134, 4130086.932560301851481 ], [ 492698.607700831140392, 4122103.376516165211797 ], [ 493350.582814953289926, 4116672.938668004702777 ], [ 475999.280470423866063, 4084890.8199477577582 ], [ 455058.237931082840078, 4102707.928911566734314 ], [ 457911.824897769023664, 4105183.542304118629545 ], [ 457597.461926612188108, 4108614.863031540531665 ], [ 468042.581555713084526, 4116715.36230383394286 ], [ 474057.793299415963702, 4113099.131700138561428 ], [ 472469.747083856025711, 4118243.976312778424472 ], [ 470254.559362992411479, 4119671.504698127973825 ], [ 472781.284545882372186, 4122437.986190571449697 ], [ 468352.054888158221729, 4128248.13803977239877 ] ] ] } },
{ "type": "Feature", "properties": { "drag_region": "Central", "NAME": "Brooke", "NAMELSAD": "Brooke" }, "geometry": { "type": "Polygon", "coordinates": [ [ [ 537713.204003143357113, 4557245.423160750418901 ], [ 547153.034063377999701, 4557863.181062147952616 ], [ 546992.838593046064489, 4531162.853011039085686 ], [ 540564.669503074954264, 4533133.304815894924104 ], [ 533227.138751492020674, 4534057.010484402067959 ], [ 535645.846921002492309, 4540645.37771132402122 ], [ 538689.225532144424506, 4542851.013711561448872 ], [ 540187.195815551909618, 4549055.659242128022015 ], [ 539553.164124838542193, 4554488.064436235465109 ], [ 537713.204003143357113, 4557245.423160750418901 ] ] ] } },
{ "type": "Feature", "properties": { "drag_region": "East", "NAME": "Mineral", "NAMELSAD": "Mineral" }, "geometry": { "type": "Polygon", "coordinates": [ [ [ 725686.197117711999454, 4402426.255939400754869 ], [ 735344.036470653372817, 4398823.525990261696279 ], [ 738622.948276721639559, 4404050.25409855786711 ], [ 749981.811596891842782, 4419396.412627107463777 ], [ 754011.268639922491275, 4418542.929009172134101 ], [ 750038.377777301822789, 4417107.908025790937245 ], [ 754088.257835994125344, 4415491.5765276318416 ], [ 754767.512977270060219, 4413027.935366651974618 ], [ 760710.954310263972729, 4409936.274433363229036 ], [ 754740.566298247780651, 4401863.769775491207838 ], [ 751388.483715735725127, 4399967.224320391193032 ], [ 744592.894205512246117, 4386826.99637898709625 ], [ 741812.797199560911395, 4386570.59306416567415 ], [ 738226.76582939887885, 4380954.341023373417556 ], [ 733684.571132892859168, 4376272.647786001674831 ], [ 720192.310307603911497, 4384282.000956499017775 ], [ 708396.251851535751484, 4385955.209414819255471 ], [ 709884.20665910479147, 4389035.992779973894358 ], [ 719353.734463266679086, 4394948.078199859708548 ], [ 723220.228387133101933, 4402182.957182645797729 ], [ 725686.197117711999454, 4402426.255939400754869 ] ] ] } },
{ "type": "Feature", "properties": { "drag_region": "West", "NAME": "Cabell", "NAMELSAD": "Cabell" }, "geometry": { "type": "Polygon", "coordinates": [ [ [ 303970.339198169065639, 4214026.705888095311821 ], [ 313106.508050251577515, 4217028.896189954131842 ], [ 320326.567425831628498, 4217970.857911892235279 ], [ 321958.83879183663521, 4222619.587886350229383 ], [ 323666.751346885052044, 4232797.719870135188103 ], [ 329619.493906578107271, 4233670.010311890393496 ], [ 343850.433190185867716, 4220527.724244277924299 ], [ 344350.059062951651867, 4209367.557743691839278 ], [ 339951.502853234764189, 4208655.917918939143419 ], [ 338038.93982841464458, 4206104.726577492430806 ], [ 333014.200092681159731, 4205690.422411899082363 ], [ 330117.512087124516256, 4200102.700959695503116 ], [ 327265.513171220605727, 4198138.289071560837328 ], [ 325003.759313090180513, 4193497.177962831687182 ], [ 321879.508159157529008, 4194779.933491694740951 ], [ 321651.436777671333402, 4200885.131224858574569 ], [ 324175.652269059035461, 4201803.331431428901851 ], [ 320766.78164623019984, 4204902.143422401510179 ], [ 317902.907430328661576, 4202178.398920705541968 ], [ 303970.339198169065639, 4214026.705888095311821 ] ] ] } },
{ "type": "Feature", "properties": { "drag_region": "West", "NAME": "Clay", "NAMELSAD": "Clay" }, "geometry": { "type": "Polygon", "coordinates": [ [ [ 434474.653750716184732, 4219177.013532247394323 ], [ 447639.353400740190409, 4229442.440491450019181 ], [ 456398.55353987950366, 4240778.374241730198264 ], [ 461083.533934593317099, 4236011.946826674044132 ], [ 461709.584698559017852, 4232485.128612187691033 ], [ 465461.710686445701867, 4230962.073980811983347 ], [ 466090.335115986817982, 4227149.654367167502642 ], [ 469536.444244376907591, 4222959.203780971467495 ], [ 474862.750846047885716, 4219822.279602418653667 ], [ 466729.757038530136924, 4212661.239923753775656 ], [ 438799.702227062836755, 4195906.570094596594572 ], [ 436948.830910838849377, 4208017.122007531113923 ], [ 434474.653750716184732, 4219177.013532247394323 ] ] ] } },
{ "type": "Feature", "properties": { "drag_region": "Central", "NAME": "Wirt", "NAMELSAD": "Wirt" }, "geometry": { "type": "Polygon", "coordinates": [ [ [ 469355.467580187774729, 4398457.090262044221163 ], [ 466861.408190164540429, 4394556.988098164089024 ], [ 472429.87315293221036, 4389676.790673950687051 ], [ 473649.250733251916245, 4381665.386435926891863 ], [ 479553.151755083410535, 4382414.073396049439907 ], [ 481104.035670653218403, 4381171.824783977121115 ], [ 471441.647062873118557, 4370708.608505258336663 ], [ 471123.295910818327684, 4368326.306393501348794 ], [ 465514.570845970301889, 4366343.44416165817529 ], [ 456512.854638288263232, 4371434.984595995396376 ], [ 451521.145759879087564, 4368791.692907663993537 ], [ 447508.838703879097011, 4374248.943839012645185 ], [ 449088.697256121551618, 4378529.61051828879863 ], [ 444752.407106274797115, 4380844.2521085543558 ], [ 458479.921079273510259, 4392971.082328480668366 ], [ 460652.221606514591258, 4393151.878104788251221 ], [ 469355.467580187774729, 4398457.090262044221163 ] ] ] } },
{ "type": "Feature", "properties": { "drag_region": "Central", "NAME": "Calhoun", "NAMELSAD": "Calhoun" }, "geometry": { "type": "Polygon", "coordinates": [ [ [ 485053.998822214954998, 4378263.293700272217393 ], [ 487541.756864976196084, 4379879.862411572597921 ], [ 490334.32200329558691, 4377302.278757254593074 ], [ 496237.269841733854264, 4375963.227231113240123 ], [ 498723.037441927415784, 4370528.850433160550892 ], [ 498100.51556094159605, 4366334.398549525998533 ], [ 499033.775946598732844, 4357754.726639916189015 ], [ 494358.088376781146508, 4351941.191925868391991 ], [ 499345.481219446344767, 4346792.071075758896768 ], [ 500593.685891582281329, 4343551.097366261295974 ], [ 491845.954316725255921, 4331829.325237307697535 ], [ 490286.777617935382295, 4334785.976641841232777 ], [ 485289.727073686663061, 4335365.056506334803998 ], [ 484372.507735680905171, 4346043.234548848122358 ], [ 479396.220566657430027, 4351964.369341452606022 ], [ 480033.208847765170503, 4357587.190577200613916 ], [ 478486.493625794129912, 4361690.239310145378113 ], [ 475073.259062380064279, 4365417.775309796445072 ], [ 475391.610214434855152, 4367800.077421553432941 ], [ 485053.998822214954998, 4378263.293700272217393 ] ] ] } },
{ "type": "Feature", "properties": { "drag_region": "West", "NAME": "Logan", "NAMELSAD": "Logan" }, "geometry": { "type": "Polygon", "coordinates": [ [ [ 338481.953921492269728, 4150301.767627878114581 ], [ 351142.45830774481874, 4154630.309212269261479 ], [ 361236.392369981156662, 4155666.957062394358218 ], [ 356780.684540812566411, 4151423.005483409389853 ], [ 363071.60223584191408, 4150024.521622859872878 ], [ 367457.806380453868769, 4147027.777710881084204 ], [ 374382.96582857274916, 4145441.659037145785987 ], [ 376232.027728743385524, 4140088.382915298454463 ], [ 374320.74362444068538, 4138007.086032214108855 ], [ 379322.567894358071499, 4131580.376265732105821 ], [ 385974.008384159067646, 4133914.540247280616313 ], [ 389418.028843968932051, 4129220.858165348879993 ], [ 381821.134911356377415, 4127653.380416323430836 ], [ 375478.06988994992571, 4125129.299639091361314 ], [ 381128.215783251391258, 4119556.577058693394065 ], [ 372229.569619813992176, 4115052.717494663316756 ], [ 366550.382350675587077, 4117200.286812019068748 ], [ 363366.030399659706745, 4115228.605192669201642 ], [ 362436.704004372411873, 4117334.670586181804538 ], [ 356725.677196973410901, 4116057.774339323863387 ], [ 355435.238743993686512, 4113783.578505246900022 ], [ 351068.978117583028506, 4119836.398904799018055 ], [ 347588.386441367445514, 4119875.86886635934934 ], [ 345437.706122531846631, 4125334.678134703077376 ], [ 345504.283331219805405, 4130958.281061593908817 ], [ 342080.983418794581667, 4135289.424818661995232 ], [ 345265.36604031076422, 4137443.530845547560602 ], [ 344055.257142254267819, 4141843.242071833461523 ], [ 340601.761694607499521, 4143315.623168180696666 ], [ 338481.953921492269728, 4150301.767627878114581 ] ] ] } },
{ "type": "Feature", "properties": { "drag_region": "East", "NAME": "Pendleton", "NAMELSAD": "Pendleton" }, "geometry": { "type": "Polygon", "coordinates": [ [ [ 670451.4593267821474, 4291952.681070641614497 ], [ 680547.326280818786472, 4304983.658143142238259 ], [ 677633.207262918818742, 4311707.134257949888706 ], [ 680374.574977387324907, 4315565.836852947250009 ], [ 685935.32663634873461, 4318233.494970452040434 ], [ 684943.359031352447346, 4321649.744461284950376 ], [ 691807.010904543683864, 4320720.029280321672559 ], [ 693911.064187618321739, 4324858.675316442735493 ], [ 719877.709967120666988, 4303624.061031367629766 ], [ 717166.343005690840073, 4298988.685139715671539 ], [ 716995.226969758747146, 4292213.223736025393009 ], [ 714494.665210211998783, 4292256.959695369936526 ], [ 705827.886076367460191, 4271865.660058153793216 ], [ 698447.905332567403093, 4264383.778064186684787 ], [ 683948.512216956471093, 4269185.056451078504324 ], [ 678459.138914996408857, 4279489.677628982812166 ], [ 668697.08708587102592, 4283821.742214111611247 ], [ 671149.180317884543911, 4287100.172891684807837 ], [ 670451.4593267821474, 4291952.681070641614497 ] ] ] } },
{ "type": "Feature", "properties": { "drag_region": "Central", "NAME": "Ritchie", "NAMELSAD": "Ritchie" }, "geometry": { "type": "Polygon", "coordinates": [ [ [ 474581.053947325563058, 4401216.118354437872767 ], [ 474277.122121511842124, 4403028.499062059447169 ], [ 478016.934263289731462, 4410262.39086988940835 ], [ 479874.965468486421742, 4410352.60890057682991 ], [ 481433.789482475374825, 4414734.121788343414664 ], [ 490099.330227036494762, 4415385.15053977444768 ], [ 496598.062515150173567, 4416999.939557652920485 ], [ 499691.914037457550876, 4419477.767257772386074 ], [ 503712.843647537054494, 4418239.037109885364771 ], [ 506183.265623096609488, 4423769.997792612761259 ], [ 510514.744232390949037, 4420532.932791078463197 ], [ 509905.200398503686301, 4413191.272153619676828 ], [ 507740.838951580110006, 4410805.562546806409955 ], [ 516757.105654803395737, 4392705.640188017860055 ], [ 514590.32440563547425, 4389650.793692218139768 ], [ 508074.868861945811659, 4385637.836696956306696 ], [ 497512.893057309905998, 4381630.786407211795449 ], [ 491609.945218871638644, 4382969.837933354079723 ], [ 488817.380080552247819, 4385547.42158767208457 ], [ 486329.622037791006733, 4383930.852876370772719 ], [ 484778.738122221198864, 4385173.101488443091512 ], [ 478874.837100389704574, 4384424.414528321474791 ], [ 477655.459520069998689, 4392435.818766344338655 ], [ 472086.994557302328758, 4397316.016190558671951 ], [ 474581.053947325563058, 4401216.118354437872767 ] ] ] } },
{ "type": "Feature", "properties": { "drag_region": "Central", "NAME": "Tyler", "NAMELSAD": "Tyler" }, "geometry": { "type": "Polygon", "coordinates": [ [ [ 499471.143522405938711, 4444872.989001751877367 ], [ 507485.652085750654805, 4452310.333974934183061 ], [ 512419.466906117566396, 4449359.409642830491066 ], [ 516117.792050585791003, 4449746.312426565214992 ], [ 525079.195851903525181, 4441949.141087686643004 ], [ 527560.71864945453126, 4437857.087834609672427 ], [ 532502.639399610110559, 4437207.131573250517249 ], [ 535599.305634547374211, 4435026.823243730701506 ], [ 532209.492662477539852, 4433106.39430109038949 ], [ 527268.308260651188903, 4432707.827829116024077 ], [ 525735.040784024866298, 4428889.583674143999815 ], [ 517401.247011265426408, 4423053.782702334225178 ], [ 512149.78921238030307, 4417611.478012349456549 ], [ 512759.333046267565805, 4424953.138649807311594 ], [ 508427.854436973226257, 4428190.203651341609657 ], [ 505957.432461413671263, 4422659.242968614213169 ], [ 501936.502851334167644, 4423897.973116501234472 ], [ 500393.844056421658024, 4436196.808986069634557 ], [ 497307.238211463496555, 4437819.09622510895133 ], [ 492365.101256520661991, 4435726.659993635490537 ], [ 493912.846485097485129, 4439061.606048256158829 ], [ 499471.143522405938711, 4444872.989001751877367 ] ] ] } },
{ "type": "Feature", "properties": { "drag_region": "Central", "NAME": "Marion", "NAMELSAD": "Marion" }, "geometry": { "type": "Polygon", "coordinates": [ [ [ 562306.053988459520042, 4456608.333281357772648 ], [ 566330.120462259976193, 4453871.417389141395688 ], [ 582970.014963089372031, 4453819.319221617653966 ], [ 599179.394261256442405, 4437683.119930965825915 ], [ 601664.184437535586767, 4436472.357300363481045 ], [ 594313.168535268981941, 4430763.607210800983012 ], [ 589076.735481985262595, 4428992.538667707704008 ], [ 585968.905054408241995, 4430677.984800702892244 ], [ 579487.425929963006638, 4429664.193635587580502 ], [ 572032.378400550805964, 4434273.419139514677227 ], [ 553786.274328988860361, 4437963.663980833254755 ], [ 555936.260977115714923, 4439882.84807117190212 ], [ 553419.732855738606304, 4448353.997345883399248 ], [ 555247.543058201554231, 4452178.160791579633951 ], [ 557405.931129180011339, 4452000.315326829440892 ], [ 558916.247382380883209, 4456872.285670240409672 ], [ 562306.053988459520042, 4456608.333281357772648 ] ] ] } },
{ "type": "Feature", "properties": { "drag_region": "Central", "NAME": "Wood", "NAMELSAD": "Wood" }, "geometry": { "type": "Polygon", "coordinates": [ [ [ 427696.246012536576018, 4401449.477772045880556 ], [ 430207.710094742593355, 4405337.969549497589469 ], [ 433315.041506433568429, 4406457.763238852843642 ], [ 434283.866543999582063, 4411694.224000305868685 ], [ 443877.478773756942246, 4410960.653990518301725 ], [ 444855.193764000025112, 4418867.814773084595799 ], [ 452625.707987033820245, 4426069.560247575864196 ], [ 455409.275074751465581, 4426532.317633617669344 ], [ 464944.725608731794637, 4414288.825477041304111 ], [ 470513.700295227987226, 4413603.466928726062179 ], [ 472363.784978976298589, 4410928.953505549579859 ], [ 470505.753773779608309, 4410838.735474861226976 ], [ 466765.941632001718972, 4403604.843667031265795 ], [ 467069.873457815439906, 4401792.462959410622716 ], [ 458366.627484142256435, 4396487.250802154652774 ], [ 456194.326956901175436, 4396306.455025847069919 ], [ 442466.812983902462292, 4384179.624805920757353 ], [ 428238.47444397979416, 4392006.200460004620254 ], [ 427696.246012536576018, 4401449.477772045880556 ] ] ] } },
{ "type": "Feature", "properties": { "drag_region": "Central", "NAME": "Harrison", "NAMELSAD": "Harrison" }, "geometry": { "type": "Polygon", "coordinates": [ [ [ 547415.582125255023129, 4429640.578053659759462 ], [ 549883.36586827901192, 4430320.782913338392973 ], [ 551715.391156104626134, 4434144.482763595879078 ], [ 569961.495227666571736, 4430454.23792227730155 ], [ 577416.542757078772411, 4425845.012418350204825 ], [ 577227.084464723709971, 4412304.266145708970726 ], [ 580352.293124625226483, 4409186.08135353308171 ], [ 575154.165044915978797, 4401226.445600520819426 ], [ 575209.421278023160994, 4394743.672900184988976 ], [ 568700.889366195304319, 4393642.193605563603342 ], [ 543220.541131234378554, 4400542.486556565389037 ], [ 549095.551548150600865, 4403716.96743918210268 ], [ 545672.464961027842946, 4406559.998073938302696 ], [ 547523.830313930986449, 4408094.456779549829662 ], [ 542542.368913120124489, 4413791.309225233271718 ], [ 548690.842558130272664, 4422019.866778149269521 ], [ 547450.596576629206538, 4422680.911889569833875 ], [ 547415.582125255023129, 4429640.578053659759462 ] ] ] } },
{ "type": "Feature", "properties": { "drag_region": "Central", "NAME": "Taylor", "NAMELSAD": "Taylor" }, "geometry": { "type": "Polygon", "coordinates": [ [ [ 581935.887818100512959, 4427001.189027805812657 ], [ 588417.366942545748316, 4428014.980192921124399 ], [ 591525.197370122768916, 4426329.534059925936162 ], [ 596761.630423406488262, 4428100.602603019215167 ], [ 604112.646325673093088, 4433809.3526925817132 ], [ 607840.730698140338063, 4432042.351120482198894 ], [ 608025.995427988818847, 4416883.242336619645357 ], [ 604623.732817788142711, 4416651.760448221117258 ], [ 602494.409609285066836, 4413385.057364957407117 ], [ 597255.332754120230675, 4411038.287968336604536 ], [ 584871.638185646967031, 4410342.257962988689542 ], [ 581746.429525745450519, 4413460.442755164578557 ], [ 581935.887818100512959, 4427001.189027805812657 ] ] ] } },
{ "type": "Feature", "properties": { "drag_region": "West", "NAME": "Boone", "NAMELSAD": "Boone" }, "geometry": { "type": "Polygon", "coordinates": [ [ [ 366592.790059045015369, 4160469.770617454312742 ], [ 363156.294463264581282, 4163269.44130293186754 ], [ 364809.154459703189787, 4170878.668989071622491 ], [ 367048.74380023899721, 4174573.822203480638564 ], [ 371435.318929089931771, 4172815.221013640984893 ], [ 370524.528388381877448, 4176255.70958674326539 ], [ 373673.977338045195211, 4176798.112420785240829 ], [ 375282.009342284756713, 4180787.249356367625296 ], [ 381269.139979995321482, 4182737.38298465218395 ], [ 383756.630398462468293, 4179476.101537655107677 ], [ 384719.684509785671253, 4182042.282683317549527 ], [ 391945.318190844845958, 4181893.473937870003283 ], [ 391603.802365265262779, 4177987.578264360316098 ], [ 395682.199808907462284, 4176720.903114821761847 ], [ 398486.557739849027712, 4172604.370153760537505 ], [ 403189.41798269940773, 4169812.608263312838972 ], [ 401278.371015230426565, 4165819.986406265757978 ], [ 405365.848362797813024, 4164844.21650720667094 ], [ 407862.381699416728225, 4160351.477422434836626 ], [ 408155.839436530135572, 4155965.417006936855614 ], [ 403743.748817987507209, 4156083.611192242242396 ], [ 400896.041067881975323, 4154193.273817277513444 ], [ 398969.453232051280793, 4148390.266801310703158 ], [ 398917.822961822676007, 4139812.038324969820678 ], [ 403009.179286810860503, 4137214.933369970880449 ], [ 402992.375948508328293, 4134164.941317388322204 ], [ 397601.133092443051282, 4131146.29815481742844 ], [ 394774.426533032790758, 4134023.671720408834517 ], [ 391330.406073222926352, 4138717.353802340570837 ], [ 384678.965583421930205, 4136383.189820792060345 ], [ 379677.141313504544087, 4142809.899587274063379 ], [ 381588.42541780724423, 4144891.196470358408988 ], [ 379739.363517636607867, 4150244.472592205740511 ], [ 372814.204069517727476, 4151830.591265941038728 ], [ 368427.999924905772787, 4154827.335177919827402 ], [ 362137.082229876425117, 4156225.819038469344378 ], [ 366592.790059045015369, 4160469.770617454312742 ] ] ] } },
{ "type": "Feature", "properties": { "drag_region": "West", "NAME": "Fayette", "NAMELSAD": "Fayette" }, "geometry": { "type": "Polygon", "coordinates": [ [ [ 424793.614886683470104, 4154306.625777461566031 ], [ 429283.20456130115781, 4175545.151900823228061 ], [ 438115.885093011485878, 4186861.263405811041594 ], [ 445017.152314614562783, 4182748.237508854828775 ], [ 446589.33460707066115, 4183698.986538774333894 ], [ 451926.01433063094737, 4179403.679543093778193 ], [ 453185.054572105756961, 4182357.634362377226353 ], [ 457583.309640147897881, 4180449.661093693226576 ], [ 459782.710723316122312, 4182356.10782350320369 ], [ 463240.576122551748995, 4179116.644290179945529 ], [ 462613.474985743814614, 4176256.768286791630089 ], [ 468596.270378252083901, 4169113.340949733741581 ], [ 467655.254974446841516, 4166443.360930003225803 ], [ 470177.031514067552052, 4164063.732462625019252 ], [ 475843.689312953618355, 4164645.81071119196713 ], [ 473331.27755858754972, 4161114.130367283709347 ], [ 476167.702703488699626, 4160452.617911278270185 ], [ 478699.033507007057779, 4155978.712354077957571 ], [ 474924.794750644825399, 4151966.98689204826951 ], [ 480310.734550541150384, 4142638.900855496525764 ], [ 475258.407636813295539, 4143103.511773028876632 ], [ 463265.471710771438666, 4137559.48986131651327 ], [ 460421.964868681912776, 4139083.271375844720751 ], [ 453473.564732526079752, 4139370.400017710402608 ], [ 451897.924133501714095, 4143851.160713937133551 ], [ 432331.758846976910718, 4145414.909005996771157 ], [ 431716.357325686374679, 4150277.916922108270228 ], [ 427949.074780521041248, 4155056.811828542500734 ], [ 424793.614886683470104, 4154306.625777461566031 ] ] ] } },
{ "type": "Feature", "properties": { "drag_region": "West", "NAME": "Kanawha", "NAMELSAD": "Kanawha" }, "geometry": { "type": "Polygon", "coordinates": [ [ [ 390854.367681603005622, 4233527.281998974271119 ], [ 396422.972770165652037, 4225479.158540643751621 ], [ 406154.950135559425689, 4231900.313696911558509 ], [ 411119.625524499046151, 4224914.744064183905721 ], [ 425188.300972691096831, 4223140.142165096476674 ], [ 427686.668067933467682, 4221702.432930547744036 ], [ 434571.549971046100836, 4222352.111867601051927 ], [ 427044.272196528618224, 4216270.923627221956849 ], [ 429518.449356651282869, 4205111.032102505676448 ], [ 431369.320672875270247, 4193000.480189571157098 ], [ 422536.640141164942179, 4181684.368684583343565 ], [ 418047.050466547254473, 4160445.842561221681535 ], [ 413317.215059498266783, 4160275.985982715152204 ], [ 411436.3640008509974, 4162477.30179460067302 ], [ 411142.906263737590052, 4166863.362210098654032 ], [ 408646.372927118674852, 4171356.101294870488346 ], [ 404558.895579551288392, 4172331.871193929575384 ], [ 406469.942547020269558, 4176324.493050976656377 ], [ 401767.082304169889539, 4179116.254941424354911 ], [ 398962.724373228324112, 4183232.787902485579252 ], [ 394884.326929586124606, 4184499.463052024133503 ], [ 395225.842755165707786, 4188405.358725533820689 ], [ 388000.20907410653308, 4188554.167470981366932 ], [ 387037.15496278333012, 4185987.986325318925083 ], [ 384549.66454431618331, 4189249.267772316001356 ], [ 378562.53390660561854, 4187299.134144031442702 ], [ 380773.048008239537012, 4188518.779579210095108 ], [ 381443.561213221168146, 4193374.663180720992386 ], [ 380238.048484374885447, 4199104.937224676832557 ], [ 371463.474614016362466, 4200331.213279334828258 ], [ 373111.081473669270054, 4208418.257642600685358 ], [ 377209.378922257455997, 4210953.311426188796759 ], [ 388213.986364223528653, 4215720.890525357797742 ], [ 385761.350726019241847, 4222127.781688594259322 ], [ 385813.835353169124573, 4228514.578475198708475 ], [ 390854.367681603005622, 4233527.281998974271119 ] ] ] } },
{ "type": "Feature", "properties": { "drag_region": "West", "NAME": "Roane", "NAMELSAD": "Roane" }, "geometry": { "type": "Polygon", "coordinates": [ [ [ 410586.44847107824171, 4275724.063026503659785 ], [ 415578.157349487417378, 4278367.354714835062623 ], [ 424579.873557169456035, 4273275.814280497841537 ], [ 430188.59862201748183, 4275258.676512341015041 ], [ 433601.833185431547463, 4271531.140512689948082 ], [ 435148.548407402588055, 4267428.091779745183885 ], [ 434511.560126294847578, 4261805.270543997175992 ], [ 439487.847295318322722, 4255884.135751392692327 ], [ 440405.066633324080613, 4245205.957708879373968 ], [ 445402.117177572799847, 4244626.877844385802746 ], [ 446961.293876362673473, 4241670.226439852267504 ], [ 442891.545311816851608, 4236527.484180083498359 ], [ 437254.123436310328543, 4232343.245461259968579 ], [ 430369.241533197695389, 4231693.566524206660688 ], [ 427870.874437955324538, 4233131.275758755393326 ], [ 413802.198989763273858, 4234905.877657842822373 ], [ 408837.523600823653396, 4241891.447290570475161 ], [ 406689.30849449505331, 4248481.673814528621733 ], [ 408971.741926879622042, 4265437.228483055718243 ], [ 408709.020855566952378, 4273923.331554096192122 ], [ 410586.44847107824171, 4275724.063026503659785 ] ] ] } },
{ "type": "Feature", "properties": { "drag_region": "East", "NAME": "Hampshire", "NAMELSAD": "Hampshire" }, "geometry": { "type": "Polygon", "coordinates": [ [ [ 767127.481350960209966, 4408214.889243646524847 ], [ 772677.951366951456293, 4408456.81511774007231 ], [ 774883.84074304997921, 4406798.487074129283428 ], [ 783534.553657961310819, 4406655.388842291198671 ], [ 794192.528991267783567, 4401331.621818069368601 ], [ 793130.435553550021723, 4395383.14121478330344 ], [ 794754.384378950111568, 4392758.524311237037182 ], [ 792999.697949096327648, 4389271.254649927839637 ], [ 795195.699335121084005, 4388285.853759109973907 ], [ 788369.311202282784507, 4377971.776349153369665 ], [ 790268.845651266630739, 4376594.64934590831399 ], [ 787006.734620163915679, 4371348.377691834233701 ], [ 790205.094994217390195, 4368003.892086687497795 ], [ 785408.447723255725577, 4361951.474771366454661 ], [ 781449.609041240299121, 4359074.438085616566241 ], [ 776664.402620146749541, 4363715.498703205026686 ], [ 772915.831037113443017, 4364569.792418231256306 ], [ 771427.086477817269042, 4362145.231281463988125 ], [ 764827.766300634481013, 4365219.042742761783302 ], [ 761720.953702202998102, 4365331.60564813669771 ], [ 747326.100921382429078, 4370422.778369538486004 ], [ 740101.09817358921282, 4374551.262596284970641 ], [ 744643.292870095232502, 4379232.955833656713367 ], [ 748229.324240257265046, 4384849.20787444896996 ], [ 751009.421246208483353, 4385105.61118927039206 ], [ 757805.010756432078779, 4398245.839130674488842 ], [ 761157.093338944017887, 4400142.384585774503648 ], [ 767127.481350960209966, 4408214.889243646524847 ] ] ] } },
{ "type": "Feature", "properties": { "drag_region": "Central", "NAME": "Lewis", "NAMELSAD": "Lewis" }, "geometry": { "type": "Polygon", "coordinates": [ [ [ 530627.973808216513135, 4388877.4704445656389 ], [ 533112.939796473830938, 4388313.276543766260147 ], [ 536816.59481896343641, 4393951.098589025437832 ], [ 542077.020890158251859, 4396832.805060178972781 ], [ 567557.369125119177625, 4389932.512109177187085 ], [ 566080.487517105764709, 4379910.758506061509252 ], [ 566128.199322735075839, 4373523.518528937362134 ], [ 563652.455228107981384, 4371789.374803455546498 ], [ 562138.170907927444205, 4365867.913234665058553 ], [ 560279.314462937531061, 4364520.545873576775193 ], [ 558487.577020547934808, 4352687.450109601020813 ], [ 560077.081451185047626, 4348121.930053071118891 ], [ 554453.213949323631823, 4349421.179457485675812 ], [ 555363.047618712298572, 4353716.544803271070123 ], [ 551919.554212425835431, 4356175.023351952433586 ], [ 552833.74475653807167, 4359802.835091208107769 ], [ 548455.364999773912132, 4363020.114754295907915 ], [ 543474.585940627614036, 4362614.409371608868241 ], [ 541272.867035761126317, 4367657.178491904400289 ], [ 531589.266783963306807, 4379156.453440747223794 ], [ 530627.973808216513135, 4388877.4704445656389 ] ] ] } },
{ "type": "Feature", "properties": { "drag_region": "Central", "NAME": "Hancock", "NAMELSAD": "Hancock" }, "geometry": { "type": "Polygon", "coordinates": [ [ [ 534258.401548210880719, 4584439.037462847307324 ], [ 536976.861934399814345, 4588168.788078093901277 ], [ 541227.853049724479206, 4588092.243524007499218 ], [ 546678.887753108283505, 4590694.66679325606674 ], [ 547127.550422372296453, 4564187.264058442786336 ], [ 537687.720362137653865, 4563569.506157045252621 ], [ 540394.34655938227661, 4571209.905266512185335 ], [ 537621.896485158009455, 4579207.763798511587083 ], [ 534258.401548210880719, 4584439.037462847307324 ] ] ] } },
{ "type": "Feature", "properties": { "drag_region": "Central", "NAME": "Ohio", "NAMELSAD": "Ohio" }, "geometry": { "type": "Polygon", "coordinates": [ [ [ 530797.793778682593256, 4526614.244244285859168 ], [ 532620.596157135791145, 4529767.141793914139271 ], [ 539958.126908718724735, 4528843.436125406995416 ], [ 546386.29599868983496, 4526872.984320551156998 ], [ 546471.5594921692973, 4511045.008564221672714 ], [ 528393.957009692792781, 4512780.884603958576918 ], [ 527767.548849839018658, 4517546.484540317207575 ], [ 530512.519483259529807, 4520415.508797381073236 ], [ 530797.793778682593256, 4526614.244244285859168 ] ] ] } },
{ "type": "Feature", "properties": { "drag_region": "West", "NAME": "Mingo", "NAMELSAD": "Mingo" }, "geometry": { "type": "Polygon", "coordinates": [ [ [ 312736.660913761996198, 4134111.465024710632861 ], [ 323295.906890279380605, 4143872.39284880971536 ], [ 333432.205166930623818, 4147168.768298694398254 ], [ 335552.012940045853611, 4140182.623838996980339 ], [ 339005.508387692621909, 4138710.242742649745196 ], [ 340215.617285749118309, 4134310.531516363844275 ], [ 337031.234664232935756, 4132156.425489478278905 ], [ 340454.534576658159494, 4127825.28173241019249 ], [ 340387.957367970200721, 4122201.678805519361049 ], [ 342538.637686805799603, 4116742.869537175633013 ], [ 346019.229363021382596, 4116703.399575615301728 ], [ 350385.489989432040602, 4110650.579176063183695 ], [ 351675.928442411764991, 4112924.77501014014706 ], [ 357386.955249810765963, 4114201.671256998088211 ], [ 358316.281645098060835, 4112095.605863485485315 ], [ 361500.633596113941167, 4114067.287482835352421 ], [ 367179.820865252346266, 4111919.71816547960043 ], [ 367786.339548291172832, 4108769.061106271576136 ], [ 362318.055054710595869, 4099571.300028968602419 ], [ 355937.319167003151961, 4095628.43423583265394 ], [ 352476.360947237699293, 4098427.572519639041275 ], [ 348032.666978436755016, 4098093.181843800004572 ], [ 339187.071293785236776, 4101053.358570408541709 ], [ 338278.379343799722847, 4104591.284142428077757 ], [ 335744.460835005156696, 4104717.454160143155605 ], [ 333574.303453384898603, 4108557.62472871504724 ], [ 330721.186272136692423, 4108403.41333457455039 ], [ 328556.87867965514306, 4112435.620032800827175 ], [ 323822.424713402462658, 4113548.2566136457026 ], [ 320451.566662333789282, 4121412.984334685839713 ], [ 319890.080382180924062, 4126378.514162386301905 ], [ 316756.069154085183982, 4128235.480032166466117 ], [ 312736.660913761996198, 4134111.465024710632861 ] ] ] } },
{ "type": "Feature", "properties": { "drag_region": "East", "NAME": "Morgan", "NAMELSAD": "Morgan" }, "geometry": { "type": "Polygon", "coordinates": [ [ [ 804110.280812327750027, 4428354.889376377686858 ], [ 810021.602118131006137, 4426623.69493390712887 ], [ 816842.529788583284244, 4435330.047664187848568 ], [ 824291.702392263803631, 4433658.389309806749225 ], [ 830972.618492635898292, 4427385.526918300427496 ], [ 824945.372272793669254, 4422987.57065344043076 ], [ 821203.045448984019458, 4424203.885090429335833 ], [ 814189.794215504545718, 4401457.085285691544414 ], [ 803743.484943143324926, 4409446.34683224093169 ], [ 793085.509609836852178, 4414770.11385646276176 ], [ 797301.723281298996881, 4418516.50851325225085 ], [ 795009.656947278650478, 4423127.352161816321313 ], [ 799019.783289165701717, 4423147.109609018079937 ], [ 795541.762492282548919, 4426101.048825573176146 ], [ 799886.277726720785722, 4425176.518827198073268 ], [ 800127.717665517469868, 4427474.131819130852818 ], [ 804110.280812327750027, 4428354.889376377686858 ] ] ] } },
{ "type": "Feature", "properties": { "drag_region": "East", "NAME": "Grant", "NAMELSAD": "Grant" }, "geometry": { "type": "Polygon", "coordinates": [ [ [ 686015.292662915657274, 4364996.097322076559067 ], [ 689103.12350715638604, 4365715.84456277359277 ], [ 699148.927968925912865, 4375717.690129618160427 ], [ 702864.882239864440635, 4375691.708830872550607 ], [ 704348.671293753082864, 4379058.192774215713143 ], [ 716144.729749821242876, 4377384.984315895475447 ], [ 729636.990575110190548, 4369375.631145398132503 ], [ 725200.882700292393565, 4359548.160171967931092 ], [ 725839.907292642979883, 4358703.521522710099816 ], [ 720808.979331329814158, 4347054.116831360384822 ], [ 724799.048555011046119, 4334929.56244632974267 ], [ 717281.231357825919986, 4321991.103481401689351 ], [ 697656.858112487243488, 4338399.715154200792313 ], [ 699201.365378042100929, 4338999.933951810002327 ], [ 702716.968308161944151, 4350604.969543277285993 ], [ 697722.913351960130967, 4351943.526290830224752 ], [ 699459.559885284514166, 4358842.044945989735425 ], [ 703095.42765338323079, 4363487.759073523804545 ], [ 701502.69073137443047, 4365746.886011584661901 ], [ 687614.827578384894878, 4362066.556234582327306 ], [ 686035.983475642744452, 4363756.66668352112174 ], [ 686015.292662915657274, 4364996.097322076559067 ] ] ] } },
{ "type": "Feature", "properties": { "drag_region": "East", "NAME": "Jefferson", "NAMELSAD": "Jefferson" }, "geometry": { "type": "Polygon", "coordinates": [ [ [ 859384.662723930436186, 4407135.918986238539219 ], [ 861905.348452514503151, 4405792.929506741464138 ], [ 863015.487274520331994, 4400676.111906462348998 ], [ 865837.597757266717963, 4399631.401480770669878 ], [ 867531.255825290107168, 4395586.406502219848335 ], [ 865891.975878478609957, 4389511.368657493963838 ], [ 869034.827427594806068, 4388287.978934837505221 ], [ 866403.605956983170472, 4383895.875571927987039 ], [ 860485.28070713346824, 4366976.377508332952857 ], [ 842316.412745230249129, 4381063.302037768997252 ], [ 847510.721090912469663, 4392596.298775778152049 ], [ 850860.839596915291622, 4394237.1376879112795 ], [ 857719.371987163438462, 4401730.273485165089369 ], [ 859384.662723930436186, 4407135.918986238539219 ] ] ] } },
{ "type": "Feature", "properties": { "drag_region": "West", "NAME": "Nicholas", "NAMELSAD": "Nicholas" }, "geometry": { "type": "Polygon", "coordinates": [ [ [ 443633.634960726543795, 4192284.01539103500545 ], [ 471563.689772193843964, 4209038.685220192186534 ], [ 479696.683579711592756, 4216199.724898857064545 ], [ 474370.376978040614631, 4219336.649077409878373 ], [ 482493.949679240584373, 4224975.489682845771313 ], [ 485630.806233109731693, 4221456.400431036017835 ], [ 488443.097198117815424, 4222608.414839264005423 ], [ 494391.06813722156221, 4221484.953429420478642 ], [ 491896.790446661354508, 4218997.415927233174443 ], [ 495374.116026221716311, 4210145.187977315858006 ], [ 493498.822179612761829, 4208898.868419524282217 ], [ 496658.750503332877997, 4202429.168193720281124 ], [ 497911.178145624639001, 4202910.966921479441226 ], [ 513025.021106478932779, 4192884.537212061695755 ], [ 504900.004149849584792, 4185213.554569614119828 ], [ 489227.32402064994676, 4171900.247607790865004 ], [ 474114.020245967141818, 4174536.092934957705438 ], [ 468131.224853458872531, 4181679.520272015593946 ], [ 468758.325990266806912, 4184539.396275403909385 ], [ 465300.460591031180229, 4187778.859808727167547 ], [ 463101.059507862955797, 4185872.413078917190433 ], [ 458702.804439820814878, 4187780.386347601190209 ], [ 457443.764198346005287, 4184826.43152831774205 ], [ 452107.084474785719067, 4189121.738523998297751 ], [ 450534.9021823296207, 4188170.989494078792632 ], [ 443633.634960726543795, 4192284.01539103500545 ] ] ] } },
{ "type": "Feature", "properties": { "drag_region": "West", "NAME": "Putnam", "NAMELSAD": "Putnam" }, "geometry": { "type": "Polygon", "coordinates": [ [ [ 360147.55290561390575, 4242255.504164990969002 ], [ 378285.477501500688959, 4245042.311158650554717 ], [ 382608.247374065220356, 4238716.269595864228904 ], [ 377567.715045631339308, 4233703.56607208866626 ], [ 377515.230418481456582, 4227316.769285484217107 ], [ 379967.866056685743388, 4220909.878122247755527 ], [ 368963.258614719670732, 4216142.299023078754544 ], [ 364864.961166131484788, 4213607.245239490643144 ], [ 363217.3543064785772, 4205520.200876224786043 ], [ 356244.205829619662836, 4199014.396227078512311 ], [ 351563.460396170965396, 4201640.189755890518427 ], [ 351983.161540472588968, 4210978.341236581094563 ], [ 350715.23731790506281, 4236924.991060229949653 ], [ 360147.55290561390575, 4242255.504164990969002 ] ] ] } },
{ "type": "Feature", "properties": { "drag_region": "West", "NAME": "Wyoming", "NAMELSAD": "Wyoming" }, "geometry": { "type": "Polygon", "coordinates": [ [ [ 379683.413649034453556, 4109883.69536116393283 ], [ 388582.059812471852638, 4114387.554925194010139 ], [ 382931.913919170387089, 4119960.277505591977388 ], [ 389274.978940576838795, 4122484.35828282404691 ], [ 396871.872873189393431, 4124051.836031849496067 ], [ 399698.579432599653956, 4121174.462466258089989 ], [ 405089.822288664930966, 4124193.105628828983754 ], [ 410142.512509361491539, 4123404.315654114354402 ], [ 422081.712231957062613, 4102672.082753350958228 ], [ 423015.879579583182931, 4097712.87441496970132 ], [ 430930.801231458433904, 4093020.443893073126674 ], [ 427119.436386002518702, 4091314.720684923697263 ], [ 423299.049369421438314, 4087323.391859814524651 ], [ 425507.968653749558143, 4082932.391152298543602 ], [ 417261.01609678164823, 4085629.705453062430024 ], [ 415365.65646022168221, 4087924.852071478962898 ], [ 412183.67454461712623, 4086223.303705177269876 ], [ 409662.525728196196724, 4090047.610347276553512 ], [ 403628.399195475096349, 4089221.559007365256548 ], [ 397293.259709260193631, 4091165.805509203579277 ], [ 395091.232396233128384, 4094039.522987520787865 ], [ 391922.066444700583816, 4094442.47523600468412 ], [ 387776.587234255450312, 4091517.959949518553913 ], [ 378268.780072960362304, 4092834.098025886341929 ], [ 374821.647838492703158, 4097535.277224652934819 ], [ 380289.932332073280122, 4106733.038301955908537 ], [ 379683.413649034453556, 4109883.69536116393283 ] ] ] } },
{ "type": "Feature", "properties": { "drag_region": "East", "NAME": "Berkeley", "NAMELSAD": "Berkeley" }, "geometry": { "type": "Polygon", "coordinates": [ [ [ 837167.606182212475687, 4425094.138703218661249 ], [ 838466.949405518244021, 4423132.448557356372476 ], [ 843950.245845820521936, 4425226.619855298660696 ], [ 849265.159022559062578, 4423213.326772178523242 ], [ 853567.240348909865133, 4423745.825719681568444 ], [ 853691.684074534801766, 4420217.208380289375782 ], [ 848807.135352841694839, 4418614.335557838901877 ], [ 851444.405060147633776, 4413836.403723974712193 ], [ 854470.12689948733896, 4415661.325347903184593 ], [ 854608.117951401858591, 4411751.265718415379524 ], [ 852942.827214634860866, 4406345.620217341929674 ], [ 846084.294824386714026, 4398852.484420088119805 ], [ 842734.176318383892067, 4397211.645507954992354 ], [ 837539.867972701671533, 4385678.648769945837557 ], [ 820384.781905081123114, 4399165.697070609778166 ], [ 827398.033138560713269, 4421912.496875347569585 ], [ 831140.359962370246649, 4420696.182438358664513 ], [ 837167.606182212475687, 4425094.138703218661249 ] ] ] } },
{ "type": "Feature", "properties": { "drag_region": "West", "NAME": "Raleigh", "NAMELSAD": "Raleigh" }, "geometry": { "type": "Polygon", "coordinates": [ [ [ 415912.264180512924213, 4150704.811004966963083 ], [ 417793.115239160193596, 4148503.495193081442267 ], [ 422522.950646209181286, 4148673.351771587971598 ], [ 425678.41054004675243, 4149423.537822668906301 ], [ 429445.693085212085862, 4144644.642916234675795 ], [ 430061.0946065026219, 4139781.635000123176724 ], [ 449627.259893027425278, 4138217.886708063539118 ], [ 451202.900492051790934, 4133737.126011836808175 ], [ 458151.300628207623959, 4133449.997369971126318 ], [ 460994.807470297149848, 4131926.215855442918837 ], [ 465424.037128021358512, 4126116.064006241969764 ], [ 462897.311945131397806, 4123349.582513798493892 ], [ 465112.49966599495383, 4121922.054128448944539 ], [ 466700.545881554950029, 4116777.209515809081495 ], [ 460685.334137852070853, 4120393.440119504462928 ], [ 450240.214508751174435, 4112292.940847211051732 ], [ 450554.577479908009991, 4108861.620119789149612 ], [ 447700.990513221768197, 4106386.006727237254381 ], [ 444216.65925850532949, 4107343.344307947903872 ], [ 438508.193098959047347, 4104875.46836844785139 ], [ 436589.779635284619872, 4097731.673579662572592 ], [ 428674.857983409368899, 4102424.104101559147239 ], [ 427740.690635783248581, 4107383.312439940404147 ], [ 415801.490913187677506, 4128115.545340703800321 ], [ 410748.800692491116934, 4128904.335315418429673 ], [ 410765.604030793649144, 4131954.327368000987917 ], [ 406674.247705805464648, 4134551.432323 ], [ 406725.877976034069434, 4143129.660799340810627 ], [ 408652.465811864763964, 4148932.667815307620913 ], [ 411500.17356197029585, 4150823.005190272349864 ], [ 415912.264180512924213, 4150704.811004966963083 ] ] ] } },
{ "type": "Feature", "properties": { "drag_region": "Central", "NAME": "Upshur", "NAMELSAD": "Upshur" }, "geometry": { "type": "Polygon", "coordinates": [ [ [ 570893.73370092746336, 4387983.729243285953999 ], [ 577402.265612755320035, 4389085.208537907339633 ], [ 582392.597159318975173, 4386364.371367241255939 ], [ 585860.217192438314669, 4380866.96522571425885 ], [ 592384.740004846593365, 4380836.76510270871222 ], [ 592456.069177252589725, 4373972.745090053416789 ], [ 589689.340912154293619, 4370798.202463419176638 ], [ 587878.105963698006235, 4365155.13024818431586 ], [ 588873.175383753026836, 4358967.789170957170427 ], [ 586481.351395618636161, 4348457.273267460055649 ], [ 576814.276583054335788, 4348084.83178695384413 ], [ 573113.839706229744479, 4342620.834984367713332 ], [ 569688.787022665492259, 4341450.681737212464213 ], [ 566842.718759316485375, 4346578.001189805567265 ], [ 563413.446026993333362, 4346173.147187179885805 ], [ 561823.941596356220543, 4350738.667243709787726 ], [ 563615.679038745816797, 4362571.763007685542107 ], [ 565474.53548373572994, 4363919.130368773825467 ], [ 566988.819803916267119, 4369840.591937564313412 ], [ 569464.563898543361574, 4371574.735663046129048 ], [ 569416.852092914050445, 4377961.975640170276165 ], [ 570893.73370092746336, 4387983.729243285953999 ] ] ] } },
{ "type": "Feature", "properties": { "drag_region": "West", "NAME": "Wayne", "NAMELSAD": "Wayne" }, "geometry": { "type": "Polygon", "coordinates": [ [ [ 290611.242040082113817, 4188910.802455956116319 ], [ 293470.567801819590386, 4190768.769645157270133 ], [ 293878.504520830931142, 4196292.430924809537828 ], [ 291427.433981082518585, 4199767.31125118676573 ], [ 291889.481678604090121, 4208341.517572580836713 ], [ 295614.27721307851607, 4206180.073166687041521 ], [ 299389.389711539144628, 4206975.598198126070201 ], [ 313321.957943698740564, 4195127.291230736300349 ], [ 316185.832159600278828, 4197851.03573243226856 ], [ 319594.70278242911445, 4194752.223741459660232 ], [ 317070.487291041412391, 4193834.02353488933295 ], [ 317298.558672527607996, 4187728.825801725499332 ], [ 320422.809826460259501, 4186446.070272861979902 ], [ 318408.096267877088394, 4177130.374127493239939 ], [ 320554.068958246265538, 4173001.280808503739536 ], [ 326444.933842027327046, 4166059.129771183244884 ], [ 316522.405626537103672, 4154847.186934748664498 ], [ 305963.159650019719265, 4145086.259110649581999 ], [ 306328.233103767794091, 4148322.318059497978538 ], [ 301622.048460600257386, 4150206.819170053116977 ], [ 299494.177717440819833, 4155294.045054865069687 ], [ 302709.455258469388355, 4159152.103177301585674 ], [ 298015.037079655507114, 4161324.861051697283983 ], [ 295305.627988493302837, 4168997.45886935852468 ], [ 292230.162895141460467, 4173340.167696506716311 ], [ 287571.912091812933795, 4176949.18009514734149 ], [ 287635.923281227063853, 4180571.579372402280569 ], [ 290151.329386189288925, 4180527.50353264901787 ], [ 290611.242040082113817, 4188910.802455956116319 ] ] ] } },
{ "type": "Feature", "properties": { "drag_region": "West", "NAME": "Lincoln", "NAMELSAD": "Lincoln" }, "geometry": { "type": "Polygon", "coordinates": [ [ [ 325602.899090179358609, 4155337.641032771673054 ], [ 335525.427305669581983, 4166549.583869206253439 ], [ 329634.562421888520475, 4173491.734906526748091 ], [ 327488.589731519343331, 4177620.828225516248494 ], [ 329503.303290102514438, 4186936.524370884988457 ], [ 331765.057148232939653, 4191577.635479614604264 ], [ 334617.056064136850182, 4193542.047367749270052 ], [ 337513.744069693493657, 4199129.76881995331496 ], [ 342538.483805426978506, 4199544.072985546663404 ], [ 344451.046830247098114, 4202095.264326993376017 ], [ 348849.603039963985793, 4202806.904151746071875 ], [ 348429.901895662362222, 4193468.752671055030078 ], [ 353110.647329111059662, 4190842.959142243023962 ], [ 360083.795805969974026, 4197348.763791389763355 ], [ 368858.369676328497007, 4196122.487736731767654 ], [ 370063.882405174779706, 4190392.213692775461823 ], [ 369393.369200193148572, 4185536.330091264564544 ], [ 367182.8550985592301, 4184316.684656085912138 ], [ 365574.823094319668598, 4180327.547720503527671 ], [ 362425.374144656350836, 4179785.144886461552233 ], [ 363336.164685364405159, 4176344.656313359271735 ], [ 358949.589556513470598, 4178103.257503198925406 ], [ 356710.000215977663174, 4174408.104288789909333 ], [ 355057.140219539054669, 4166798.876602650154382 ], [ 358493.635815319488756, 4163999.205917172599584 ], [ 348399.701753083150834, 4162962.558067047502846 ], [ 325602.899090179358609, 4155337.641032771673054 ] ] ] } },
{ "type": "Feature", "properties": { "drag_region": "Central", "NAME": "Monongalia", "NAMELSAD": "Monongalia" }, "geometry": { "type": "Polygon", "coordinates": [ [ [ 563022.626070261932909, 4468555.621026798151433 ], [ 606090.821923600044101, 4468954.849180730991066 ], [ 619319.147790429065935, 4469125.941572550684214 ], [ 617311.148045580484904, 4458322.459676739759743 ], [ 607953.478508264757693, 4442467.943198955617845 ], [ 608325.215204843669198, 4437323.264129092916846 ], [ 602112.340656097279862, 4440301.028331794776022 ], [ 585902.961357930209488, 4456437.227622446604073 ], [ 569263.06685710081365, 4456489.325789970345795 ], [ 565239.000383300357498, 4459226.241682186722755 ], [ 564255.660458103287965, 4468182.302852907218039 ], [ 563022.626070261932909, 4468555.621026798151433 ] ] ] } },
{ "type": "Feature", "properties": { "drag_region": "Central", "NAME": "Braxton", "NAMELSAD": "Braxton" }, "geometry": { "type": "Polygon", "coordinates": [ [ [ 505932.78241744620027, 4341264.59142333548516 ], [ 533009.922787539777346, 4360762.580362066626549 ], [ 535503.830972551251762, 4359818.643755751661956 ], [ 538607.482568072620779, 4362024.020084819756448 ], [ 540809.201472939108498, 4356981.250964524224401 ], [ 545789.980532085406594, 4357386.956347211264074 ], [ 550168.360288849566132, 4354169.676684123463929 ], [ 549254.169744737329893, 4350541.864944867789745 ], [ 552697.663151023793034, 4348083.386396186426282 ], [ 551787.829481635126285, 4343788.021050401031971 ], [ 547164.2315756973112, 4333371.010681822896004 ], [ 535033.084280861075968, 4320065.144676145166159 ], [ 529085.113341757329181, 4321188.606085988692939 ], [ 526272.82237674924545, 4320036.591677760705352 ], [ 523135.965822880039923, 4323555.680929570458829 ], [ 515012.39312168007018, 4317916.84032413456589 ], [ 511566.283993289980572, 4322107.290910330601037 ], [ 510937.659563748864457, 4325919.710523975081742 ], [ 507185.533575862180442, 4327442.765155350789428 ], [ 506559.482811896479689, 4330969.583369837142527 ], [ 501874.50241718266625, 4335736.010784893296659 ], [ 505932.78241744620027, 4341264.59142333548516 ] ] ] } },
{ "type": "Feature", "properties": { "drag_region": "Central", "NAME": "Pleasants", "NAMELSAD": "Pleasants" }, "geometry": { "type": "Polygon", "coordinates": [ [ [ 466804.519431572582107, 4421775.182196068577468 ], [ 475479.533909052319359, 4426606.594916112720966 ], [ 480736.13625160738593, 4427355.304317270405591 ], [ 484145.705041028035339, 4432496.379817811772227 ], [ 488472.582745775696822, 4434491.517301732674241 ], [ 493414.719700718531385, 4436583.953533206135035 ], [ 496501.325545676692855, 4434961.666294166818261 ], [ 498043.984340589202475, 4422662.830424598418176 ], [ 494950.132818281825166, 4420185.002724479883909 ], [ 488451.400530168146361, 4418570.213706600479782 ], [ 479785.859785607026424, 4417919.184955169446766 ], [ 478227.035771618073341, 4413537.672067403793335 ], [ 476376.951087869761977, 4416212.185490580275655 ], [ 470807.976401373569388, 4416897.544038895517588 ], [ 466804.519431572582107, 4421775.182196068577468 ] ] ] } },
{ "type": "Feature", "properties": { "drag_region": "East", "NAME": "Hardy", "NAMELSAD": "Hardy" }, "geometry": { "type": "Polygon", "coordinates": [ [ [ 735401.346740636974573, 4367291.506656784564257 ], [ 742626.349488430190831, 4363163.022430038079619 ], [ 757021.202269250759855, 4358071.849708636291325 ], [ 760128.014867682242766, 4357959.286803261376917 ], [ 766727.335044865030795, 4354885.475341963581741 ], [ 768216.079604161321186, 4357310.036478730849922 ], [ 771964.651187194511294, 4356455.742763704620302 ], [ 776749.857608288060874, 4351814.682146116159856 ], [ 771329.501730404677801, 4345370.191026769578457 ], [ 773234.927776386146434, 4343894.610116939991713 ], [ 769042.377128452877514, 4337771.682679952122271 ], [ 766813.042043356923386, 4339716.913496050052345 ], [ 762309.335665969992988, 4333303.758770451880991 ], [ 759254.867288250359707, 4330936.846896876581013 ], [ 759168.833867049426772, 4334369.288548835553229 ], [ 752176.237858629086986, 4327423.666272165253758 ], [ 746237.314578742254525, 4314881.34179793484509 ], [ 735110.259792130091228, 4324263.976286711171269 ], [ 730023.642863847780973, 4314329.506311424076557 ], [ 723045.587523352704011, 4319906.978992788121104 ], [ 730563.404720537830144, 4332845.437957716174424 ], [ 726573.335496856598184, 4344969.992342746816576 ], [ 731604.263458169763908, 4356619.39703409653157 ], [ 730965.23886581917759, 4357464.035683354362845 ], [ 735401.346740636974573, 4367291.506656784564257 ] ] ] } },
{ "type": "Feature", "properties": { "drag_region": "West", "NAME": "Monroe", "NAMELSAD": "Monroe" }, "geometry": { "type": "Polygon", "coordinates": [ [ [ 483063.752600759617053, 4081474.11641541402787 ], [ 500415.054945289099123, 4113256.235135660972446 ], [ 500091.87105505989166, 4115161.302727619186044 ], [ 514031.705201051256154, 4110743.337515722028911 ], [ 519099.961050835961942, 4109913.766240886878222 ], [ 523823.226629675540607, 4113660.168737731873989 ], [ 524789.793038608622737, 4110997.643082005437464 ], [ 532701.646947289118543, 4110958.0991903943941 ], [ 533997.451045244699344, 4107059.970062285196036 ], [ 539406.627671053633094, 4103862.458549841307104 ], [ 535635.892518403124996, 4100019.301039188168943 ], [ 529955.462847078102641, 4096735.943130814470351 ], [ 529660.191477946122177, 4093683.795393555425107 ], [ 533785.516466888249852, 4093332.933422331698239 ], [ 532537.640418105875142, 4090559.422206718474627 ], [ 517045.617151077778544, 4081117.941962176468223 ], [ 515133.491855051077437, 4082346.510121094528586 ], [ 513836.579103275376838, 4087486.365836701821536 ], [ 510032.58552059851354, 4086609.656456913333386 ], [ 504020.548039103101473, 4082103.830170314759016 ], [ 491018.001798252575099, 4075295.02206447115168 ], [ 489741.107129869342316, 4077769.920459778513759 ], [ 483063.752600759617053, 4081474.11641541402787 ] ] ] } },
{ "type": "Feature", "properties": { "drag_region": "West", "NAME": "Jackson", "NAMELSAD": "Jackson" }, "geometry": { "type": "Polygon", "coordinates": [ [ [ 368629.652237146277912, 4275793.958692607469857 ], [ 373314.989946226356551, 4277369.417481151409447 ], [ 374285.924781824578531, 4281364.637258759699762 ], [ 377103.008347701164894, 4283245.813676863908768 ], [ 379882.004231418250129, 4280838.053234740160406 ], [ 381215.563755397801287, 4291409.363828987814486 ], [ 378132.726490960456431, 4294200.803913604468107 ], [ 377237.541612323955633, 4298308.431146796792746 ], [ 382838.207127588335425, 4299785.776813951320946 ], [ 401402.83581735775806, 4289644.559569601900876 ], [ 399822.977265115361661, 4285363.89289032574743 ], [ 403835.284321115352213, 4279906.641958977095783 ], [ 401957.856705604004674, 4278105.910486569628119 ], [ 402220.577776916674338, 4269619.807415529154241 ], [ 399938.144344532163814, 4252664.252747002057731 ], [ 402086.3594508607639, 4246074.026223043911159 ], [ 392354.382085466990247, 4239652.871066776104271 ], [ 382463.007124339812435, 4254027.036087892949581 ], [ 380275.266043164418079, 4253759.191769554279745 ], [ 376874.874492700444534, 4257602.022460352629423 ], [ 378764.485415530274622, 4259587.521226495504379 ], [ 368629.652237146277912, 4275793.958692607469857 ] ] ] } },
{ "type": "Feature", "properties": { "drag_region": "West", "NAME": "Mason", "NAMELSAD": "Mason" }, "geometry": { "type": "Polygon", "coordinates": [ [ [ 344668.04966434801463, 4283651.024621080607176 ], [ 350976.275292369653471, 4291395.76326487865299 ], [ 354974.086861058254726, 4287537.795350403524935 ], [ 358392.309143464895897, 4287406.341152475215495 ], [ 362048.082299841800705, 4279837.35298752784729 ], [ 359531.836849109036848, 4277192.98926190007478 ], [ 371197.217717008432373, 4258396.927825216203928 ], [ 369307.606794178602286, 4256411.429059073328972 ], [ 372707.99834464257583, 4252568.598368274979293 ], [ 356757.81482993112877, 4250049.635692954063416 ], [ 347325.499242222285829, 4244719.122588193044066 ], [ 348093.797592024086043, 4229932.639265130273998 ], [ 333862.858308416325599, 4243074.925332742743194 ], [ 337965.563481233897619, 4246072.564838067628443 ], [ 337152.295899388496764, 4255712.89292960613966 ], [ 334164.541196183534339, 4265763.58984119258821 ], [ 340772.423760801786557, 4270636.316063574515283 ], [ 340852.402611968107522, 4277023.607788439840078 ], [ 344668.04966434801463, 4283651.024621080607176 ] ] ] } }
]
}
